venue_id,venue_name,city,state,country,lat,lon
rZ7HnEZ178s4g,Blue Moon Saloon,Lafayette,Louisiana,United States Of America,30.220444,-92.016281
KovZpZA6teaA,El Cantoral ,Mexico,Ciudad de México,Mexico,19.361737,-99.166137
KovZ917Am63,Eltham Hotel,Eltham,New South Wales,Australia,-28.75597902,153.39395738
rZ7HnEZ1734-A,The Merry Widow,Mobile,Alabama,United States Of America,30.6906949,-88.0424123
rZ7HnEZ17qf40,Club Vinyl,Denver,Colorado,United States Of America,39.733550,-104.987060
KovZpZA1ltEA,Palace Theatre Stamford,Stamford,Connecticut,United States Of America,41.05078310,-73.53954260
rZ7HnEZa7JQ,Kingston Mines - Chicago Blues Center,Chicago,Illinois,United States Of America,41.929086,-87.648951
rZ7HnEZ17_O4S,Atomic Garage,St. Louis,Missouri,United States Of America,38.62771370390,-90.25180028650
rZ7HnEZ173pGP,La Rumba,Denver,Colorado,United States Of America,39.73059,-104.98857
rZ7HnEZadgx,Pyramid Cabaret,Winnipeg,Manitoba,Canada,49.891018,-97.137848
rZ7HnEZ17Q94S,Buck's Backyard (Indoor),Buda,Texas,United States Of America,30.0707862,-97.8730929
rZ7HnEZ173p1A,Stampede,Aurora,Colorado,United States Of America,39.672363,-104.865271
rZ7HnEZ17oYp4,Hollywood Theatre,Vancouver,British Columbia,Canada,49.264440,-123.174560
rZ7HnEZafK3,The Pearl,Vancouver,British Columbia,Canada,49.280658,-123.121407
rZ7HnEZ178Uu4,The Porch at The Howlin Wolf,New Orleans,Louisiana,United States Of America,29.94601,-90.065775
KovZ917Acfp,Liberty Hall,Moore Park,New South Wales,Australia,-33.89410300,151.22526700
rZ7HnEZ17fdZg,The Bluebird Cafe,Nashville,Tennessee,United States Of America,36.1016781,-86.8178113
rZ7HnEZadxy,Southern California Railway Museum,Perris,California,United States Of America,33.760800451827,-117.23307562071
KovZpZAJn7EA,Teatro SOGEM Wilberto Cantón,México,Ciudad de México,Mexico,19.36441040,-99.18688960
KovZpZAJtkJA,Pabellón del Palacio de los Deportes,México,Ciudad de México,Mexico,19.40154080,-99.09806060
KovZpZA7klAA,House of Blues Las Vegas ,Las Vegas,Nevada,United States Of America,36.08753500,-115.17474200
KovZ917AY2E,The Composers Room,Las Vegas,Nevada,United States Of America,36.14182797,-115.14422500
rZ7HnEZ17f7Z4,FITZGERALDS NIGHTCLUB,Berwyn,Illinois,United States Of America,41.864890,-87.789520
rZ7HnEZ174o4z,The 44 Sports Grill and Nightlife,Glendale,Arizona,United States Of America,33.58291,-112.15469
rZ7HnEZ17fK4P,Hop Springs,Murfreesboro,Tennessee,United States Of America,35.820643,-86.266806
KovZ917APwI,The Factory,Saint Louis,Missouri,United States Of America,38.67209000,-90.59321000
KovZpZA7AJ6A,La Maraka,México,Ciudad de México,Mexico,19.38651080,-99.16317750
rZ7HnEZ174zuz,Snug Harbor Jazz Bistro,New Orleans,Louisiana,United States Of America,29.964167,-90.057912
rZ7HnEZ17C_r4,Ivan'z House at Mozambique,Laguna Beach,California,United States Of America,33.529436,-117.771375
KovZpa9OYe,Crowder Hall - University of Arizona,Tucson,Arizona,United States Of America,32.23405996,-110.95369339
KovZpZAdnJAA,Bruce Mason Centre,Takapuna Beach,New Zealand,New Zealand,-36.78368380,174.77359010
KovZpZA6JnAA,Auditorio Luis Elizondo,Monterrey,Nuevo León,Mexico,25.650634,-100.285415
rZ7HnEZ173__A,Transplants Brewing Company,Palmdale,California,United States Of America,34.61442,-118.13965
rZ7HnEZaeqM,Empty Bottle,Chicago,Illinois,United States Of America,41.900476,-74.00594130000002
KovZ917AYhY,Bob Marley Hope Road,Las Vegas,Nevada,United States Of America,36.09211000,-115.17465000
Z598xZbpZAv6F,,Amsterdam,,Netherlands,52.31345,4.93719
rZ7HnEZ178YFP,Blue Note Napa,Napa,California,United States Of America,38.299671,-122.285516
rZ7HnEZ178IAg,Bourbon Theatre,Lincoln,Nebraska,United States Of America,40.813650380854,-96.7007018306
rZ7HnEZakJm,The Starlite Room,Edmonton,Alberta,Canada,53.546218,-113.490371
KovZ917AGpf,GLC Live at 20 Monroe,Grand Rapids,Michigan,United States Of America,42.96340100,-85.67206900
KovZ917ANgr,Yucaipa Performing Arts Center Indoor Theatre,Yucaipa,California,United States Of America,34.034569,-117.038988
KovZ917AinI,The Atlantis,Washington,District of Columbia,United States Of America,38.91819000,-77.02241000
KovZpZAkE1lA,Thunder Bay Community Auditorium,Thunder Bay,Ontario,Canada,48.42809900,-89.24979200
rZ7HnEZ17F0oA,The Pyramid Scheme,Grand Rapids,Michigan,United States Of America,42.961269,-85.668812
KovZpZAE61IA,Two Dimes,Tuscaloosa,Alabama,United States Of America,33.21068000,-87.55492900
KovZpZA6dEaA,Route 20,Sturtevant,Wisconsin,United States Of America,42.72609300,-87.95755900
KovZpa3yBe,The Danforth Music Hall,Toronto,Ontario,Canada,43.67644920,-79.35710140
KovZ917AJ4f,History,Toronto,Ontario,Canada,43.66684147,-79.31351149
KovZpZAFlF1A,The Mod Club (formerly known as The Axis Club),Toronto,Ontario,Canada,43.65516550,-79.41906360
KovZpZAJe6dA,CFG Bank Arena,Baltimore,Maryland,United States Of America,39.28849400,-76.61870000
KovZ917Ax13,Roxian Theatre Presented By Citizens,McKees Rocks,Pennsylvania,United States Of America,40.46482800,-80.05887300
KovZpZAdtAeA,The Garrison,Toronto,Ontario,Canada,43.64927320,-79.42230750
KovZ917APwH,713 Music Hall,Houston,Texas,United States Of America,29.76539000,-95.36416000
Z5IMVHtnMZAed,,,,,-33.4623913,-70.6113274
KovZpZA77ldA,Brooklyn Paramount,Brooklyn,New York,United States Of America,40.69137302,-73.98124051
rZ7HnEZa6_9,Will's Pub,Orlando,Florida,United States Of America,28.5598651,-81.3647185
KovZpZAEAkEA,Saint Andrew's Hall,Detroit,Michigan,United States Of America,42.33234490,-83.04146400
KovZpZAF7aJA,Pantages Theatre,Minneapolis,Minnesota,United States Of America,44.97798800,-93.27553300
KovZpZAEA7eA,Citizens House of Blues Boston,Boston,Massachusetts,United States Of America,42.34718410,-71.09570360
KovZpapwne,Brighton Music Hall presented by Citizens,Boston,Massachusetts,United States Of America,42.35289990,-71.13261280
KovZpZAEAIaA,Theatre of Living Arts,Philadelphia,Pennsylvania,United States Of America,39.94130500,-75.14867800
KovZ917Aiqe,Federal Way Performing Arts and Event Center,Federal Way,Washington,United States Of America,47.26918000,-122.31010000
KovZ917AQC0,Armory,Minneapolis,Minnesota,United States Of America,44.97518300,-93.26351200
KovZ917A3Y7,The Anthem,Washington,District of Columbia,United States Of America,38.88009900,-77.02616500
KovZpZAIvl1A,Ludlow Garage Cincinnati,Cincinnati,Ohio,United States Of America,39.14396800,-84.52119500
KovZ917Acbk,The Theatre at Great Canadian Casino Resort Toronto,Toronto,Ontario,Canada,43.71252500,-79.60204200
KovZ917A5hf,Avondale Brewing Co.,Birmingham,Alabama,United States Of America,33.52454500,-86.77417100
KovZpZAIEntA,The Walker Theatre,Chattanooga,Tennessee,United States Of America,35.04804900,-85.30565900
KovZpZA7dkJA,Bowery Ballroom,New York,New York,United States Of America,40.72036400,-73.99354200
rZ7HnEZa7uK,The Apollo Theatre Ac,Belvidere,Illinois,United States Of America,42.2593188,-88.843654
rZ7HnEZ178EQ4,Electric Haze,Worcester,Massachusetts,United States Of America,42.425429,-71.798819
KovZpZAFdJdA,F.M. Kirby Center,Wilkes Barre,Pennsylvania,United States Of America,41.24538320,-75.88181080
KovZ917AJuG,Jimmy's Jazz and Blues Club,Portsmouth,New Hampshire,United States Of America,43.07634404,-70.76009881
KovZ917AxCO,Fillmore Minneapolis presented by Affinity Plus,Minneapolis,Minnesota,United States Of America,44.98422000,-93.27924000
KovZ917AYnv,Nevermore Hall,Baltimore,Maryland,United States Of America,39.29044300,-76.61233300
KovZpZA77t6A,Palacio de los Deportes,Ciudad de México,Ciudad de México,Mexico,19.40154080,-99.09806060
KovZpZAEkaIA,Montgomery Performing Arts Centre,Montgomery,Alabama,United States Of America,32.37910100,-86.31208100
KovZpa3Dre,L'Olympia,Montreal,Quebec,Canada,45.51701000,-73.55687400
KovZpZAEk7EA,Mercury Ballroom,Louisville,Kentucky,United States Of America,38.24851446,-85.75788997
KovZpZAkldvA,Copper Blues Oxnard Resturant,Oxnard,California,United States Of America,34.24022900,-119.17627400
KovZpa4fJe,Baltimore Soundstage,Baltimore,Maryland,United States Of America,39.28763705,-76.60719037
KovZ917AiGZ,White Oak Music Hall - Downstairs,Houston,Texas,United States Of America,29.78627000,-95.36562000
KovZpZAE6k6A,The Cynthia Woods Mitchell Pavilion sponsored by Huntsman,The Woodlands,Texas,United States Of America,30.16190839,-95.46435087
KovZ917Ai5U,White Oak Music Hall - Upstairs ,Houston,Texas,United States Of America,29.78627000,-95.36562000
KovZ917A58V,The Bronze Peacock at House of Blues Houston,Houston,Texas,United States Of America,29.75392900,-95.36405600
KovZpZAJJn6A,H-E-B Center at Cedar Park,Cedar Park,Texas,United States Of America,30.53931950,-97.82448000
KovZpZAEAEeA,Emo's Austin,Austin,Texas,United States Of America,30.23957400,-97.72804800
KovZpZA6EkkA,Auditorio Nacional,Ciudad de México,Ciudad de México,Mexico,19.424648,-99.19484
KovZpaFEre,The Fillmore Charlotte,Charlotte,North Carolina,United States Of America,35.23909500,-80.84551900
KovZpZA1vt6A,The Charleston Music Hall,Charleston,South Carolina,United States Of America,32.78831100,-79.93680300
KovZpZAIIvEA,The Underground,Charlotte,North Carolina,United States Of America,35.24029900,-80.84531400
KovZ917Ax6H,The Capitol Theatre,Port Chester,New York,United States Of America,41.00134610,-73.66544880
KovZpZAE6vtA,House of Blues New Orleans ,New Orleans,Louisiana,United States Of America,29.95314990,-90.06616870
KovZpZAJAkAA,Mercury Lounge,New York,New York,United States Of America,40.72203600,-73.98680600
rZ7HnEZ17qsf7,First Baptist Pampa,Pampa,Texas,United States Of America,35.5346597,-100.9706338
rZ7HnEZadyf,3rd and Lindsley,Nashville,Tennessee,United States Of America,36.152076,-86.770085
rZ7HnEZaePL,Bottom Lounge,Chicago,Illinois,United States Of America,41.885046,-87.661767
rZ7HnEZ17aJq7,Thalia Hall,Chicago,Illinois,United States Of America,41.857717,-87.657459
rZ7HnEZ17otjg,La Santa,Santa Ana,California,United States Of America,33.747048,-117.866312
KovZpZAEAkvA,Old National Centre,Indianapolis,Indiana,United States Of America,39.77464676,-86.15145874
KovZpZAattdA,Sandler Center For The Performing Arts,Virginia Beach,Virginia,United States Of America,36.80096430,-76.12105940
KovZpZAFdJnA,Byline Bank Aragon Ballroom,Chicago,Illinois,United States Of America,41.96941873,-87.65797212
KovZpZAEkteA,The Fillmore Philadelphia,Philadelphia,Pennsylvania,United States Of America,39.96580300,-75.13468600
KovZ917AEtU,Brooklyn Bowl Philadelphia,Philadelphia,Pennsylvania,United States Of America,39.96547300,-75.13482900
KovZ917A-wx,Seminole Hard Rock Tampa Event Center,Tampa,Florida,United States Of America,27.993871,-82.37106
KovZpa2Wfe,Credit Union of Texas Event Center,Allen,Texas,United States Of America,33.12917800,-96.65519210
KovZ917AxY0,The Echo Lounge & Music Hall,Dallas,Texas,United States Of America,32.790548,-96.814464
KovZ917A91V,Bloomington Center for the Performing Arts,Bloomington,Illinois,United States Of America,40.48413800,-88.99278900
KovZ917ACc7,Coca-Cola Roxy,Atlanta,Georgia,United States Of America,33.89024,-84.469717
KovZpa3h3e,Macon City Auditorium,Macon,Georgia,United States Of America,32.83738100,-83.63120100
KovZpaFEZe,Tabernacle,Atlanta,Georgia,United States Of America,33.75868800,-84.39144900
KovZpZAJAllA,Buckhead Theatre,Atlanta,Georgia,United States Of America,33.84022720,-84.37954370
KovZpa2Xke,State Farm Arena,Atlanta,Georgia,United States Of America,33.75779600,-84.39456900
KovZpZAF6JEA,Jabbawockeez Theater at MGM Grand Hotel & Casino,Las Vegas,Nevada,United States Of America,36.10291600,-115.16975600
rZ7HnEZ178MpA,Funk 'n Waffles,Syracuse,New York,United States Of America,43.048366,-76.153423
rZ7HnEZ178J7g,Birdland Jazz Club,New York,New York,United States Of America,40.7590167,-73.9896861
rZ7HnEZa5n1,SPACE,Evanston,Illinois,United States Of America,42.040884,-87.680254
rZ7HnEZa7Bp,The Park Theatre,Winnipeg,Manitoba,Canada,49.862250,-97.131670
KovZ917AEJz,MGM Music Hall at Fenway,Boston,Massachusetts,United States Of America,42.34680600,-71.09727200
KovZ917AQBC,The Sylvee,Madison,Wisconsin,United States Of America,43.08088800,-89.37456600
KovZpZAIltlA,Commonwealth Bar,Calgary,Alberta,Canada,51.04357100,-114.07829800
KovZpaK1we,Burton Cummings Theatre,Winnipeg,Manitoba,Canada,49.89582260,-97.14363900
KovZpa3N8e,Chandler Center for the Arts,Chandler,Arizona,United States Of America,33.30781700,-111.84185400
KovZ917AiJz,Vibrant Music Hall,Waukee,Iowa,United States Of America,41.58096000,-93.85440000
KovZpZAFEeFA,Reggies Music Joint,Chicago,Illinois,United States Of America,41.853988,-87.62706
KovZpZAtv1nA,Antone's Nightclub,Austin,Texas,United States Of America,30.26605000,-97.74040100
KovZpZA6Jl6A,Auditorio Benito Juarez Guadalajara,Zapopan,Jalisco,Mexico,20.732365,-103.348444
KovZ917AOSm,Thunderland Showroom at Excalibur,Las Vegas,Nevada,United States Of America,36.09873800,-115.17501100
KovZ917APep,Brooklyn Bowl Nashville,Nashville,Tennessee,United States Of America,36.17321400,-86.78363200
KovZpZA6taAA,Bridgestone Arena,Nashville,Tennessee,United States Of America,36.15994900,-86.77857000
KovZpZAEetIA,ExtraMile Arena,Boise,Idaho,United States Of America,43.60358000,-116.19910700
KovZpZAFFt1A,Summit Music Hall,Denver,Colorado,United States Of America,39.75333786,-104.99507141
KovZpZAJeFkA,Marquis,Denver,Colorado,United States Of America,39.753332,-104.992516
KovZpZAFa1nA,Paramount Theatre,Denver,Colorado,United States Of America,39.74436200,-104.99027100
rZ7HnEZ1737ug,Capitol Music Club,Saskatoon,Saskatchewan,Canada,52.131410,-106.663840
rZ7HnEZa7Om,Off Broadway,Saint Louis,Missouri,United States Of America,38.608822,-90.223274
rZ7HnEZ1789Gg,The Basement East,Nashville,Tennessee,United States Of America,36.175636,-86.755652
rZ7HnEZak6C,Rumba Cafe,Columbus,Ohio,United States Of America,40.014735,-83.000349
rZ7HnEZak6S,The Basement,Nashville,Tennessee,United States Of America,36.137061,-86.778496
rZ7HnEZ178Ve4,Garden Amphitheatre,Garden Grove,California,United States Of America,33.777011,-117.940602
rZ7HnEZ17qobV,Sidestage,Winnipeg,Manitoba,Canada,49.862170,-97.131600
rZ7HnEZ17fS8P,Showdown Saloon,Portland,Oregon,United States Of America,45.50122605,-122.65284748
rZ7HnEZ17fa7P,The East Room,Nashville,Tennessee,United States Of America,36.194958,-86.743149
rZ7HnEZ178__g,La Boom Columbus,Columbus,Ohio,United States Of America,39.943671,-83.105808
rZ7HnEZ17_KOS,Thirsty Horse Saloon,San Antonio,Texas,United States Of America,29.5427119,-98.527468
rZ7HnEZ17o4OP,Lucinda's,New York,New York,United States Of America,40.728329,-73.982199
rZ7HnEZ17a88V,Middle East - Zuzu,Cambridge,Massachusetts,United States Of America,42.36374167151,-71.10074879726
rZ7HnEZ17a8o7,Middle East - Corner/Bakery,Cambridge,Massachusetts,United States Of America,42.363809,-71.101423
KovZpZAt6e7A,Delmar Hall,Saint Louis,Missouri,United States Of America,38.65553000,-90.29719100
KovZpa2BOe,Rosemont Theatre,Rosemont,Illinois,United States Of America,41.97664100,-87.86369000
KovZ917AY3o,Garcia's Chicago,Chicago,Illinois,United States Of America,41.88300000,-87.65256000
KovZpZAJvttA,The Belasco,Los Angeles,California,United States Of America,34.04024506,-118.25923920
KovZpZAF7IIA,Hoyt Sherman Place,Des Moines,Iowa,United States Of America,41.58864300,-93.63833900
KovZpa3sre,Uptown Theater,Kansas City,Missouri,United States Of America,39.06114940,-94.59052560
KovZpa2H7e,The Auditorium,Chicago,Illinois,United States Of America,41.87570220,-87.62451860
KovZ917AJvw,Hollywood Theatre,Vancouver,British Columbia,Canada,49.26444400,-123.17456100
KovZpZAE6eIA,Maverik Center,West Valley City,Utah,United States Of America,40.70196300,-111.95042600
rZ7HnEZ17oFZ4,Crescent Ballroom,Phoenix,Arizona,United States Of America,33.451777,-112.076837
rZ7HnEZ17oxvP,Valley Bar,Phoenix,Arizona,United States Of America,33.449979,-112.074318
rZ7HnEZ174KrF,Birdland Theater,New York,New York,United States Of America,40.7590167,-73.9896861
KovZ917AJ5H,The Moroccan Lounge,Los Angeles,California,United States Of America,34.04898000,-118.23365000
KovZ917AI8j,Voodoo Room at the House of Blues San Diego,San Diego,California,United States Of America,32.71662000,-117.15951000
KovZpZAJ67eA,American Airlines Center,Dallas,Texas,United States Of America,32.79067196,-96.81081803
KovZpZAEkklA,Commodore Ballroom,Vancouver,British Columbia,Canada,49.28064620,-123.12086520
KovZpZAJk7eA,Marquee Theatre,Tempe,Arizona,United States Of America,33.43699137,-111.94398356
KovZpZAJ711A,The Event at Graton Resort & Casino,Rohnert Park,California,United States Of America,38.35678537,-122.72295065
KovZ917A887,The Van Buren,Phoenix,Arizona,United States Of America,33.45108500,-112.07922800
KovZpZAJaJ1A,Harrah's Showroom at Harrah's Las Vegas,Las Vegas,Nevada,United States Of America,36.11955071,-115.17201830
KovZpZAFFtaA,Isleta Amphitheater,Albuquerque,New Mexico,United States Of America,34.98871050,-106.61542900
KovZ917AcRx,The ELM,Bozeman,Montana,United States Of America,45.68528000,-111.04592000
KovZpZA1lldA,The Wilma,Missoula,Montana,United States Of America,46.86972700,-113.99612700
rZ7HnEZ17aYjV,The Coach House,San Juan Capistrano,California,United States Of America,33.482292,-117.671419
rZ7HnEZ17oJxA,Brick By Brick,San Diego,California,United States Of America,32.767448,-117.202240
rZ7HnEZ17qpvf,Blue Note Los Angeles,Los Angeles,California,United States Of America,34.09772,-118.32871
rZ7HnEZ17bAAI,Christian Life Assembly,Langley,British Columbia,Canada,49.105250,-122.634900
rZ7HnEZa7xC,Midtown,Bend,Oregon,United States Of America,44.0596714,-121.308361
rZ7HnEZ173fr4,Lil' Indies,Orlando,Florida,United States Of America,28.559760,-81.364740
rZ7HnEZ17QkQd,Night Club 101,New York,New York,United States Of America,40.725911,-73.984043
KovZpZAEvnFA,Teragram Ballroom,Los Angeles,California,United States Of America,34.05184100,-118.26707600
KovZpZAEAl6A,The Wiltern,Los Angeles,California,United States Of America,34.06141494,-118.30879207
KovZpa6OCe,Echoplex,Los Angeles,California,United States Of America,34.07758470,-118.26063160
KovZ917A967,The Echo,Los Angeles,California,United States Of America,34.07772900,-118.26010800
KovZpZAF6JkA,The Observatory,Santa Ana,California,United States Of America,33.69976480,-117.91757170
KovZpZAEkn6A,Kia Forum,Inglewood,California,United States Of America,33.95830000,-118.34186800
KovZpZAEFI6A,South Point Showroom at South Point Hotel Casino and Spa,Las Vegas,Nevada,United States Of America,36.01130600,-115.17528100
KovZpZAJFnvA,Westgate Las Vegas Resort & Casino,Las Vegas,Nevada,United States Of America,36.13569100,-115.15235600
rZ7HnEZa7PM,Tractor,Seattle,Washington,United States Of America,47.665699,-122.38289
rZ7HnEZ17397g,Madame Lou's,Seattle,Washington,United States Of America,47.61358643,-122.34428406
rZ7HnEZa7Yy,Catalina Bar & Grill,Hollywood,California,United States Of America,34.098337,-118.337228
rZ7HnEZaASU,Blue Note Jazz Club,New York,New York,United States Of America,40.730940,-74.000650
rZ7HnEZ17f6fA,The Alpine,Reno,Nevada,United States Of America,39.5309066,-119.809043
KovZpZAFAIEA,Grove of Anaheim,Anaheim,California,United States Of America,33.80303485,-117.88624041
KovZpZAJ7AIA,Humphreys Concerts By the Bay,San Diego,California,United States Of America,32.71698150,-117.22362958
KovZ917AREi,Cerritos Center for the Performing Arts,Cerritos,California,United States Of America,33.86799000,-118.06182000
KovZ917A2m7,The Colosseum at Caesars Palace,Las Vegas,Nevada,United States Of America,36.11615600,-115.17505800
KovZpZAknnIA,The New Parish,Oakland,California,United States Of America,37.80775200,-122.27269900
KovZpZAJanEA,Penn & Teller Theater at Rio Las Vegas,Las Vegas,Nevada,United States Of America,36.11533620,-115.18697710
KovZ917A5L7,Dolby Live,Las Vegas,Nevada,United States Of America,36.10512600,-115.17523300
KovZpZAE6eeA,The Fillmore,San Francisco,California,United States Of America,37.78423920,-122.43329360
KovZ917AYe5,Channel 24,Sacramento,California,United States Of America,38.56620977,-121.47881890
rZ7HnEZa7IN,Sunset Tavern,Seattle,Washington,United States Of America,47.668095,-122.385982
rZ7HnEZadXm,The Independent,San Francisco,California,United States Of America,37.7755,-122.4378
rZ7HnEZ178s3A,The District,Spokane,Washington,United States Of America,47.6567053,-117.4258
rZ7HnEZ178wGA,Belly Up,Solana Beach,California,United States Of America,32.990942,-117.270629
rZ7HnEZ17_U4S,LIV Nightclub Miami,Miami Beach,Florida,United States Of America,25.81780500,-80.12214300
rZ7HnEZ17f6J4,Crybaby,Oakland,California,United States Of America,37.80857,-122.26962
KovZpZAFkvEA,Paramount Theatre,Seattle,Washington,United States Of America,47.61356640,-122.33191030
KovZpa95Xe,Viejas Casino & Resort - Concerts in the Park,Alpine,California,United States Of America,32.84133400,-116.70498290
KovZ917Atrk,The Sound,Del Mar,California,United States Of America,32.97580000,-117.25830000
KovZpZAJ6d1A,Jacobs Music Center,San Diego,California,United States Of America,32.71866700,-117.15790100
KovZpZAJA6IA,Cal Coast Credit Union Open Air Theatre at SDSU,San Diego,California,United States Of America,32.77478601,-117.07123250
rZ7HnEZ1734_P,Clock-Out Lounge,Seattle,Washington,United States Of America,47.5590595,-122.303927
rZ7HnEZaeq7,Bimbo's 365 Club,San Francisco,California,United States Of America,37.8037961,-122.4178422
rZ7HnEZaA17,Dante's,Portland,Oregon,United States Of America,45.523000,-122.674430
rZ7HnEZadnq,Howlin' Wolf,New Orleans,Louisiana,United States Of America,29.94601,-90.065775
KovZ917ALXF,August Hall,San Francisco,California,United States Of America,37.78757100,-122.40959800
rZ7HnEZ178pq4,Star Theater,Portland,Oregon,United States Of America,45.523588,-122.676857
rZ7HnEZa7ck,Chop Suey,Seattle,Washington,United States Of America,47.6134847,-122.314457
KovZpZA66dJA,Festival Hall Melbourne,West Melbourne,Victoria,Australia,-37.81126000,144.94644200
KovZ917AJrx,The Princess Theatre,Brisbane,Queensland,Australia,-27.48621513,153.02945853
KovZpZAJAa6A,170 Russell,Melbourne,Victoria,Australia,-37.81456375,144.97026062
KovZ917AczY,Kindred Bandroom,Footscray,Victoria,Australia,-37.81113724,144.90099636
ZuymWIMJlyZziZF,The Star Theatre,,,Singapore,,
KovZpZAEkIEA,Alamodome,San Antonio,Texas,United States Of America,29.41705466,-98.47915140
ZaHyzZyMZqv,Bingöl Belediyesi Konferans Salonu,Bingöl,,Turkey,38.88172207649228,40.50009006315413
ZaHyzZyMZf9,Raif Dinçkök Kültür Merkezi,Yalova,,Turkey,40.65190653842396,29.262650069197335
ZaHyzZyMZ4f,Karadeniz Technical University AKM Hall,Trabzon,,Turkey,40.998454,39.77116
ZF98xZG2ZF,Rockhal Main Hall,Esch-sur-Alzette,,Luxembourg,49.4999,5.94744
ZaHyzZyMZNa,Çorum Devlet Tiyatrosu,Çorum,,Turkey,40.555096,34.964249
ZaHyzZyMZxQ,Eskişehir Vehbi Koç Kongre Merkezi,Eskişehir,,Turkey,39.7530824415467,30.5939012412581
Za98xZG2ZeF,ING ARENA,Brussels,,Belgium,50.90095,4.34368
KovZ9177YPV,O2 Apollo Manchester,Manchester,,Great Britain,53.46942200,-2.22196400
KovZpZAnaJaA,Jazz Cafe,London,,Great Britain,51.53859000,-0.14334300
KovZpZAt6AEA,New Cross Inn,London,,Great Britain,51.47552400,-0.03838000
ZaHyzZyMZ93,İstanbul Büyükşehir Belediyesi Harbiye Cemil Topuzlu Açıkhava Tiyatrosu,İstanbul,,Turkey,41.0466423135735,28.989943836785166
ZaHyzZyMZ21,Hayal Kahvesi Emaar,İstanbul,,Turkey,41.00413,29.070734
Z598xZG2Ze11F,Cirque Royal - The Club,Brussels,,Belgium,50.84906,4.36565
Z198xZQpZ6Fe,ICE Kraków Congress Centre,Krakow,Małopolskie,Poland,50.04782,19.93118
Z598xZbpZd6ak,Melkweg,Amsterdam,,Netherlands,52.36483,4.88127
Z598xZu0ZdFAe,Eternia,Praha 5,,Czech Republic,50.06568,14.40768
KovZ9177PFf,The O2,London,,Great Britain,51.50158100,0.00551900
KovZ9177Sq0,OVO Hydro,Glasgow,,Great Britain,55.86087000,-4.28815400
KovZ9177gtf,The London Palladium,London,,Great Britain,51.51454600,-0.14005500
KovZpZAtadaA,Eventim Apollo,London,,Great Britain,51.49069300,-0.22442300
KovZ9177ko0,Union Chapel,London,,Great Britain,51.54378000,-0.10236200
KovZ9177xRf,The Lexington,London,,Great Britain,51.53172100,-0.11187400
KovZ9177TI0,3Olympia Theatre,Dublin,Dublin 2,Ireland,53.34431800,-6.26611400
KovZ9177XtV,Green Room at The Academy,Dublin,,Ireland,53.34795000,-6.26199000
KovZ917AObU,Depot Mayfield,Manchester,,Great Britain,53.47567000,-2.22528400
KovZ9177nv0,London Oslo,London,,Great Britain,51.54799200,-0.05753200
KovZ9177wff,Galvanizers SWG3,Glasgow,,Great Britain,55.86371100,-4.29821400
KovZ9177ge0,Manchester New Century Hall,Manchester,,Great Britain,53.48672500,-2.23956300
KovZ9177c7f,Oran Mor,Glasgow,,Great Britain,55.87738000,-4.28915700
KovZ9177TZf,National Stadium,Dublin,,Ireland,53.33112000,-6.28054900
KovZ91776D0,Bristol Strange Brew,Bristol,,Great Britain,51.45614000,-2.59044000
KovZ917A2nf,Boiler Shop,Newcastle upon Tyne,,Great Britain,54.96719800,-1.61505800
KovZ917A760,Oh Yeah music Centre,Belfast,,Great Britain,54.60226992,-5.92634082
KovZ9177J5V,Bristol The Prospect Building,Bristol,,Great Britain,51.44896002,-2.57363452
KovZpZAFletA,CABARET DU CASINO DE MONTREAL,Montreal,Quebec,Canada,45.50670840,-73.52595120
KovZ9177Wgf,Radisson Blu Hotel ,Sligo,Co. Sligo,Ireland,54.30130047,-8.50719452
KovZ9177ar7,Bodega Social,Nottingham,,Great Britain,52.95371300,-1.14587900
KovZ9177VgV,"Music Hall, Dundee",Dundee,,Great Britain,56.46174960,-2.97576920
KovZ917A2JV,"The Grace, London",London,,Great Britain,51.54670600,-0.10374200
KovZ9177AAV,O2 Forum Kentish Town,London,,Great Britain,51.55203900,-0.14193000
KovZ91777af,O2 Academy Brixton,London,,Great Britain,51.46535500,-0.11517600
KovZ9177kaf,O2 Ritz Manchester,Manchester,,Great Britain,53.47442300,-2.24309800
KovZ9177ad0,Symphony Hall,Birmingham,,Great Britain,52.47887700,-1.91080300
KovZpZAn6k6A,Roundhouse,London,,Great Britain,51.54305100,-0.15132400
KovZ917A50V,London Omeara,London,,Great Britain,51.50414280,-0.09898040
KovZpZAn1AAA,Bush Hall,London,,Great Britain,51.50657400,-0.23157900
KovZ91777W7,KOKO,London,,Great Britain,51.53502900,-0.13933500
KovZ9177NC7,Southampton 1865,Southampton,,Great Britain,50.89898110,-1.40046330
KovZ917766V,"Foundry, Sheffield",Sheffield,,Great Britain,53.38103900,-1.49067000
KovZ9177kof,Underworld,London,,Great Britain,51.53862400,-0.14207300
Za98xZ5rZdk,Raiffeisen Halle im Gasometer,Vienna,,Austria,48.18538,16.41852
Z598xZC2Zev7k,,Berlin,,Germany,52.50032,13.43648
Z698xZC2Za6OR,,Berlin,,Germany,52.49955,13.35052
Z698xZC2Za7cW,,Cologne,,Germany,50.94918,6.91012
Z698xZC2Za7ID,,Cologne,,Germany,50.93855,6.97988
Z598xZC2Z1k77,,Erlangen,,Germany,49.59977,11.00539
Z598xZC4Zk66e,Pumpehuset,København V,,Denmark,55.67713,12.56526
Za98xZG2Z67,Spirit of 66,Verviers,,Belgium,50.59353,5.86109
Z598xZG2ZdvdF,Vorst Nationaal/Forest National,Forest (Brussels),,Belgium,50.80999,4.32601
Z598xZbpZdFeF,Ziggo Dome,Amsterdam,,Netherlands,52.31395,4.93837
Z598xZbpZAaa7,Ziggo Dome Business Club,Amsterdam,,Netherlands,52.31778,4.93636
KovZ9177AT7,YES Basement,Manchester,,Great Britain,53.47411000,-2.23833000
KovZ9177A2V,The Cluny,Newcastle Upon Tyne,,Great Britain,54.97493300,-1.59238000
KovZ91776e7,YES (Pink Room),Manchester,,Great Britain,53.47410900,-2.23833500
KovZ9177gef,Bristol Beacon,Bristol,,Great Britain,51.45454646,-2.59827030
KovZ9177X2f,Leeds Belgrave Music Hall,Leeds,,Great Britain,53.80091900,-1.54103100
KovZ9177YV0,King Tuts Wah Wah Hut,Glasgow,,Great Britain,55.86263700,-4.26503700
KovZpZAnFFAA,Town Hall Birmingham,Birmingham,,Great Britain,52.47944700,-1.90358700
KovZ9177Arf,Royal Albert Hall,London,,Great Britain,51.50127700,-0.17755200
KovZ9177GYV,Rough Trade Bristol,Bristol,,Great Britain,51.45710200,-2.59313400
Z198xZ2qZd6k,Sala Razzmatazz 2,Barcelona,Barcelona,Spain,41.39701,2.19147
KovZ9177Te0,Gleneagle Arena,Co. Kerry,Co. Kerry,Ireland,52.04433512,-9.50202853
KovZ917AI6x,Flemington Racecourse,Flemington,Victoria,Australia,-37.79097454,144.91191072
ZFr9jZ1a7A,Birdland,New York,New York,United States Of America,40.759300000,-73.990196000
KovZpZA7knFA,9:30 CLUB,Washington,District of Columbia,United States Of America,38.91795000,-77.02373000
KovZ917AYeX,Archer Music Hall,Allentown,Pennsylvania,United States Of America,40.60126000,-75.47697000
Z198xZQpZeAF,TAURON Arena Kraków,Krakow,Małopolskie,Poland,50.0678,19.9912
KovZpZAEAktA,The Fillmore Detroit,Detroit,Michigan,United States Of America,42.46059140,-83.21298390
KovZ917APu3,Royal Randwick Racecourse,Randwick,New South Wales,Australia,-33.90859500,151.22896000
KovZ917AhCx,Avenir Centre,Moncton,New Brunswick,Canada,46.08595800,-64.78414800
KovZpZAFlvvA,The Opera House,Toronto,Ontario,Canada,43.65900020,-79.34877430
KovZpZAFlekA,The Drake Hotel,Toronto,Ontario,Canada,43.64310780,-79.42464570
KovZpZAJIedA,The Ritz,Raleigh,North Carolina,United States Of America,35.81589600,-78.61999100
KovZ917A8C7,Hackensack Meridian Health Theatre at the Count Basie Center ,Red Bank,New Jersey,United States Of America,40.34907100,-74.07022000
ZFr9jZdv1d,Great American Music Hall,San Francisco,California,United States Of America,37.793301000,-122.421204000
ZkDnngzZDdjIPSD7eWF_y6LkZ6kOw_z,Birdland Jazz Club NYC,New York,New York,United States Of America,,
KovZpZAEAdaA,Gramercy Theatre,New York,New York,United States Of America,40.73975368,-73.98501292
rZ7HnEZ17f0Z4,Mt. Bethel Church,Marietta,Georgia,United States Of America,33.964481142368,-84.42360686028
rZ7HnEZ17FoOA,The Magic Bag,Ferndale,Michigan,United States Of America,42.461839,-83.134773
rZ7HnEZaArs,Crowbar,Tampa,Florida,United States Of America,27.960778,-82.440611
rZ7HnEZa7P7,Small's,Hamtramck,Michigan,United States Of America,42.4022473,-83.0527366
rZ7HnEZ17QZPN,Nikki Lopez Philly,Philadelphia,Pennsylvania,United States Of America,39.941327,-75.1478724
rZ7HnEZ17jkqS,The Sound Garage,Toronto,Ontario,Canada,43.669849,-79.436218
KovZ917ARPX,The Cambridge Room at House of Blues Cleveland,Cleveland,Ohio,United States Of America,41.49948800,-81.77335780
KovZpZA11JtA,Paradise Rock Club presented by Citizens,Boston,Massachusetts,United States Of America,42.35183320,-71.11953790
KovZpZA16lAA,Jefferson Theater,Charlottesville,Virginia,United States Of America,38.03066678,-78.48125473
KovZ917AOz0,The Masquerade - Hell,Atlanta,Georgia,United States Of America,33.75184,-84.389887
KovZ917AOzm,The Masquerade - Purgatory,Atlanta,Georgia,United States Of America,33.75184,-84.389887
KovZ917AmQG,The Masquerade  - Altar,Atlanta,Georgia,United States Of America,33.75202000,-84.38945000
KovZpa2Gze,Rec Room,Buffalo,New York,United States Of America,42.890699,-76.875859
KovZpa3rme,Birchmere,Alexandria,Virginia,United States Of America,38.83978700,-77.06133900
KovZpZAFk6EA,Lincoln Theatre,Washington,District of Columbia,United States Of America,38.91740000,-77.02899200
ZFr9jZe11a,Georgia Theatre,Athens,Georgia,United States Of America,34.005199000,-83.347504000
Z6r9jZF1ee,Intersection,Grand Rapids,Michigan,United States Of America,42.919201000,-85.528603000
Z7r9jZaeY3,Showcase Lounge at Higher Ground,South Burlington,Vermont,United States Of America,44.445999000,-73.172501000
KovZpZAJ61lA,The Intersection,Grand Rapids,Michigan,United States Of America,42.95989064,-85.67412508
KovZpZAFdJtA,Town Hall,New York,New York,United States Of America,40.75599205,-73.98447747
KovZpZAJ666A,V Theater at Planet Hollywood Inside the Miracle Mile Mall,Las Vegas,Nevada,United States Of America,36.11011150,-115.17081070
KovZpZA6tFlA,The Fillmore Silver Spring,Silver Spring,Maryland,United States Of America,38.99734055,-77.02746183
KovZpZAE6k1A,House of Blues Houston,Houston,Texas,United States Of America,29.75377797,-95.36381697
KovZpZAJvnIA,Harrah's Cherokee Center - Asheville,Asheville,North Carolina,United States Of America,35.59747100,-82.55528900
KovZpa3hYe,The Orange Peel,Asheville,North Carolina,United States Of America,35.59138900,-82.55112200
ZFr9jZkFa7,Kilby Court,Salt Lake City,Utah,United States Of America,40.756599000,-111.899200000
ZFr9jZAAA6,The Orange Peel,Asheville,North Carolina,United States Of America,35.594799000,-82.557198000
ZFr9jZ117e,Stern Auditorium / Perelman Stage at Carnegie Hall,New York,New York,United States Of America,40.765202000,-73.985298000
ZFr9jZd67A,Rams Head On Stage,Annapolis,Maryland,United States Of America,38.991501000,-76.532501000
ZFr9jZeava,Variety Playhouse,Atlanta,Georgia,United States Of America,33.770199000,-84.334602000
ZFr9jZedF7,Palace Theatre Columbus,Columbus,Ohio,United States Of America,39.965099000,-83.000000000
ZFr9jZee1a,Newport Music Hall,Columbus,Ohio,United States Of America,39.990601000,-83.000000000
ZFr9jZ7v7k,Webster Hall,New York,New York,United States Of America,40.731602000,-73.989098000
ZFr9jZea7v,Vogue Theatre - IN,Indianapolis,Indiana,United States Of America,39.867298000,-86.108002000
rZ7HnEZa9V3,The Bowery Electric,New York,New York,United States Of America,40.7257,-73.991673
rZ7HnEZ17f0OA,Treelawn Social Club,Cleveland,Ohio,United States Of America,41.5706596,-81.5733357
rZ7HnEZ17fd1A,Vultures,Colorado Springs,Colorado,United States Of America,38.8372852,-104.7899982
rZ7HnEZ177e34,Blind Pig,Ann Arbor,Michigan,United States Of America,42.280140,-83.751100
rZ7HnEZ173A8A,The Winchester,Lakewood,Ohio,United States Of America,41.477055,-81.7735853
rZ7HnEZ17fJkA,The Song & Dance,Syracuse,New York,United States Of America,43.0474234,-76.1518037
rZ7HnEZ17ogjP,The Nick,Birmingham,Alabama,United States Of America,33.505390,-86.790490
KovZpZAEktEA,The Vogue,Indianapolis,Indiana,United States Of America,39.86920200,-86.14579500
KovZpZAIvlIA,The Cambridge Room at House Of Blues,Dallas,Texas,United States Of America,32.78503300,-96.80825000
ZFr9jZeAaA,Ryman Auditorium,Nashville,Tennessee,United States Of America,36.167198000,-86.783997000
ZFr9jZ7d6e,Cain's Ballroom,Tulsa,Oklahoma,United States Of America,36.155300000,-95.994598000
rZ7HnEZ17FgC4,Shank Hall,Milwaukee,Wisconsin,United States Of America,43.048563,-87.89606100000003
KovZpa2MCe,Allstate Arena,Rosemont,Illinois,United States Of America,42.00499247,-87.88750024
KovZ917AiUn,The Astro Theater,La Vista,Nebraska,United States Of America,41.18287000,-96.04084000
KovZ917ASi_,Empire Garage,Austin,Texas,United States Of America,,
KovZpZAEAd7A,Empire Control Room,Austin,Texas,United States Of America,30.26743700,-97.73605200
ZFr9jZavFv,Austin City Limits Live at The Moody Theater,Austin,Texas,United States Of America,30.272100000,-97.742401000
Z7r9jZa7h0,HQ Denver,Denver,Colorado,United States Of America,39.706001000,-104.965202000
Z7r9jZad8M,The Studio at the Factory,Dallas,Texas,United States Of America,32.782700000,-96.775803000
Z6r9jZk6ee,First Avenue,Minneapolis,Minnesota,United States Of America,44.970299000,-93.286102000
rZ7HnEZ17oO1A,The Ritz,San Jose,California,United States Of America,37.330003,-121.885808
KovZpa2M7e,United Center,Chicago,Illinois,United States Of America,41.88124412,-87.67427375
KovZpakSUe,Orpheum Theatre,Minneapolis,Minnesota,United States Of America,44.97639600,-93.27750900
KovZpZAF7nvA,Madrid Theatre,Kansas City,Missouri,United States Of America,39.05811700,-94.58639100
KovZpZAalItA,Orpheum Theater,Madison,Wisconsin,United States Of America,43.07523590,-89.38870800
ZFr9jZk7va,Brushy Street Commons,Austin,Texas,United States Of America,30.272100000,-97.742401000
KovZpZAEk7lA,Arizona Financial Theatre,Phoenix,Arizona,United States Of America,33.44877500,-112.07956400
KovZpaF2Qe,Bugsy's Cabaret at Flamingo,Las Vegas,Nevada,United States Of America,36.11726269,-115.17272405
KovZ917AJvZ,Knitting Factory - Spokane,Spokane,Washington,United States Of America,47.65680000,-117.42600000
ZFr9jZ7kv6,The Regency Ballroom,San Francisco,California,United States Of America,37.793301000,-122.421204000
ZFr9jZkFee,Rickshaw Stop,San Francisco,California,United States Of America,37.779499000,-122.419502000
Z6r9jZdvee,Bluebird Theatre,Denver,Colorado,United States Of America,39.733299000,-104.952400000
ZFr9jZAa7a,El Corazon,Seattle,Washington,United States Of America,47.630699000,-122.346100000
Z7r9jZadoj,Globe Hall - CO,Denver,Colorado,United States Of America,39.789600000,-104.942200000
ZFr9jZeFAd,Troubadour,West Hollywood,California,United States Of America,34.094200000,-118.381500000
Z7r9jZadLm,Soundwell,Salt Lake City,Utah,United States Of America,40.756599000,-111.899200000
KovZpZAEAlIA,Balboa Theatre,San Diego,California,United States Of America,32.71433270,-117.16122540
ZFr9jZd7dv,Roseland Theater,Portland,Oregon,United States Of America,45.530300000,-122.684799000
Z6r9jZeFve,Belly Up Tavern,Solana Beach,California,United States Of America,32.996300000,-117.259300000
ZFr9jZeA6a,Roxy Theatre-CA,West Hollywood,California,United States Of America,34.094200000,-118.381500000
Z7r9jZad19,Cornerstone - CA,Berkeley,California,United States Of America,37.869701000,-122.258400000
ZFr9jZ1Avd,The Chapel,San Francisco,California,United States Of America,37.749599000,-122.415298000
ZFr9jZkAak,Showbox SODO,Seattle,Washington,United States Of America,47.576599000,-122.331596000
rZ7HnEZa7Ih,Vera Project,Seattle,Washington,United States Of America,47.623094,-122.353916
rZ7HnEZae-Y,The Crocodile,Seattle,Washington,United States Of America,47.614580,-122.349150
rZ7HnEZ178VAP,SOMA - Sidestage,San Diego,California,United States Of America,32.754526,-117.208922
KovZ917AJEj,Muckleshoot Casino Events Center,Auburn,Washington,United States Of America,47.29161723561205,-122.19660870
KovZpZA1vFJA,Moore Theatre,Seattle,Washington,United States Of America,47.61196000,-122.34142000
ZFr9jZFAaF,Pappy and Harriets Pioneertown Palace,Pioneertown,California,United States Of America,34.194401000,-116.548203000
KovZ917ARQ8,Neighborhood Theater,Charlotte,North Carolina,United States Of America,35.24809000,-80.80386000
KovZpZA6ttaA,Christchurch Town Hall,Christchurch,New Zealand,New Zealand,-43.52680000,172.63570000
KovZpaooxe,Marvel Stadium,Docklands,Victoria,Australia,-37.81651800,144.94554000
KovZpZAa6nlA,Hopetoun Alpha,Auckland,New Zealand,New Zealand,-36.85680770,174.75810240
KovZpZAEF7AA,Michael Fowler Centre,Wellington,New Zealand,New Zealand,-41.28949300,174.77813100
KovZpZAaF6lA," Great Hall, Auckland Town Hall",Auckland,New Zealand,New Zealand,-36.85285300,174.76334700
Z7r9jZaeYn,Marquee Nightclub & Dayclub,Las Vegas,Nevada,United States Of America,36.124401000,-115.145103000
KovZpZAJkAIA,"Tuning Fork, Spark Arena",Auckland,New Zealand,New Zealand,-36.84754500,174.77630900
KovZ917ASnB,Teatro - At The Italian Forum,Leichhardt,New South Wales,Australia,-33.88695585,151.15834878
Z698xZq2ZaAP9,Horreds bibliotek,Horred,,Sweden,57.35467,12.47524
ZaHyzZyMZ60,Alparslan Üniversitesi Kültür ve Kongre Merkezi,Muş,,Turkey,38.77085472957248,41.42580151129287
ZaHyzZyMZ9j,Lüleburgaz Yıldızları Sanat Akademisi Cahit Irgat Salonu,Kırklareli,,Turkey,41.399004,27.373316
ZaHyzZyMZOf,Van Yüzüncü Yıl Kapalı Spor Salonu,Van,,Turkey,38.562455,43.286223
ZaHyzZyMZeC,Samsun Büyükşehir Belediyesi Sanat Merkezi,Samsun,,Turkey,41.330328,36.291287
ZaHyzZyMZuk,Sinop Kültür Merkezi,Sinop,,Turkey,42.023765,35.136677
ZaHyzZyMZN9,IF Performance Hall Beşiktaş,İstanbul,,Turkey,41.04399,29.00642
ZaHyzZyMZqu,Blind İstanbul,İstanbul,,Turkey,41.029935816521984,28.974097382455337
ZaHyzZyMZr5,All Saints Kilisesi Moda,İstanbul,,Turkey,40.982097,29.025217
ZaHyzZyMZ2O,ENKA Auditorium,İstanbul,,Turkey,41.112986,29.03715
ZaHyzZyMZKq,İş Sanat İş Kuleleri Salonu,İstanbul,,Turkey,41.0830247,29.0123786
ZaHyzZyMZ3h,Tokat 26 Haziran Atatürk Kültür Merkezi,Tokat,,Turkey,40.337293,36.546932
ZaHyzZyMZAO,Hikmet Şimşek Sanat Merkezi,İzmir,,Turkey,38.46802217482793,27.089875774505764
Z698xZb_Zak2K,Gamle Fredrikstad Kirke,Fredrikstad,,Norway,59.20278,10.95221
ZaHyzZyMZ2x,Merinos AKKM Osmangazi Hall,Bursa,,Turkey,40.199674,29.052493
ZaHyzZyMZA2,Yenişehir Belediyesi Atatürk Kültür Merkezi,Mersin,,Turkey,36.804408,34.58752
KovZ9177tQ7,Motorpoint Arena Nottingham,Nottingham,,Great Britain,52.95264900,-1.13929100
KovZ9177yOV,"OVO Arena, Wembley",London,,Great Britain,51.55791800,-0.28352700
KovZ9177s_0,Slay Glasgow,Glasgow,,Great Britain,55.85837000,-4.24854000
Z198xZ2qZAde,La Riviera,Madrid,Madrid,Spain,40.413,-3.72215
ZaHyzZyMZGf,Paribu Art – Yan Sahne,İstanbul,,Turkey,40.99145005721765,29.036406371163967
Za98xZu0Za7,Roxy,Praha 1,,Czech Republic,50.09072,14.42588
ZaHyzZyMZo2,Holly Stone Performance Hall Uşak,Uşak,,Turkey,,
Z198xZQpZd7e,Hybrydy,Warsaw,Mazowieckie,Poland,52.23274,21.0115
KovZ9177aoV,The Camden Assembly,London,,Great Britain,51.54334500,-0.15002900
KovZ917A7n7,Mandela Hall,Belfast,,Great Britain,54.58516357,-5.93754172
KovZ9177akf,Islington Assembly Hall,London,,Great Britain,51.54164200,-0.10196000
KovZ9177Akf,The Garage,London,,Great Britain,51.54670800,-0.10385500
KovZ91777RV,Electric Brixton,London,,Great Britain,51.45984600,-0.11704400
KovZ9177ARf,Electric Ballroom,London,,Great Britain,51.53970000,-0.14299500
KovZpZAnvdJA,Northumbria University,Newcastle,,Great Britain,54.979079,-1.608136
KovZ917A_p0,The Poetry Club SWG3,Glasgow,,Great Britain,55.86458400,-4.29968200
KovZ9177Wc7,Academy 2,Dublin,,Ireland,53.34795000,-6.26199000
KovZ9177m6f,Barrowland Ballroom,Glasgow,,Great Britain,55.85506300,-4.23693800
KovZpZAnnF7A,The Prince Albert,Brighton,,Great Britain,50.82829000,-0.13936000
KovZ9177PP7,The Lower Third,London,,Great Britain,51.55097021,-0.11044042
KovZ9177-fV,Belle Livingstone's 58th Street Country Club,London,,Great Britain,51.47289512,-0.06736413
KovZ9177TF7,The Academy,Dublin,,Ireland,53.34804959,-6.26185298
KovZ9177x50,Brudenell Social Club,Leeds,,Great Britain,53.80965600,-1.57027500
KovZ91776_7,Thekla,Bristol,,Great Britain,51.44883900,-2.59506600
KovZpZAnJadA,Exchange Bristol,Bristol,,Great Britain,51.45560100,-2.58249100
KovZ9177hwV,The Lodge,Manchester,,Great Britain,,
KovZ9177Yl0,Southampton Joiners,Southampton,,Great Britain,50.90437300,-1.39628100
KovZ9177rz0,Wylam Brewery,Newcastle-upon-Tyne,,Great Britain,54.98592500,-1.61484700
KovZ9177q5V,Project House,Leeds,,Great Britain,,
KovZ917AdDV,Ulster Hall Belfast,Belfast,,Great Britain,54.59511621,-5.93124390
KovZ917AdX7,The Limelight 1,Belfast,,Great Britain,54.59266713,-5.92730641
KovZ9177AO7,O2 Shepherds Bush Empire,London,,Great Britain,51.50352500,-0.22443500
KovZ9177aJf,O2 Academy Glasgow,Glasgow,,Great Britain,55.85044960,-4.25878090
KovZpZAnFvdA,Manchester The Deaf Institute.,Manchester,,Great Britain,53.47014000,-2.23615900
KovZ9177kpV,University of Wolverhampton at The Civic Hall,Wolverhampton,,Great Britain,52.58665300,-2.13080200
KovZpZAnanIA,Southend Cliffs Pavilion,Southend-On-Sea,,Great Britain,51.53582000,0.69743500
KovZpZAnaA1A,NX,Newcastle Upon Tyne,,Great Britain,54.97193900,-1.63080000
KovZ91771d7,Courtyard Theatre,London,,Great Britain,51.52788630,-0.08338870
KovZpZAt1nnA,Fuel Rock Club,Cardiff,,Great Britain,51.480543,-3.181672
ZaHyzZyMZob,Holly Stone Performance Hall Antalya,Antalya,,Turkey,36.88488,30.704598
Z598xZ5rZevkk,Flex Cafe,Vienna,,Austria,48.2178,16.36874
Z698xZC2Za7-T,,Cologne,,Germany,50.99741,6.94019
Z698xZC2Zad6M,Mojo Club,Hamburg,,Germany,53.75287,9.64719
Z598xZC2Zev7e,,Berlin,,Germany,52.49918,13.44514
Z698xZC2Za74L,Uber Arena,Berlin,,Germany,52.50573,13.44314
Za98xZG2Ze1,Cirque Royal - Koninklijk Circus,Brussels,,Belgium,50.84906,4.36565
Z198xZQpZdv1,Filharmonia Pomorska,Bydgoszcz,Kujawsko-Pomorskie,Poland,53.12903,18.01079
Z598xZQpZdkkk,VooDoo Club - Stage 2,Warsaw,Mazowieckie,Poland,52.22431,20.95931
Z598xZbpZAdAF,,Amsterdam,,Netherlands,52.31236,4.94415
Za98xZu0Zk7,SaSaZu,Praha 7,,Czech Republic,50.09938,14.44477
Z198xZu3Zda1,EXIL,Zürich,,Switzerland,47.3883,8.51932
Z7r9jZakZR,Uber Arena,Berlin,Berlin,Germany,0,0
Z598xZbpZk661,AFAS Live Loge,Amsterdam,,Netherlands,52.31236,4.94415
KovZ9177OP0,Village Underground,London,,Great Britain,51.52348300,-0.07800700
KovZ91775t0,HEADROW HOUSE,Leeds,,Great Britain,53.79882698,-1.54087082
KovZ9177_5V,Cluny 2,"Newcastle upon Tyne, NE1 2PQ",,Great Britain,54.97493300,-1.59238000
KovZ9177aAf,Manchester Academy 2,Manchester,,Great Britain,53.46438600,-2.23222500
KovZ9177Fof,Brighton Concorde 2,Brighton,,Great Britain,50.81779400,-0.12471500
KovZ917AZd7,Upstairs At Whelans,Dublin,,Ireland,53.33656000,-6.26563500
KovZ9177psV,Cecil Sharp House,London,,Great Britain,51.53811000,-0.14937600
KovZ9177ERf,The Waiting Room,London,,Great Britain,51.56258400,-0.07379300
KovZ9177C50,Yellow Arch Studios,Sheffield ,,Great Britain,,
KovZ91771VV,"The Victoria, Birmingham",Birmingham,,Great Britain,52.47656800,-1.90091400
KovZ91777cV,Opera House Buxton,Buxton,,Great Britain,53.25872700,-1.91670500
KovZ9177kzV,The Adrian Flux Waterfront,Norwich,,Great Britain,52.62385000,1.30240300
KovZ9177AUf,The Crescent,York,,Great Britain,53.95483260,-1.09385960
KovZ9177b_V,Ripon Arts Hub,North Yorkshire,,Great Britain,,
KovZpZAn1dIA,Castle Hotel,Manchester,,Great Britain,53.48339400,-2.23400170
KovZ9177CZV,Green Note,London,,Great Britain,51.53738687,-0.14575869
KovZ9177TCf,The Helix,Dublin,,Ireland,53.38633913,-6.25856459
KovZ917ACif,The Sound House,Dublin,Dublin 1,Ireland,53.34833100,-6.25595000
KovZ9177W00,Utilita Arena Birmingham,Birmingham,,Great Britain,52.47993200,-1.91492400
KovZ9177XdV,The Troubadour,London,,Great Britain,51.48869500,-0.19197000
KovZ91773g7,The Horn,St Albans,,Great Britain,51.75029500,-0.32900600
KovZ917A2OV,BELLOBAR,Dublin,,Ireland,53.33069700,-6.26519900
KovZ9177150,Vortex Jazz Club,London,,Great Britain,51.54871800,-0.07651100
KovZpZAnvalA,"Boisdale, Canary Wharf",London,,Great Britain,51.50525200,-0.02227100
Z7r9jZadPg,Rec Room,Buffalo,New York,United States Of America,42.887600000,-78.880600000
Z7r9jZa7UW,Hamners Variety Theater,Branson,Missouri,United States Of America,36.685799000,-93.263802000
rZ7HnEZ17faPP,Parts & Labor,Melvindale,Michigan,United States Of America,42.284463,-83.1859442
KovZpZAEAlkA,Van Andel Arena,Grand Rapids,Michigan,United States Of America,42.96209800,-85.67158000
KovZpZAJEtAA,Scotiabank Centre,Halifax,Nova Scotia,Canada,44.64827300,-63.57683500
ZFr9jZFa61,Royale Boston,Boston,Massachusetts,United States Of America,42.349602000,-71.075302000
rZ7HnEZaA9c,Skully's Music Diner,Columbus,Ohio,United States Of America,39.985866,-83.005629
rZ7HnEZ178g0P,Berlin,New York,New York,United States Of America,40.722974,-73.986080
KovZpZAdIFaA,REBEL,Toronto,Ontario,Canada,43.64155480,-79.35402460
KovZ917AtJb,Empire Live,Albany,New York,United States Of America,42.65288000,-73.75036000
Z7r9jZadZ1,Aisle 5,Atlanta,Georgia,United States Of America,33.770199000,-84.334602000
ZFr9jZkkav,The National,Richmond,Virginia,United States Of America,37.541100000,-77.434601000
Z7r9jZaduo,Ace of Cups,Columbus,Ohio,United States Of America,40.021900000,-83.013603000
rZ7HnEZ17o-QA,The Sanctuary Detroit,Hamtramck,Michigan,United States Of America,42.3998466,-83.0611727
rZ7HnEZ17FAJ4,Woodlands Tavern,Columbus,Ohio,United States Of America,39.9849634,-83.0375112
rZ7HnEZ17otFA,Manchester Music Hall,Lexington,Kentucky,United States Of America,38.0530644,-84.50911
rZ7HnEZ17o8q4,The Southgate House Revival - The Lounge,Newport,Kentucky,United States Of America,39.092089,-84.493152
rZ7HnEZakpU,Conduit,Winter Park,Florida,United States Of America,28.605164,-81.2977308
rZ7HnEZaAnS,Club Cafe,Pittsburgh,Pennsylvania,United States Of America,40.428909,-79.986635
rZ7HnEZa78T,The Great Hall,Toronto,Ontario,Canada,43.643360,-79.422060
rZ7HnEZa7oi,The Concert Hall,Toronto,Ontario,Canada,43.673080,-79.388420
KovZpa2gne,TD Garden,Boston,Massachusetts,United States Of America,42.36584100,-71.06072400
KovZpZAEAA1A,House of Blues Cleveland,Cleveland,Ohio,United States Of America,41.49949386,-81.69102610
KovZpZAEAIlA,House of Blues Chicago,Chicago,Illinois,United States Of America,41.88811537,-87.62931962
KovZ917AYqB,Capital City Music Hall,Harrisburg,Pennsylvania,United States Of America,40.26183000,76.88517000
KovZpZAEAF7A,House of Blues Dallas ,Dallas,Texas,United States Of America,32.78521325,-96.80851279
KovZpZA1E6EA,Paramount Theatre,Anderson,Indiana,United States Of America,40.10448600,-85.67888600
rZ7HnEZ17aM4f,Howard Theatre,Washington,District of Columbia,United States Of America,38.9153136,-77.0210937
KovZpa397e,Joan C Edwards Performing Arts Center,Huntington,West Virginia,United States Of America,38.42186930,-82.42920230
KovZpZAEkA6A,Ovens Auditorium,Charlotte,North Carolina,United States Of America,35.20509310,-80.79530240
KovZ917AxIJ,The Vogel at Count Basie Center for the Arts,Red Bank,New Jersey,United States Of America,40.34907100,-74.07022000
KovZpZA1eE1A,Food City Center,Knoxville,Tennessee,United States Of America,35.95176270,-83.92536600
ZFr9jZA6a7,Mandel Concert Hall,Cleveland Heights,Ohio,United States Of America,41.506302000,-81.606499000
Z6r9jZk7Fe,Fox Theatre - Atlanta,Atlanta,Georgia,United States Of America,33.771400000,-84.377403000
Z7r9jZaAzJ,Globe Iron,Cleveland,Ohio,United States Of America,41.481201000,-81.698402000
ZFr9jZe1d7,Cincinnati Music Hall,Cincinnati,Ohio,United States Of America,39.106400000,-84.501404000
Z6r9jZdade,Carpenter Theatre at Dominion Energy Center,Richmond,Virginia,United States Of America,37.541100000,-77.434601000
rZ7HnEZadFR,Grog Shop,Cleveland Heights,Ohio,United States Of America,41.508513,-81.580335
rZ7HnEZ17fOZg,The Refinery,Charleston,South Carolina,United States Of America,32.8220161,-79.9514654
KovZpZAaFnEA,Carpenter Theatre at Dominion Energy Center,Richmond,Virginia,United States Of America,37.54163710,-77.43691460
KovZ917A59V,Goodyear Theater,Akron,Ohio,United States Of America,41.06598100,-81.48175400
KovZpZAEkdvA,Gas South Arena,Duluth,Georgia,United States Of America,33.98691910,-84.09072880
KovZpa39ie,Taft Theatre,Cincinnati,Ohio,United States Of America,39.10162100,-84.50722700
KovZpZAEkJeA,Hard Rock Live Orlando,Orlando,Florida,United States Of America,28.47377300,-81.46822400
KovZpZAdEEIA,BJCC Concert Hall,Birmingham,Alabama,United States Of America,33.52372700,-86.81011000
KovZpZA6dn7A,Théâtre Beanfield,Montreal,Quebec,Canada,45.48286700,-73.57497300
KovZ917AtJx,Empire Underground,Albany,New York,United States Of America,42.65288000,-73.75036000
KovZ917AYP3,Hard Rock Casino Ottawa,Ottawa,Ontario,Canada,45.29798000,-75.60163400
KovZ917AtP3,Barclays Center,Brooklyn,New York,United States Of America,40.68285000,-73.97519000
KovZpa2X8e,DPAC - Durham Performing Arts Center,Durham,North Carolina,United States Of America,35.99330590,-78.90222500
KovZpZAE7dnA,Knight Theater,Charlotte,North Carolina,United States Of America,35.22426790,-80.84737580
KovZpZA1dkEA,Toad's Place,New Haven,Connecticut,United States Of America,41.31164800,-72.92932250
KovZpZAJt7JA,Fairmount Theatre,Montreal,Quebec,Canada,45.52055000,-73.59846000
Z7r9jZaeES,The Broadberry,Richmond,Virginia,United States Of America,37.549801000,-77.459801000
ZFr9jZ71ve,Cat's Cradle,Carrboro,North Carolina,United States Of America,35.908501000,-79.080704000
Z7r9jZadA8,Oxford Performing Arts Center - AL,Oxford,Alabama,United States Of America,33.587002000,-85.824097000
Z7r9jZaeVW,Buffalo Iron Works,Buffalo,New York,United States Of America,42.856098000,-78.864403000
ZFr9jZ7F67,Toads Place - CT,New Haven,Connecticut,United States Of America,41.318298000,-72.926399000
ZFr9jZFFka,Knight Theater,Charlotte,North Carolina,United States Of America,35.228001000,-80.844597000
ZFr9jZkdAF,Music Hall of Williamsburg,Brooklyn,New York,United States Of America,40.711102000,-73.956497000
ZFr9jZaAeA,Union Transfer,Philadelphia,Pennsylvania,United States Of America,39.964001000,-75.147697000
Z7r9jZad7c,Brooklyn Steel,Brooklyn,New York,United States Of America,40.727200000,-73.945602000
Z7r9jZa7PI,Alexis Park Resort Hotel,Las Vegas,Nevada,United States Of America,36.254799000,-115.526299000
ZFr9jZ1v76,Underground Arts,Philadelphia,Pennsylvania,United States Of America,39.951099000,-75.150398000
ZFr9jZAdke,Higher Ground,South Burlington,Vermont,United States Of America,44.445999000,-73.172501000
ZFr9jZevkd,Memorial Hall - OH,Cincinnati,Ohio,United States Of America,39.106400000,-84.501404000
Z7r9jZa7pb,Ferris Wheelers Backyard and BBQ,Dallas,Texas,United States Of America,32.785301000,-96.822304000
Z7r9jZa7q1,National Peanut Festival Fairgrounds,Dothan,Alabama,United States Of America,31.203501000,-85.499802000
Z6r9jZ66ke,Grand Ole Opry House,Nashville,Tennessee,United States Of America,36.169201000,-86.665604000
ZFr9jZ1eka,The Sinclair Music Hall,Cambridge,Massachusetts,United States Of America,42.380199000,-71.134697000
ZFr9jZ6d7a,The Ritz Ybor,Tampa,Florida,United States Of America,28.118401000,-82.471298000
rZ7HnEZ17op04,Sony Hall,New York,New York,United States Of America,40.759649,-73.987331
rZ7HnEZ17F_jP,Hard Luck Bar,Toronto,Ontario,Canada,43.652150,-79.407552
rZ7HnEZ173pj4,City Hope Church - Malbis,Daphne,Alabama,United States Of America,30.661200,-87.850270
rZ7HnEZ17qf8f,The Mercury Music Lounge,Lakewood,Ohio,United States Of America,41.48479293594138,-81.82448008835325
rZ7HnEZ17aaq7,Fete Music Hall,Providence,Rhode Island,United States Of America,41.8158981,-71.4431044
KovZpZAEktdA,The Foundry,Philadelphia,Pennsylvania,United States Of America,39.96477000,-75.13445700
KovZ917Ahxb,The Met Presented by Highmark,Philadelphia,Pennsylvania,United States Of America,39.969938,-75.160278
KovZpZAEkAvA,Yuengling Center,Tampa,Florida,United States Of America,28.05871140,-82.41549870
KovZ917AEXH,The Asylum at Masonic Temple,Cleveland,Ohio,United States Of America,41.50382990,-81.66468040
KovZpZAFF1tA,Center Stage Theater,Atlanta,Georgia,United States Of America,33.79189260,-84.38779070
KovZpZAIIIeA,Smart Financial Centre at Sugar Land,Sugar Land,Texas,United States Of America,29.57709600,-95.64362800
KovZpa3Ize,Duling Hall,Jackson,Mississippi,United States Of America,32.33589314,-90.17479151
Z6r9jZkkFe,Fine Line Music Cafe,Minneapolis,Minnesota,United States Of America,44.984699000,-93.270897000
ZFr9jZeA7F,Riverside Theatre - WI,Milwaukee,Wisconsin,United States Of America,43.036999000,-87.916901000
ZFr9jZ1771,The Castle Theatre,Bloomington,Illinois,United States Of America,40.476601000,-88.991997000
Z7r9jZaeTG,Smart Financial Centre at Sugar Land,Sugar Land,Texas,United States Of America,29.566500000,-95.621399000
Z6r9jZekAe,Bass Performance Hall,Fort Worth,Texas,United States Of America,32.758598000,-97.328697000
rZ7HnEZaert,Iridium,New York,New York,United States Of America,40.761816,-73.983389
rZ7HnEZ17f674,B Side Lounge,Cleveland Heights,Ohio,United States Of America,41.5082658,-81.5803633
KovZpZA1FldA,George Van Dusen Theatre at North Shore Center,Skokie,Illinois,United States Of America,42.06254120,-87.74678480
KovZ917A-hz,Midway Music Hall,Edmonton,Alberta,Canada,53.49850400,-113.49664100
KovZpZA6I7FA,Auditorio Telmex,Zapopan,Jalisco,Mexico,20.73324,-103.38112
KovZpZAJt1kA,Auditorio Banamex,Monterrey,Nuevo León,Mexico,25.67765795,-100.28085777
KovZpZAdlFFA,Nile Theater,Mesa,Arizona,United States Of America,33.41450121,-111.83455539
KovZpZAEkaJA,VBC Mark C Smith Concert Hall,Huntsville,Alabama,United States Of America,34.72655700,-86.58992500
KovZ917ANwG,Moody Center ATX,Austin,Texas,United States Of America,30.280735,-97.730837
KovZpZAEkIIA,Bayou Music Center,Houston,Texas,United States Of America,29.76280870,-95.36728910
KovZpZA6EkIA,Teatro de la Ciudad Esperanza Iris,Mexico,Ciudad de México,Mexico,19.43669360,-99.13943750
KovZpZAJ6lvA,Ace of Spades,Sacramento,California,United States Of America,38.56999300,-121.49087928
Z7r9jZaeB7,3TEN ACL Live,Austin,Texas,United States Of America,30.272100000,-97.742401000
Z7r9jZa7_s,xBk Live,Des Moines,Iowa,United States Of America,41.600700000,-93.683403000
ZFr9jZAAAd,7th Street Entry,Minneapolis,Minnesota,United States Of America,44.970299000,-93.286102000
Z7r9jZadhH,Cook's Garage,Lubbock,Texas,United States Of America,33.502399000,-101.877701000
Z7r9jZaeIc,Club Dada,Dallas,Texas,United States Of America,32.782700000,-96.775803000
Z6r9jZd16e,Celebrity Theatre,Phoenix,Arizona,United States Of America,33.464699000,-111.987198000
ZFr9jZkA11,Nile Theater,Mesa,Arizona,United States Of America,33.390099000,-111.842300000
ZFr9jZkdk6,Slowdown,Omaha,Nebraska,United States Of America,41.262299000,-95.934998000
ZFr9jZd7aa,The Cotillion,Wichita,Kansas,United States Of America,37.664101000,-97.433998000
ZFr9jZ1eAd,Skyway Theatre,Minneapolis,Minnesota,United States Of America,44.970299000,-93.286102000
Z7r9jZaeEa,The Bomb Factory,Dallas,Texas,United States Of America,32.782700000,-96.775803000
rZ7HnEZadkE,Tipitina's,New Orleans,Louisiana,United States Of America,29.9172719,-90.1007669
rZ7HnEZ17FaQ4,Whisky A Go Go,West Hollywood,California,United States Of America,34.090897,-118.385693
rZ7HnEZ17fNPP,Riverside Revival,Nashville,Tennessee,United States Of America,36.19853973,-86.72312927
rZ7HnEZ17QvqS,The Foundry,Cleveland,Ohio,United States Of America,41.4399668003972,-81.70669730304604
KovZpZAaE7kA,High Noon Saloon,Madison,Wisconsin,United States Of America,43.07973650,-89.37651910
KovZpZAt7E1A,Encore at Uptown Theater,Kansas City,Missouri,United States Of America,39.06113200,-94.59073700
KovZpZA6AJ7A,The Pageant,Saint Louis,Missouri,United States Of America,38.65562400,-90.29791200
KovZ917AxAB,The Observatory North Park,San Diego,California,United States Of America,32.748097,-117.131213
KovZpZAaltvA,Majestic Theatre,Madison,Wisconsin,United States Of America,43.07456600,-89.38097800
KovZpZAE617A,Mortgage Matchup Center (formerly PHX Arena),Phoenix,Arizona,United States Of America,33.44589900,-112.07131300
ZFr9jZevek,The Rebel Lounge,Phoenix,Arizona,United States Of America,33.527000000,-112.022499000
ZFr9jZ61FF,Nampa Civic Center,Nampa,Idaho,United States Of America,43.589100000,-116.615898000
rZ7HnEZ17f7Zg,FITZGERALDS SIDEBAR,Berwyn,Illinois,United States Of America,41.864890,-87.789520
KovZpZAkEenA,Vogue Theatre,Vancouver,British Columbia,Canada,49.28006770,-123.12174700
KovZ917AJpQ,Encore,Tucson,Arizona,United States Of America,40.74189500,-73.98930800
KovZpZAt6ndA,191 Toole,Tucson,Arizona,United States Of America,32.22510100,-110.96900100
KovZpZAavneA,Fortune Sound Club,Vancouver,British Columbia,Canada,49.28051970,-123.10073820
KovZpa9SGe,Crest Theater,Sacramento,California,United States Of America,38.57913700,-121.49341200
Z7r9jZadyQ,Hollywood Theatre - Vancouver,Vancouver,British Columbia,Canada,0,0
ZFr9jZea7e,Vogue Theatre-BC,Vancouver,British Columbia,Canada,0,0
ZFr9jZedA1,Orpheum Theatre - Phoenix,Phoenix,Arizona,United States Of America,33.451000000,-112.078400000
ZFr9jZekv1,Santa Barbara Bowl,Santa Barbara,California,United States Of America,34.435902000,-119.681602000
Z6r9jZkvde,El Rey - NM,Albuquerque,New Mexico,United States Of America,35.081501000,-106.646896000
rZ7HnEZa7IO,Neurolux Lounge,Boise,Idaho,United States Of America,43.618089,-116.207009
rZ7HnEZ178I34,SLO Brew Rock,San Luis Obispo,California,United States Of America,35.2416234,-120.643175
KovZpZAEAlaA,Hollywood Palladium,Hollywood,California,United States Of America,34.09850537,-118.32421313
KovZ917AiI3,The Bellwether,Los Angeles,California,United States Of America,34.05730000,-118.25837000
KovZ917AGff,Constellation Room,Santa Ana,California,United States Of America,33.69987900,-117.91749300
KovZpZAEAltA,House of Blues San Diego,San Diego,California,United States Of America,32.71637340,-117.16008559
KovZpZA7A7EA,Abbotsford Centre,Abbotsford,British Columbia,Canada,49.03023500,-122.28706200
Z6r9jZAAAe,Davies Symphony Hall,San Francisco,California,United States Of America,37.779499000,-122.419502000
KovZ917Airj,Nampa Civic Center,Nampa,Idaho,United States Of America,43.58325700,-116.57145400
KovZ917AJ-O,The Rady Shell at Jacobs Park,San Diego,California,United States Of America,32.70602000,-117.16343000
KovZpaKoXe,Fox Theater - Oakland,Oakland,California,United States Of America,37.80771760,-122.27005970
KovZ917Aai0,Ophelia's Electric Soapbox,Denver,Colorado,United States Of America,39.75261900,-104.99197300
ZFr9jZekAe,The Showbox,Seattle,Washington,United States Of America,47.602402000,-122.325996000
Z6r9jZkv7e,El Rey Theatre - Los Angeles,Los Angeles,California,United States Of America,34.070202000,-118.349998000
ZFr9jZAFek,Canyon Club-CA,Agoura Hills,California,United States Of America,34.140301000,-118.762497000
rZ7HnEZ178Oj4,Lost on Main,Chico,California,United States Of America,39.72963,-121.83905
rZ7HnEZ17k9Af,Rickshaw Theatre,Vancouver,British Columbia,Canada,49.280983,-123.098359
rZ7HnEZaAO4,The Crepe Place,Santa Cruz,California,United States Of America,36.97971150965,-122.01092308650
rZ7HnEZa73K,Cafe Du Nord,San Francisco,California,United States Of America,37.766526,-122.430487
KovZ917AJue,YouTube Theater,Inglewood,California,United States Of America,33.94982000,-118.34360000
Z6r9jZFdee,The Fonda Theatre,Los Angeles,California,United States Of America,34.099800000,-118.326897000
ZFr9jZd7AA,The Catalyst-CA,Santa Cruz,California,United States Of America,37.041199000,-122.124001000
KovZ917ASDZ,Junk & Disorderly,Mount Eden,New Zealand,New Zealand,-36.88784910,174.74936451
rZ7HnEZ17f-ug,Neck of the Woods,San Francisco,California,United States Of America,37.783230,-122.463783
Z7r9jZaelr,Omnia Las Vegas,Las Vegas,Nevada,United States Of America,36.124401000,-115.145103000
KovZ917AOjB,The Fortitude Music Hall,Brisbane,Queensland,Australia,-27.45797100,153.03455300
KovZpaf5we,Riverstage ,Brisbane,Queensland,Australia,-27.47894000,153.03002500
KovZpaovYe,Oxford Art Factory,Sydney,New South Wales,Australia,-33.87783800,151.21391300
KovZpZAJIAFA,The Triffid,Newstead,Queensland,Australia,-27.45228700,153.04196900
KovZ917AcHO,The Duke of George,East Fremantle,Western Australia,Australia,-32.04407896,115.76344055
ZaHyzZyMZFf,Bayburt Eski Kapalı Spor Salonu,Bayburt,,Turkey,,
Z698xZq2ZaAPK,Sätila Bibliotek,Sätila,,Sweden,57.53983,12.43257
ZaHyzZyMZ7b,Batman İl Kültür Merkezi,Batman,,Turkey,37.89012357284857,41.12693069948597
ZaHyzZyMZ-_,Grand Manolya Saloon Restaurant,Bayburt,,Turkey,40.242650550879844,40.23590555086353
ZaHyzZyMZxF,Urfa City AVM,Şanlıurfa,,Turkey,37.183025,38.806958
Z698xZ8KZaesK,,Oulu,,Finland,65.01903,25.45238
Z198xZQpZdFe,Klub Progresja,Warsaw,Mazowieckie,Poland,52.22478,20.92889
ZaHyzZyMZO-,Fidan Yazıcıoğlu Kültür Merkezi,Sivas,,Turkey,39.745575,37.009609
ZaHyzZyMZCa,Merinos AKKM - Orhangazi Salonu,Bursa,,Turkey,40.199592,29.052412
KovZpZAn16tA,Electric Bristol,Bristol,,Great Britain,51.45666317,-2.59214808
ZaHyzZyMZx2,SoldOut Performance Hall,İzmir,,Turkey,38.474939,27.074137
ZaHyzZyMZf-,Jolly Joker Vadistanbul,İstanbul,,Turkey,41.107547,28.987212
ZaHyzZyMZuO,Selçuklu Kongre Merkezi Anadolu Sahne,Konya,,Turkey,37.930168,32.508933
ZaHyzZyMZK0,İzmir Kültürpark Open Air Theatre,İzmir,,Turkey,38.42886457201354,27.148272269662595
KovZ917AYE7,Dingle Bridge House,Kerry ,Co. Kerry,Ireland,52.14095756,-10.26678200
rZ7HnEZ1789Z4,BrownstoneJAZZ,Brooklyn ,New York,United States Of America,40.6815228,-73.947016
KovZ917AP-3,Eldorado Showroom at Eldorado Casino Reno,Reno,Nevada,United States Of America,39.52895408,-119.81430026
KovZpZA6tdJA,Heritage Bank Center,Cincinnati,Ohio,United States Of America,39.09792900,-84.50408800
KovZpaKuJe,Capital One Arena,Washington,District of Columbia,United States Of America,38.89741200,-77.02002900
KovZ917AJSr,Hard Rock Cincinnati Ballroom,Cincinnati,Ohio,United States Of America,39.10835784,-84.50565787
KovZpZAdEEkA,Casino Rama Resort,Rama,Ontario,Canada,44.62684550,-79.35183160
KovZ917AfVV,Théâtre Manuvie,Brossard,Quebec,Canada,45.44116300,-73.44041000
KovZpZA6JttA,Teatro Metropolitan,México,Ciudad de México,Mexico,19.433457,-99.146811
KovZ917ASM4,Neighborhood Theatre Tap Room,Charlotte,North Carolina,United States Of America,35.24779000,-80.04030000
ZFr9jZ1aF1,Baby's All Right,Brooklyn,New York,United States Of America,40.711102000,-73.956497000
Z7r9jZaeUP,Jergel's Rhythm Grille,Warrendale,Pennsylvania,United States Of America,40.662800000,-80.092903000
KovZpaFPje,Irving Plaza Powered By Verizon 5G,New York,New York,United States Of America,40.73491700,-73.98844690
KovZ917ACzf,Buffalo RiverWorks,Buffalo,New York,United States Of America,42.86991700,-78.87263800
KovZpZAdJtAA,Warsaw,Brooklyn,New York,United States Of America,40.72239200,-73.94840800
rZ7HnEZ171FA7,Daryl's House,Pawling,New York,United States Of America,41.534100,-73.584310
rZ7HnEZ17Fw87,The Loving Touch,Ferndale,Michigan,United States Of America,42.459561,-83.133209
rZ7HnEZ173pqg,Tally Ho Theater,Leesburg,Virginia,United States Of America,39.115604,-77.5678328
rZ7HnEZaeih,The Phoenix Concert Theatre,Toronto,Ontario,Canada,43.664730,-79.374200
KovZ917AxdQ,Big Night Live,Boston,Massachusetts,United States Of America,42.36597700,-71.06170000
KovZpZA6keIA,Gainbridge Fieldhouse,Indianapolis,Indiana,United States Of America,39.76406400,-86.15550700
KovZ917A2T0,The Queen,Wilmington,Delaware,United States Of America,39.74112600,-75.55025300
KovZpZA6k7IA,Benchmark International Arena,Tampa,Florida,United States Of America,27.94274300,-82.45177200
KovZpa3eBe,Varsity Theater,Minneapolis,Minnesota,United States Of America,44.98083700,-93.23703400
KovZpa2WHe,The Masquerade - Heaven,Atlanta,Georgia,United States Of America,33.751769,-84.389681
KovZ917A-xJ,Old Forester's Paristown Hall,Louisville,Kentucky,United States Of America,38.24285000,-85.73509300
KovZ917A5LV,The Theater at MGM National Harbor,National Harbor,Maryland,United States Of America,38.79170700,-77.00300200
Z7r9jZadDk,Old Foresters Paristown Hall,Louisville,Kentucky,United States Of America,38.238800000,-85.722900000
Zkr9jZddeh,Agora Theatre,Cleveland,Ohio,United States Of America,41.481201000,-81.698402000
ZFr9jZdd17,State Theatre-NJ,New Brunswick,New Jersey,United States Of America,40.486099000,-74.447304000
KovZpZAFAE1A,Sound Board at MotorCity Casino Hotel,Detroit,Michigan,United States Of America,42.33932400,-83.06715800
KovZpZAdE1eA,Duke Energy Center for the Arts - Mahaffey Theater,St Petersburg,Florida,United States Of America,27.76707500,-82.63240100
KovZpZAEeFtA,Wells Hall at The Parker,Ft Lauderdale,Florida,United States Of America,26.13424600,-80.13617200
KovZpZAaaInA,IMAX THEATRE at TROPICANA,Atlantic City,New Jersey,United States Of America,39.40614310,-74.44554510
ZFr9jZdFAF,Diamond Ballroom,Oklahoma City,Oklahoma,United States Of America,35.390701000,-97.486000000
KovZpaFIme,House of Blues Orlando,Orlando,Florida,United States Of America,28.37039300,-81.50461600
KovZpZAEee7A,Club Regent Event Centre,Winnipeg,Manitoba,Canada,49.89541920,-97.04415980
KovZpZAJllnA,Pepsi Center WTC,México,Ciudad de México,Mexico,19.39340970,-99.17581180
KovZpZAEvelA,Foro Tims,Col. Centro Monterrey,Nuevo León,Mexico,25.66646204,-100.31681661
KovZpZA6EtdA,El Lunario del Auditorio Nacional,Ciudad de México,Ciudad de México,Mexico,19.424682,-99.1954
KovZpZAEAd6A,Beacon Theatre,New York,New York,United States Of America,40.77992500,-73.98067300
KovZpZAFAl7A,Bojangles Coliseum,Charlotte,North Carolina,United States Of America,35.20509310,-80.79530240
KovZ917ALpY,Presence Arena,Atlanta,Georgia,United States Of America,33.82242600,-84.37039200
KovZpZA6taIA,Mohegan Sun Arena,Uncasville,Connecticut,United States Of America,41.49159740,-72.09145630
Z7r9jZa7XX,City Winery - City Foundry STL,Saint Louis,Missouri,United States Of America,38.626701000,-90.266998000
Z7r9jZa79Q,Woodland Hills Baptist Church - Longview,Longview,Texas,United States Of America,32.589298000,-94.750298000
ZFr9jZe7aa,The Rave-Eagles Club,Milwaukee,Wisconsin,United States Of America,43.037399000,-87.934196000
ZFr9jZkAFA,Plaza Live - Orlando,Orlando,Florida,United States Of America,28.554501000,-81.348099000
Z7r9jZaeMC,The Handlebar - Pensacola,Pensacola,Florida,United States Of America,30.420500000,-87.223396000
ZFr9jZkk71,Canal Club,Richmond,Virginia,United States Of America,37.541100000,-77.434601000
rZ7HnEZ173oeA,Woodland Hills Baptist Church,Longview,Texas,United States Of America,32.518245,-94.683222
rZ7HnEZ17fAj4,Warehouse Concert Hall,St Catharines,Ontario,Canada,43.160330,-79.240370
rZ7HnEZ17CfC4,The Palace Theatre,Calgary,Alberta,Canada,51.045402,-114.066423
KovZpZAEAIvA,The Wilbur,Boston,Massachusetts,United States Of America,42.35048430,-71.06508600
KovZ917AJnQ,Crystal Ballroom at Somerville Theatre,Somerville,Massachusetts,United States Of America,42.39664600,-71.12304100
KovZpa3aIe,Fox Cities PAC,Appleton,Wisconsin,United States Of America,44.26255700,-88.41178500
KovZpZAJdEvA,The Santander Performing Arts Center ,Reading,Pennsylvania,United States Of America,40.33785600,-75.92635700
KovZpZAFd1nA,Agganis Arena,Boston,Massachusetts,United States Of America,42.35145440,-71.11762260
KovZ917ACjf,Seminole Center,Immokalee,Florida,United States Of America,26.41064100,-81.41649800
KovZpZA1lJ7A,Vinyl,Atlanta,Georgia,United States Of America,33.79189260,-84.38779070
KovZ917AaR7,New Orleans Jazz Market,New Orleans,Louisiana,United States Of America,29.94122300,-90.07897240
Z7r9jZad28,The Forge - IL,Joliet,Illinois,United States Of America,41.539902000,-88.043701000
rZ7HnEZ173bpA,Club SAW,Ottawa,Ontario,Canada,45.425208,-75.688675
rZ7HnEZ178Uv4,The Forge,Joliet,Illinois,United States Of America,41.527733,-88.081972
KovZpZAE7IJA,Iron City,Birmingham,Alabama,United States Of America,33.50889900,-86.79791900
KovZpZAdEl6A,Reggie's Rock Club,Chicago,Illinois,United States Of America,41.85398800,-87.62706000
KovZpZAJJ7FA,Arena Theatre,Houston,Texas,United States Of America,29.702271,-95.517765
KovZpZAa11tA,Orpheum Theater,New Orleans,Louisiana,United States Of America,29.95813940,-90.07583610
KovZpa3tGe,The Joy Theater,New Orleans,Louisiana,United States Of America,29.95600891,-90.07397461
KovZ917A-HC,The Union,Salt Lake City,Utah,United States Of America,40.77442800,-111.90544800
Z6r9jZdv1e,Boettcher Hall,Denver,Colorado,United States Of America,39.751202000,-104.997498000
Z7r9jZaeXx,The Basement East,Nashville,Tennessee,United States Of America,36.180401000,-86.732903000
Z7r9jZaAom,Vivarium,Milwaukee,Wisconsin,United States Of America,43.045399000,-87.898102000
Z7r9jZadYk,Avondale Music Hall,Chicago,Illinois,United States Of America,41.945999000,-87.746696000
KovZ917AJlp,Hard Rock Live Northern Indiana,Gary,Indiana,United States Of America,41.56670900,-87.40403360
KovZpa34pe,Toyota Center Kennewick,Kennewick,Washington,United States Of America,46.21976900,-119.21658200
KovZpZAEeFFA,Humphreys Backstage Live,San Diego,California,United States Of America,32.71659800,-117.22410100
KovZ917A2Q7,The Pavilion at Toyota Music Factory,Irving,Texas,United States Of America,32.87246900,-96.94295400
KovZpa3B7e,FirstOntario Concert Hall,Hamilton,Ontario,Canada,43.25579130,-79.87130600
KovZ917AOhe,Estadio Alfredo Harp Helú,Ciudad de México,Ciudad de México,Mexico,19.403697,-99.08536
KovZpZAJ6daA,The Regent Theater,Los Angeles,California,United States Of America,34.04730000,-118.24799000
KovZ917AiHY,The Underground,Mesa,Arizona,United States Of America,33.41534000,-111.83420000
rZ7HnEZ17o_G4,Bo's Bar & Stage,Red Deer,Alberta,Canada,52.241780,-113.81564
KovZpZAEA67A,House of Blues Anaheim,Anaheim,California,United States Of America,33.80958680,-117.92299750
KovZ917AGEf,The Parish at House of Blues Anaheim,Anaheim,California,United States Of America,33.80653300,-117.91247400
KovZpZAEA6FA,Riverside Municipal Auditorium,Riverside,California,United States Of America,33.98183370,-117.37127860
KovZpZAJvnvA,Terrace Theater - Long Beach Convention and Entertainment Center,Long Beach,California,United States Of America,33.76488200,-118.18919100
rZ7HnEZ178034,Blue Note Hawaii,Honolulu,Hawaii,United States Of America,21.27724,-157.82710
KovZpZAJAanA,Odeon Theatre,Hobart,Tasmania,Australia,-42.88304900,147.32467700
KovZpZAdFI6A,The Tivoli,Brisbane,Queensland,Australia,-27.45233000,153.03154000
KovZ917AReO,The Station SC,Birtinya,Queensland,Australia,-26.74021629,153.11631706
Z198xZC4Ze77,Ansgars Kirke,Odense C,,Denmark,55.39148,10.37858
ZaHyzZyMZub,Siirt Milli Eğitim Müdürlüğü Konferans Salonu,Siirt,,Turkey,37.937728,41.940167
Z598xZC4ZaF61,,København S,,Denmark,55.62575,12.5737
Z598xZQpZevv7,Klub NIEBO,Warsaw,Mazowieckie,Poland,52.23236,21.01822
Z598xZQpZek6k,Klub Tama,Poznan,Wielkopolskie,Poland,52.4032,16.92222
ZaHyzZyMZqN,Necip Fazıl Kısakürek Kültür Merkezi Erzurum,Erzurum,,Turkey,39.890396,41.267387
Z598xZQpZedF1,ICE Kraków - Sala Teatralna,Krakow,Małopolskie,Poland,50.04787,19.93131
KovZ9177nf7,Utilita Arena Cardiff,Cardiff,,Great Britain,51.47893100,-3.17177100
KovZ9177FHV,O2 City Hall Newcastle,Newcastle Upon Tyne,,Great Britain,54.97734600,-1.61021300
KovZ9177SpV,The Caves,Edinburgh,,Great Britain,55.94846300,-3.18642900
KovZpZAlkntA,DUST,Brighton,,Great Britain,,
KovZ9177Aq7,Rock City,Nottingham,,Great Britain,52.95611700,-1.15531400
KovZ917A9A7,The Telegraph Building,Belfast,,Great Britain,54.60242700,-5.93227500
KovZ9177_DV,The Strines Nightingale,Stockport,,Great Britain,,
KovZ9177TZ0,Vicar Street,Dublin,Dublin 8,Ireland,53.34194316,-6.27717376
KovZ9177an0,O2 Academy Oxford,Oxford,,Great Britain,51.74706760,-1.23511660
KovZpZAnalJA,O2 Academy Bristol,Bristol,,Great Britain,51.45414200,-2.60084900
KovZ9177aD7,O2 Academy2 Oxford,Oxford,,Great Britain,51.74706760,-1.23511660
KovZ9177aw7,Manchester Gorilla,Manchester,,Great Britain,53.47398200,-2.24335100
KovZ91777F0,Arts Club,Liverpool,,Great Britain,53.40167300,-2.97846900
Za98xZ5rZak,,Vienna,,Austria,48.22328,16.35142
Z198xZ5rZ7A1,,Vienna,,Austria,48.17549,16.40813
Z698xZC2Za7IW,SAP Arena,Mannheim,,Germany,49.46424,8.51797
Z698xZC2ZadJW,,Leipzig,,Germany,51.36757,12.34285
Z598xZC4Zakak,,Odense C,,Denmark,55.39828,10.39285
Z198xZQpZdF7,Proxima,Warsaw,Mazowieckie,Poland,52.21244,20.98748
Z598xZu0Zdv61,O2 Arena,Praha 9,,Czech Republic,50.10479,14.49377
Z198xZu0ZA71,Lidový dům,Karlovy Vary,,Czech Republic,50.24324,12.83372
Z198xZu3ZdAk,Dynamo,Zürich,,Switzerland,47.38342,8.53939
Z198xZu3ZkvF,,Zürich,,Switzerland,47.3584,8.52302
Z198xZu3Ze6F,,Zürich,,Switzerland,47.38422,8.53263
KovZ9177BfV,Nottingham Rescue Rooms,Nottingham,,Great Britain,52.95617300,-1.15297500
KovZ9177Wn0,The Grand Social,Dublin,,Ireland,53.34676200,-6.26341800
KovZ9177TlV,The Button Factory,Dublin,Dublin 2,Ireland,53.34486400,-6.26457000
KovZpZAtE6tA,Halle at St Michael's,Manchester,,Great Britain,53.48497400,-2.22944200
KovZ9177Dl0,Hull Welly Club,Hull,,Great Britain,53.75462100,-0.34892400
KovZpZAnFknA,The Fleece,Bristol,,Great Britain,51.45201500,-2.58932200
KovZpZAnJelA,Louisiana,Bristol,,Great Britain,51.44678200,-2.59642100
KovZ9177a-V,Liverpool Philharmonic Hall,Liverpool,,Great Britain,53.40122300,-2.96970500
KovZ9177AHf,Pendle Hippodrome Theatre,Lancashire,,Great Britain,53.85707617,-2.17127430
KovZ91774hV,The Middlesbrough Empire,Middlesbrough ,,Great Britain,,
Z698xZC2ZaAk6,,Munich,,Germany,48.12498,11.54915
KovZ9177Tlf,Whelans,Dublin,,Ireland,53.33657500,-6.26563400
KovZ917Ad57,Kasbah Social Club,Limerick,,Ireland,52.65921800,-8.63774900
Z598xZ2qZk7ek,Movistar Arena,Madrid,Madrid,Spain,40.42394,-3.6758
KovZpZAktkFA,Dingbatz,Clifton,New Jersey,United States Of America,40.85788200,-74.14761400
Z598xZbpZAv61,,Amsterdam,,Netherlands,52.31345,4.93719
ZFr9jZ17de,The Pyramid Scheme,Grand Rapids,Michigan,United States Of America,42.945301000,-85.612701000
rZ7HnEZ17kAAf,Lovin' Cup,Rochester,New York,United States Of America,43.092050,-77.656606
rZ7HnEZ171A7V,Albatross,Jacksonville,Florida,United States Of America,-81.656423,30.326208
rZ7HnEZ178Y04,Longboat Hall,Toronto,Ontario,Canada,43.643000,-79.422160
KovZpZA77JtA,The Shelter,Detroit,Michigan,United States Of America,42.33222310,-83.04136920
KovZpZA6kdtA,Fox Theatre Detroit,Detroit,Michigan,United States Of America,42.33854800,-83.05207000
Z7r9jZa72Q,Dr. Phillips Performing Arts Center,Orlando,Florida,United States Of America,28.541800000,-81.373596000
ZFr9jZke6a,Artis-Naples,Naples,Florida,United States Of America,26.245100000,-81.806702000
KovZpaK5me,Canada Life Centre,Winnipeg,Manitoba,Canada,49.89336770,-97.14371560
KovZpZAFFlEA,SaskTel Centre,Saskatoon,Saskatchewan,Canada,52.19093980,-106.67746430
KovZpZAEkFtA,Toyota Oakdale Theatre,Wallingford,Connecticut,United States Of America,41.44865990,-72.84618800
Z7r9jZaARO,Tree Of Life Church,New Braunfels,Texas,United States Of America,29.766701000,-98.181801000
ZFr9jZeF1a,Val Air Ballroom,West Des Moines,Iowa,United States Of America,41.566200000,-93.742996000
Z6r9jZ1FFe,Magic Stick,Detroit,Michigan,United States Of America,42.346500000,-83.059799000
ZFr9jZAv7d,Ithaca's State Theatre,Ithaca,New York,United States Of America,42.431999000,-76.497398000
KovZpZAIetFA,Brooklyn Bowl,Brooklyn,New York,United States Of America,40.72192600,-73.95734600
rZ7HnEZ17f6vA,Tree of Life Church,New Braunfels,Texas,United States Of America,29.655860,-98.184190
Z6r9jZ1aAe,Majestic Theatre San Antonio,San Antonio,Texas,United States Of America,29.424801000,-98.488503000
KovZpZA6Jn1A,VENUE TEST 78 GDL,Los Angeles,Jalisco,Mexico,,
KovZpaKM1e,The Palace Theatre,Calgary,Alberta,Canada,51.04563260,-114.06709850
ZFr9jZe777,Pikes Peak Center,Colorado Springs,Colorado,United States Of America,38.832001000,-104.815697000
Z7r9jZadCC,Goldfield Trading Post,Sacramento,California,United States Of America,38.584900000,-121.488098000
KovZpZAd1IaA,Estadio GNP Seguros,Ciudad de México,Ciudad de México,Mexico,19.405199,-99.095618
KovZpZAIdaaA,Rogers Place,Edmonton,Alberta,Canada,53.54691100,-113.49723700
ZFr9jZ1a1A,Fremont Theater,San Luis Obispo,California,United States Of America,35.238300000,-120.621399000
ZFr9jZAFvF,Neumos,Seattle,Washington,United States Of America,47.610802000,-122.302803000
KovZpZAFnltA,Neptune Theatre,Seattle,Washington,United States Of America,47.66126297,-122.31405191
KovZpZAE7InA,Spark Arena,Auckland,New Zealand,New Zealand,-36.84702100,174.77687000
KovZpZAaAtlA,Sydney Opera House - Forecourt,Sydney,New South Wales,Australia,-33.86957900,151.21000400
KovZpZAdalEA,Northcote Theatre,Northcote,Victoria,Australia,-37.77360805,144.99856947
KovZpZAEnJaA,The Factory Theatre,Marrickville,New South Wales,Australia,-33.90581500,151.16530100
KovZpZAdalAA,Anita's Theatre,Thirroul,New South Wales,Australia,-34.31465900,150.92283600
KovZ917AJDF,Lion Arts Factory,Adelaide,South Australia,Australia,-34.92193742,138.59270918
Z198xZ52Z6de,321 Sports,Abu Dhabi,,United Arab Emirates,24.41742,54.24855
Z598xZC4Zev1F,,København V,,Denmark,55.67198,12.55525
ZaHyzZyMZ3A,Muhsin Yazıcıoğlu Kültür Merkezi,Sivas,,Turkey,39.741957,37.011928
Z198xZQpZed1,Klub Stodoła,Warsaw,Mazowieckie,Poland,52.21159,21.01023
Z198xZQpZe7F,Klub Kwadrat,Krakow,Małopolskie,Poland,50.08418,19.99624
ZaHyzZyMZkk,Ordu Kültür Sanat Merkezi,Ordu,,Turkey,40.984725,37.907889
Z598xZG2Zdvek,AFAS Dome,Merksem (Antwerpen),,Belgium,51.23024,4.44176
KovZpZAnJI6A,The Jam House Birmingham,Birmingham,,Great Britain,52.48509613,-1.90438600
ZaHyzZyMZ01,Dorock XL,İstanbul,,Turkey,40.990135,29.022878
Z598xZQpZdev1,Cavatina Hall,Bielsko-Biała,Śląskie,Poland,49.81778,19.04708
Z598xZq2Zekde,,Linköping,,Sweden,58.41323,15.61516
KovZ9177z1f,Co-op Live,Manchester,,Great Britain,53.48661136,-2.19957970
KovZ9177Bpf,M&S Bank Arena Liverpool,Liverpool,,Great Britain,53.39702000,-2.99006300
KovZ9177WYV,3Arena,Dublin,,Ireland,53.34751200,-6.22848200
Z698xZC2Za6H2,Europahalle,Trier,,Germany,49.75142,6.63613
KovZpZAnlEtA,Nightrain,Bradford,,Great Britain,53.794419,-1.753727
KovZ91776m0,Moth Club,London,,Great Britain,51.54563783,-0.05444707
KovZ9177syV,G2,Glasgow,,Great Britain,55.86629600,-4.26886200
KovZ9177To0,The Dome London,London,,Great Britain,51.55792700,-0.13900700
KovZ9177Vu0,Saint Luke's,Glasgow,,Great Britain,55.85515215,-4.23494336
KovZ9177wqf,Warehouse SWG3,Glasgow,,Great Britain,55.86371100,-4.29821400
KovZ91775qf,Albert Hall,Manchester,,Great Britain,53.47840200,-2.24889100
KovZ917AAd0,The Limelight 2,Belfast,,Great Britain,54.59351300,-5.92877100
KovZpZAlAdeA,Docks Academy,Grimsby,,Great Britain,,
KovZ9177X77,SOUP,Manchester,,Great Britain,53.48341200,-2.23382100
KovZ9177NNf,Green Door Store,Brighton,,Great Britain,50.82889557,-0.14038880
KovZ91776r7,O2 Academy Leeds,Leeds,,Great Britain,53.80229100,-1.54728700
KovZpZAnJv7A,Edinburgh Corn Exchange,Edinburgh,,Great Britain,55.92612800,-3.24748000
KovZpZAnJkFA,O2 Institute2 Birmingham,Birmingham,,Great Britain,52.47575600,-1.88756200
KovZ91771U0,O2 Academy Islington,London,,Great Britain,51.53446900,-0.10661300
KovZ9177Ak0,The Hope and Ruin,Brighton,,Great Britain,50.82456527,-0.14327405
KovZ9177ay0,"The Lodge, Manchester",Manchester,,Great Britain,53.47066900,-2.23567000
KovZpZAnklaA,Cardiff University Students Union,Cardiff,,Great Britain,51.48842300,-3.17747300
Z698xZC2Zaa9E,Haus der Visionäre,Berlin,,Germany,52.49606,13.45396
KovZpZAn1FkA,Manchester Club Academy,Manchester,,Great Britain,53.46438600,-2.23222500
KovZpZAtl1tA,The Great Hall - Cardiff University Students' Union,Cardiff,,Great Britain,51.48827900,-3.17850200
ZaHyzZyMZ86,6:45 KK Ankara,Ankara,,Turkey,39.906125,32.859117
Z198xZ5rZAaF,,Vienna,,Austria,48.18783,16.41287
Z598xZC2Ze6d7,,Hamburg,,Germany,53.55789,9.9679
Z598xZC2Za7de,,Hamburg,,Germany,53.60241,9.9992
Z698xZC2Za7wh,Barclays Arena,Hamburg,,Germany,53.58894,9.899
Z698xZC2Za7fq,,Munich,,Germany,48.1328,11.5892
Z598xZQpZddve,Klub 2progi,Poznan,Wielkopolskie,Poland,52.41481,16.92645
Za98xZQpZdk,Hydrozagadka,Warsaw,Mazowieckie,Poland,52.25922,21.03686
Z198xZq2Za6e,Göta Lejon,Stockholm,,Sweden,59.31378,18.07384
Z198xZu3ZdvF,Halle 622,Zürich,,Switzerland,47.41363,8.54147
ZaHyzZyMZQ5,Mahsus Sahne,İstanbul,,Turkey,41.11501812075272,28.9995599588967
KovZ9177B9V,Adelphi Theatre,London,,Great Britain,51.51067600,-0.12296400
KovZ91776L7,Corsica Studios,London,,Great Britain,51.49382800,-0.09864700
KovZpZAlv7IA,The Gate,Cardiff,,Great Britain,,
KovZpZAnJtkA,YES,Manchester,,Great Britain,,
KovZpaFOBe,Robinson Center,Little Rock,Arkansas,United States Of America,34.74864180,-92.27424770
ZFr9jZdd7v,KEMBA Live!,Columbus,Ohio,United States Of America,39.965099000,-83.000000000
KovZ917A7P0,Empire Music Hall,Belfast,,Great Britain,54.58886889,-5.93326092
KovZ917AQjV,Union Stage,Washington,District of Columbia,United States Of America,38.87868900,-77.02409700
KovZpa2XQe,Greensboro Complex,Greensboro,North Carolina,United States Of America,36.05833200,-79.82553400
Z7r9jZa7z7,Light House Arts Centre,Halifax,Nova Scotia,Canada,0,0
Z7r9jZadfE,Union Stage,Washington,District of Columbia,United States Of America,38.877998000,-77.019798000
rZ7HnEZa7bu,Mr Smalls Theatre,Millvale,Pennsylvania,United States Of America,40.480891,-79.972349
rZ7HnEZ17F_37,The Southgate House Revival - Revival Room,Newport,Kentucky,United States Of America,39.092089,-84.493152
rZ7HnEZ17F_p4,Monarch Tavern,Toronto,Ontario,Canada,43.654030,-79.413680
KovZ917AJfx,Tally Ho Theater,Leesburg,Virginia,United States Of America,39.11570000,-77.56560000
KovZpZAFAnaA,Jannus Live,St Petersburg,Florida,United States Of America,27.77166600,-82.63603500
KovZpZAJEa1A,Packard Music Hall,Warren,Ohio,United States Of America,41.25164110,-80.82978000
KovZpa3DZe,Le Studio TD,Montreal,Quebec,Canada,45.50641090,-73.56686150
ZFr9jZ7vFd,Peace Center,Greenville,South Carolina,United States Of America,34.848202000,-82.403503000
Z7r9jZadTT,City Winery - Philadelphia,Philadelphia,Pennsylvania,United States Of America,39.951599000,-75.158096000
ZFr9jZAvve,Ferguson Center for the Arts Concert Hall,Newport News,Virginia,United States Of America,37.078899000,-76.495796000
Z7r9jZa7kz,Blue Gate Performing Arts Center,Shipshewana,Indiana,United States Of America,41.654099000,-85.599403000
ZFr9jZeaAa,Warner Theatre - PA,Erie,Pennsylvania,United States Of America,42.123001000,-80.085503000
Z7r9jZaddN,Palace Theatre-MN,St. Paul,Minnesota,United States Of America,44.932400000,-93.122101000
ZFr9jZdv16,Symphony Center-IL,Chicago,Illinois,United States Of America,41.878101000,-87.628304000
KovZpa4xOe,Kodak Center,Rochester,New York,United States Of America,43.20109400,-77.64020980
KovZ917ARDx,The Dome,Virginia Beach,Virginia,United States Of America,36.84749000,-75.97898000
KovZpa3mee,State Theatre,Portland,Maine,United States Of America,43.65397160,-70.26329240
KovZpZAEAknA,DeVos Performance Hall,Grand Rapids,Michigan,United States Of America,42.96937600,-85.67383500
rZ7HnEZ17feC4,The Hall,Little Rock,Arkansas,United States Of America,34.74113784062877,-92.27955864518148
KovZpZAFFEnA,MTELUS,Montreal,Quebec,Canada,45.51053480,-73.56337200
KovZpZAFlFEA,Rum Runners,London,Ontario,Canada,45.45175600,-75.65001300
KovZpap6be,Neighborhood Theatre Main Room,Charlotte,North Carolina,United States Of America,35.24744700,-80.80388800
KovZpZAJvFkA,Rio Rancho Events Center,Rio Rancho,New Mexico,United States Of America,35.30858138,-106.68648899
ZFr9jZk7ke,Terminal 5,New York,New York,United States Of America,40.765202000,-73.985298000
ZFr9jZ1FF7,Vinyl Music Hall,Pensacola,Florida,United States Of America,30.420601000,-87.224098000
Z7r9jZaeBo,City Winery - Atlanta,Atlanta,Georgia,United States Of America,33.771400000,-84.377403000
ZFr9jZFAvd,Arts at the Armory,Somerville,Massachusetts,United States Of America,42.381401000,-71.097099000
KovZpZAE7edA,Baxter Arena,Omaha,Nebraska,United States Of America,41.23881900,-96.01459300
KovZ917A0Wp,Savannah Civic Center - Johnny Mercer Theatre,Savannah,Georgia,United States Of America,32.07848550,-81.09779440
KovZpZAdnvEA,Fox Theatre Atlanta,Atlanta,Georgia,United States Of America,33.77264345,-84.38506842
KovZpZAE6eJA,Fillmore Auditorium (Denver),Denver,Colorado,United States Of America,39.74061100,-104.97719400
ZFr9jZkvAF,Schermerhorn Symphony Center,Nashville,Tennessee,United States Of America,36.164902000,-86.776100000
ZFr9jZeA71,Riviera Theatre- IL,Chicago,Illinois,United States Of America,41.971401000,-87.660301000
ZFr9jZeadv,Vic Theater,Chicago,Illinois,United States Of America,41.939602000,-87.656799000
KovZpZAan6kA,Riviera Theatre,Chicago,Illinois,United States Of America,41.96886310,-87.65969600
KovZ917AOAw,Dickies Arena,Fort Worth,Texas,United States Of America,32.74107200,-97.36850700
KovZpZAJt7FA,Coca-Cola Coliseum,Toronto,Ontario,Canada,43.63509680,-79.41572430
KovZ917AJZU,Knitting Factory - Boise,Boise,Idaho,United States Of America,43.61330000,-116.20705000
ZFr9jZd6vF,Abravanel Hall,Salt Lake City,Utah,United States Of America,40.756599000,-111.899200000
Z7r9jZa7bR,EPIC Event Center,Green Bay,Wisconsin,United States Of America,44.494900000,-88.069603000
ZFr9jZ7e6d,Brick Breeden Fieldhouse,Bozeman,Montana,United States Of America,45.660599000,-111.061996000
ZFr9jZeAa6,Saenger Theatre-New Orleans,New Orleans,Louisiana,United States Of America,29.957399000,-90.076897000
Z7r9jZa7EQ,Chelsea's Live,Baton Rouge,Louisiana,United States Of America,30.445999000,-91.174004000
rZ7HnEZ17oUFg,Three Links Deep Ellum,Dallas,Texas,United States Of America,32.784321,-96.784998
rZ7HnEZ173bOA,Chelsea’s Live,Baton Rouge,Louisiana,United States Of America,30.437812,-91.1898835
KovZpZA6AJ6A,The Chicago Theatre,Chicago,Illinois,United States Of America,41.88537000,-87.62745700
KovZpaCAre,Winspear Centre,Edmonton,Alberta,Canada,53.54390940,-113.48670830
KovZpa4gke,Avalon Theatre,Grand Junction,Colorado,United States Of America,39.06700000,-108.56151600
KovZpaprpe,Oriental Theater,Denver,Colorado,United States Of America,39.77667120,-105.04344920
ZFr9jZe1Av,Oriental Theatre-CO,Denver,Colorado,United States Of America,39.775002000,-105.049004000
ZFr9jZ71ea,Winspear Centre,Edmonton,Alberta,Canada,0,0
KovZpZAdEltA,Thunderbird Lounge,Phoenix,Arizona,United States Of America,33.499380,-112.083820
KovZpZA6IedA,Teatro Estudio Cavaret,Zapopan,Jalisco,Mexico,20.736739,-103.378417
ZFr9jZdde7,Gothic Theatre,Englewood,Colorado,United States Of America,39.646702000,-105.009201000
Z7r9jZa73J,Water of Life Community Church,Fontana,California,United States Of America,34.133099000,-117.454399000
rZ7HnEZ17fFZP,Water of Life Church,Fontana,California,United States Of America,34.11450066755,-117.51346580825
ZFr9jZ7F7e,Newmark Theatre,Portland,Oregon,United States Of America,45.497799000,-122.693703000
Z7r9jZadcG,Taper Auditorium,Seattle,Washington,United States Of America,47.611500000,-122.334297000
ZFr9jZdv6A,Yoshi's Oakland,Oakland,California,United States Of America,37.737099000,-122.206497000
KovZpa34ne,McCaw Hall,Seattle,Washington,United States Of America,47.62447310,-122.35064010
KovZpZA7klvA,Newmark Theatre,Portland,Oregon,United States Of America,45.50443550,-122.68555780
ZFr9jZd6vv,McMenamins Crystal Ballroom,Portland,Oregon,United States Of America,45.530300000,-122.684799000
Zkr9jZ7eeh,Aladdin Theater,Portland,Oregon,United States Of America,45.481800000,-122.640198000
ZFr9jZ67A6,Shrine Expo Hall,Los Angeles,California,United States Of America,34.027599000,-118.285004000
KovZpZAFFE7A,WAMU Theater,Seattle,Washington,United States Of America,47.59670400,-122.33208500
KovZ917AY_U,The Underground Sydney,Ultimo,New South Wales,Australia,-33.88353620,151.20086896
KovZ917AA47,UC Refectory,Bruce,Australian Capital Territory,Australia,-35.23801300,149.08452500
KovZpa4u0e,Melbourne Recital Centre,Southbank,Victoria,Australia,-37.82389800,144.96748400
KovZpZAEFI7A,Fremantle Prison,Fremantle,Western Australia,Australia,-32.05498800,115.75366200
Z2ymWIMJlyZziZe7A,The Theatre at Mediacorp,,,Singapore,,
Z698xZC4ZaeUT,,København Ø,,Denmark,55.6923,12.58986
ZaHyzZyMZ6d,Malatya Culture Center Kemal Sunal Hall,Malatya,,Turkey,38.348455,38.286406
ZaHyzZyMZLv,Kastamonu Belediyesi Konferans ve Nikah Salonu,Kastamonu,,Turkey,41.423051,33.777251
Z198xZQpZd1e,Klub Studio,Krakow,Małopolskie,Poland,50.06804,19.90833
Za98xZu0Zae,Palác Akropolis,Praha 3,,Czech Republic,50.08223,14.44897
ZaHyzZyMZ5O,Avcılar Barış Manço Kültür Merkezi,İstanbul,,Turkey,40.98010592993849,28.720303547925518
ZaHyzZyMZOO,Jolly Joker Ankara,Ankara,,Turkey,39.914798,32.858286
Za98xZ5rZAe,,Vienna,,Austria,48.20339,16.38947
Z198xZQpZ7v1,Klub Wytwórnia,Łódź ,Łódzkie,Poland,51.75729,19.44291
Z598xZb_ZA7e1,Gamle Aker Kirke,Oslo,,Norway,59.92372,10.74677
KovZ9177kRV,Cambridge Corn Exchange,Cambridge,,Great Britain,52.20430200,0.11936200
Z598xZC2ZkFF1,,Saarbrücken,,Germany,49.233,6.9993
KovZ9177jUf,KK's Steel Mill,Wolverhampton,,Great Britain,52.57868630,-2.13098530
KovZ9177Ns7,indigo at The O2,London,,Great Britain,51.50091000,0.00610000
KovZ9177wqV,TV Studio SWG3,Glasgow,,Great Britain,55.86371100,-4.29821400
KovZ9177mT0,Aberdeen Music Hall,Aberdeen,,Great Britain,57.14521400,-2.10571700
KovZ9177O-f,Prospect (Bristol),Bristol,,Great Britain,51.44942100,-2.57244000
KovZ9177Pcf,"MASH, Cambridge",Cambridge,,Great Britain,52.20637000,0.12009000
KovZ9177pAf,Digital,Newcastle,,Great Britain,54.96756700,-1.62121000
KovZ9177klf,O2 Academy2 Birmingham,Birmingham,,Great Britain,52.47406000,-1.89955000
KovZpZAlAvlA,Epic Studios,Norwich ,,Great Britain,52.63803200,1.29662800
KovZ917A5Df,Mama Roux's,Birmingham,,Great Britain,52.47516600,-1.88185200
KovZpZAnankA,Piano Bar Soho,London,,Great Britain,51.51111270,-0.13437580
ZaHyzZyMZ0_,Hayal Kahvesi Aqua Florya,İstanbul,,Turkey,40.965691,28.798811
Z198xZ5rZ6A7,,Vienna,,Austria,48.21007,16.33899
Z198xZ5rZ6kk,Flucc,Vienna,,Austria,48.21772,16.39327
Z598xZ5rZevek,Flucc Deck,Vienna,,Austria,48.21772,16.39327
Z698xZC2ZaAV2,HAMSTAGECL,Hamburg,,Germany,53.56245,9.94952
Z698xZC2ZaAFW,,Munich,,Germany,48.1238,11.60648
Z698xZC2Za6Ld,,Dortmund,,Germany,51.53321,7.47287
Z598xZC4Z6Aak,,København V,,Denmark,55.66799,12.54424
Za98xZG2ZFF,Théâtre Royal,Mons,,Belgium,50.45429,3.95193
Z598xZQpZeaa1,Scena Relax,Warsaw,Mazowieckie,Poland,52.23306,21.01101
Za98xZu0Zk1,Forum Karlín,Praha 8,,Czech Republic,50.09143,14.45481
Z198xZu3ZFae,THE HALL Zürich,Dübendorf,,Switzerland,47.39608,8.59753
ZaHyzZyMZ5q,Hayal Kahvesi Kocaeli,Kocaeli,,Turkey,40.759284,29.979753
KovZ91776r0,Scala,London,,Great Britain,51.53077700,-0.12027600
KovZpZAtlIdA,The Tin At The Coal Vaults,Coventry,,Great Britain,52.41363200,-1.51164900
KovZpZAnJkkA,Band On The Wall.,Manchester,,Great Britain,53.48523500,-2.23438900
KovZ9177M17,The Glasshouse International Centre for Music,Gateshead,,Great Britain,54.96768600,-1.60195000
KovZ9177oQf,Edge Of The Wedge,Southsea,,Great Britain,50.78683400,-1.07534500
KovZ9177Ti7,Cyprus Avenue,Cork,Co. Cork,Ireland,51.89832400,-8.46989600
KovZpZAta7FA,Tramshed,Cardiff,,Great Britain,,
KovZ9177a_0,Bridgewater Hall,Manchester,,Great Britain,53.47574100,-2.24491300
KovZpZAnFFIA,Huntingdon Hall,Worcester,,Great Britain,52.19203400,-2.22223900
KovZ9177kqf,St Matthias Church,London,,Great Britain,51.55250000,-0.07934000
KovZpZAnEeJA,ICA,London,,Great Britain,51.50634,-0.13109
KovZ9177qW7,Next Door Records Two,London,,Great Britain,,
Z198xZ5rZ6FF,,Vienna,,Austria,48.21073,16.3391
Z7r9jZakZA,Stolp Island Theatre,Aurora,Illinois,United States Of America,41.760101000,-88.290100000
KovZ9177E07,ABBA Arena,London,,Great Britain,51.53327366,-0.01362306
KovZ9177fqV,Cafe Drummond,Aberdeen,,Great Britain,,
KovZ9177X30,Upstairs at Dolans,Limerick City,,Ireland,52.65891900,-8.63841400
KovZ9177WGf,One Ninety Four,London,,Great Britain,51.50867494,0.13752311
Z198xZ2qZa67,Moby Dick Club,Madrid,Madrid,Spain,40.45449,-3.69404
Z6r9jZ7aAe,Conte Forum,Chestnut Hill,Massachusetts,United States Of America,42.316299000,-71.160301000
KovZ9177rhf,LVLS,London,,Great Britain,,
KovZ9177Txf,Roisin Dubh,Galway,Co. Galway,Ireland,53.27008700,-9.05814500
KovZpZAt6t6A,The Brook,Southampton,,Great Britain,50.93284700,-1.38340900
KovZ917AdH0,Waterfront Hall Auditorium,Belfast,,Great Britain,54.59779511,-5.92035413
KovZpZAEk6IA,Bogart's,Cincinnati,Ohio,United States Of America,39.12994900,-84.50888200
ZFr9jZkFFF,St Augustine Amphitheatre,Saint Augustine,Florida,United States Of America,29.847500000,-81.278702000
KovZpZAaJeaA,The Bluestone,Columbus,Ohio,United States Of America,39.96359000,-82.98496700
rZ7HnEZ178gb4,Sonia,Cambridge,Massachusetts,United States Of America,42.363501,-71.101620
KovZpZAJn77A,The Maryland Theatre,Hagerstown,Maryland,United States Of America,39.64142800,-77.72091000
KovZpZAFlavA,LONDON MUSIC HALL,London,Ontario,Canada,42.98399000,-81.24914810
KovZpZAE7dtA,Colonial Life Arena,Columbia,South Carolina,United States Of America,33.99426190,-81.03610400
ZFr9jZF7a1,A&R Music Bar,Columbus,Ohio,United States Of America,39.965099000,-83.000000000
Z6r9jZaeFe,Jannus Live,Saint Petersburg,Florida,United States Of America,27.771000000,-82.636803000
ZFr9jZdF1e,Palladium-MA,Worcester,Massachusetts,United States Of America,42.261700000,-71.801498000
Z7r9jZa7Oe,Beer City Music Hall,Oklahoma City,Oklahoma,United States Of America,35.481800000,-97.536903000
ZFr9jZ1dF1,The Drake Underground,Toronto,Ontario,Canada,0,0
ZFr9jZ6dAA,Horseshoe Tavern - Canada,Toronto,Ontario,Canada,0,0
KovZpZAEAdJA,Bergen Performing Arts Center,Englewood,New Jersey,United States Of America,40.89535800,-73.97511000
rZ7HnEZaenE,Drake Underground,Toronto,Ontario,Canada,43.643290,-79.424630
rZ7HnEZae-Z,The Horseshoe Tavern,Toronto,Ontario,Canada,43.649110,-79.395880
rZ7HnEZ17o7OA,Gramps Wynwood,Miami,Florida,United States Of America,25.799610,-80.198286
rZ7HnEZa7LQ,Middle East - Upstairs,Cambridge,Massachusetts,United States Of America,42.36422,-71.10133
KovZpZA6keEA,Allen County War Memorial Coliseum,Fort Wayne,Indiana,United States Of America,41.11280800,-85.12543900
KovZ917A25V,Little Caesars Arena,Detroit,Michigan,United States Of America,42.34108900,-83.05543400
Z7r9jZadcL,Hayes Hall,Naples,Florida,United States Of America,26.245100000,-81.806702000
Z6r9jZed7e,David Geffen Hall,New York,New York,United States Of America,40.776100000,-73.984100000
ZFr9jZ6avd,Clemens Center,Elmira,New York,United States Of America,42.104599000,-76.758003000
KovZpaowGe,West Herr Auditorium Theatre at West Herr Performing Arts Center,Rochester,New York,United States Of America,43.16090189,-77.58866326
rZ7HnEZ17qFOf,Regattabar,Cambridge,Massachusetts,United States Of America,42.37249,-71.12302
KovZ917A-gV,Shelton Auditorium at Butler Arts Center,Indianapolis,Indiana,United States Of America,39.83308,-86.17831
KovZpZA7AeJA,Amaturo Theater at Broward Center,Ft Lauderdale,Florida,United States Of America,26.11930000,-80.14942600
KovZ917Axu8,OLG Stage at Fallsview Casino,Niagara Falls,Ontario,Canada,43.08313014,-79.08403497
KovZpZAFnlnA,Massey Hall,Toronto,Ontario,Canada,43.65418690,-79.37899750
KovZpZAJIndA,BOK Center,Tulsa,Oklahoma,United States Of America,36.15287358,-95.99613726
ZFr9jZdk16,Van Wezel Performing Arts Center,Sarasota,Florida,United States Of America,27.339600000,-82.539597000
ZFr9jZ71dk,Beachland Ballroom,East Cleveland,Ohio,United States Of America,41.563801000,-81.570900000
Z7r9jZadYC,Beachland Tavern,Cleveland,Ohio,United States Of America,41.563801000,-81.570900000
Z7r9jZa79b,Vanguard - Orlando,Orlando,Florida,United States Of America,28.541800000,-81.373596000
KovZpaogfe,Springfield Symphony Hall,Springfield,Massachusetts,United States Of America,42.10118630,-72.58930030
KovZ917ACz7,Aura,Portland,Maine,United States Of America,43.65655100,-70.25894300
KovZpZAEAlAA,Andiamo Celebrity Showroom,Warren,Michigan,United States Of America,42.53644830,-83.03734540
KovZpZAEkedA,The Fillmore Miami Beach at Jackie Gleason Theater,Miami Beach,Florida,United States Of America,25.79291700,-80.13314000
KovZ917AxGf,VBC Mars Music Hall,Huntsville,Alabama,United States Of America,34.727050,-86.590659
Z7r9jZad6K,Hudiburg Chevrolet Center,Oklahoma City,Oklahoma,United States Of America,35.460899000,-97.398201000
Z7r9jZaAgk,JAMF Theatre,Eau Claire,Wisconsin,United States Of America,44.738098000,-91.503799000
ZFr9jZkF1A,Arcada Theatre,Saint Charles,Illinois,United States Of America,41.937199000,-88.287598000
ZFr9jZFk7v,INTRUST Bank Arena,Wichita,Kansas,United States Of America,37.686501000,-97.334297000
KovZ9177jK0,The Eastside Rooms,Birmingham,,Great Britain,,
KovZ9177mZV,An Seomar,Inverness,,Great Britain,57.47773900,-4.22591700
KovZ9177Wef,The Lighterman,London,,Great Britain,51.53525100,-0.12440700
Z598xZbpZ76a1,Patronaat,Haarlem,,Netherlands,52.38234,4.62818
KovZ917Avv7,Monroes,Galway,Co. Galway,Ireland,53.27010300,-9.05808300
KovZpZAtEIaA,Backstage at The Green Hotel,Kinross,,Great Britain,56.20867200,-3.42367000
KovZ9177XqV,Abbey Hotel,Donegal,,Ireland,54.65402070,-8.11013639
KovZ9177T57,Hillgrove Hotel,Co. Monaghan,Co. Monaghan,Ireland,54.24667253,-6.95304751
KovZpa4NBe,Hard Rock Cafe Niagara Falls,Niagara Falls,New York,United States Of America,43.08662900,-79.06408700
ZFr9jZAe77,Marian Anderson Hall - Kimmel Center,Philadelphia,Pennsylvania,United States Of America,39.953098000,-75.165100000
KovZ917A2-0,del Lago Resort & Casino,Waterloo,New York,United States Of America,42.96732700,-76.84722000
rZ7HnEZ17fpJA,Ellen's Stardust Diner,New York,New York,United States Of America,40.76203129021,-73.98329513095
rZ7HnEZ17AYAP,The Rockpile Bar & Nightclub,Toronto,Ontario,Canada,43.629420,-79.548931
KovZpZAaaEEA,American Theatre,Hampton,Virginia,United States Of America,37.01706080,-76.32034400
KovZpZA7AAEA,Madison Square Garden,New York,New York,United States Of America,40.74970620,-73.99160060
ZFr9jZak1k,Kennedy Center - Terrace Theater,Washington,District of Columbia,United States Of America,38.900501000,-77.049004000
KovZpZAEkeIA,House of Blues Myrtle Beach,North Myrtle Beach,South Carolina,United States Of America,33.80087200,-78.73987740
KovZ917AEIY,Hollywood Casino Gulf Coast,Bay St Louis,Mississippi,United States Of America,30.32370000,-89.35211500
ZFr9jZkF7v,Paramount Center for the Arts - MN,Saint Cloud,Minnesota,United States Of America,45.489101000,-94.245598000
ZFr9jZa1FF,City Winery - Chicago,Chicago,Illinois,United States Of America,41.874401000,-87.651398000
Z7r9jZaenq,Ardmore Music Hall,Ardmore,Pennsylvania,United States Of America,40.002102000,-75.299202000
Z7r9jZa7rs,Roadrunner-Boston,Boston,Massachusetts,United States Of America,42.348900000,-71.156502000
Z7r9jZa7bP,The Eastern-GA,Atlanta,Georgia,United States Of America,33.713600000,-84.332802000
Z6r9jZde7e,Boston Symphony Hall,Boston,Massachusetts,United States Of America,42.341000000,-71.094803000
KovZpZA6FktA,The Domain,Sydney,New South Wales,Australia,-33.86710800,151.21369800
rZ7HnEZ174gpF,Warren's Backyard,Granbury,Texas,United States Of America,32.483881517725415,-97.79063348465752
rZ7HnEZ17q_AV,Fontainebleau Miami Beach,Miami Beach,Florida,United States Of America,25.81786400,-80.12208000
KovZ917AmEr,Lori's Roadhouse,West Chester,Ohio,United States Of America,39.34084420,-84.46070230
KovZpZAEAkkA,Ames Center,Burnsville,Minnesota,United States Of America,44.77407900,-93.27951200
KovZpZAJedlA,Atlanta Symphony Hall,Atlanta,Georgia,United States Of America,33.79009800,-84.38549300
KovZpZAFkElA,Champions Square,New Orleans,Louisiana,United States Of America,29.94969223,-90.07808065
ZFr9jZA1ea,Colorado Convention Center,Denver,Colorado,United States Of America,39.751202000,-104.997498000
ZFr9jZee7d,Morton Meyerson Symphony Center,Dallas,Texas,United States Of America,32.787399000,-96.798897000
rZ7HnEZa7N9,Scullers Jazz Club,Boston,Massachusetts,United States Of America,42.362857,-71.118134
KovZpZA1EIEA,The Southern Café & Music Hall,Charlottesville,Virginia,United States Of America,38.03047460,-78.48181653
KovZpZAaatJA,VooDoo at Harrah's Kansas City,Kansas City,Missouri,United States Of America,39.14249770,-94.54587070
KovZpZAadt7A,Echostage,Washington,District of Columbia,United States Of America,38.91984858,-76.97281793
KovZpZAEev1A,Centre Videotron,Quebec,Quebec,Canada,46.82495800,-71.24762000
ZFr9jZed1k,Park West,Chicago,Illinois,United States Of America,41.922501000,-87.651001000
Z6r9jZkF6e,Florida Theatre Jacksonville,Jacksonville,Florida,United States Of America,30.327600000,-81.647003000
ZFr9jZkk1a,Owensboro Sportscenter,Owensboro,Kentucky,United States Of America,37.735298000,-87.243301000
ZFr9jZ1Fad,Terminal West,Atlanta,Georgia,United States Of America,33.791901000,-84.446404000
Z6r9jZ7AFe,Classic Center Theatre,Athens,Georgia,United States Of America,34.005199000,-83.347504000
Z7r9jZa7La,Factory Town,Miami,Florida,United States Of America,25.811899000,-80.238998000
KovZpa4kbe,Brisbane Showgrounds,Bowen Hills,Queensland,Australia,-27.45017100,153.03286700
rZ7HnEZ173eZ4,Barnato,Omaha,Nebraska,United States Of America,41.25763,-96.17281
rZ7HnEZ17a3qf,Gaslamp Long Beach,Long Beach,California,United States Of America,33.767095,-118.116275
rZ7HnEZ17ffvA,Spot 1 Grill & Music Hall,Brampton,Ontario,Canada,43.685710,-79.725210
rZ7HnEZ17f0qg,The Signal - Concert Hall,Chattanooga,Tennessee,United States Of America,35.03857819061,-85.3060519754
KovZpZA77lkA,Blue Ocean Music Hall,Salisbury,Massachusetts,United States Of America,42.84356106,-70.81629566
KovZpZAEvntA,Choctaw Grand Theater,Durant,Oklahoma,United States Of America,33.95220600,-96.41408800
KovZ917AQp0,"The Pearl Showroom, Pure Casino Yellowhead",Edmonton,Alberta,Canada,53.57945300,-113.58548200
KovZ917AxxX,Yucca Tap Room,Tempe,Arizona,United States Of America,33.39285900,-111.94050200
ZFr9jZ77Fv,Orchestra Hall-MN,Minneapolis,Minnesota,United States Of America,44.970299000,-93.286102000
KovZ917ANSJ,Q Casino Q Showroom,Dubuque,Iowa,United States Of America,42.516971,-90.644119
KovZpZAkEkvA,Bethesda Theater,Bethesda,Maryland,United States Of America,38.98739000,-77.09464000
KovZpZAadEAA,"Arts Centre Melbourne, Sidney Myer Music Bowl",Linlithgow Ave,Victoria,Australia,-37.82269400,144.97606500
KovZ917AOGV,Gila River Resorts & Casinos - Vee Quiva,Laveen,Arizona,United States Of America,33.31008100,-112.15701700
KovZ917AcGi,Casino Nova Scotia - The Bruce Guthro Theatre,Halifax,Nova Scotia,Canada,44.65283433,-63.57590827
KovZpZAE7AaA,Le Balcon,Montreal,Quebec,Canada,45.50601053,-73.56700723
KovZ917AfV0,Le Club DIX30,Brossard,Quebec,Canada,45.44544400,-73.43811600
KovZpZAJAaAA,Grey Eagle Event Centre,Calgary,Alberta,Canada,51.00750600,-114.14722200
KovZ917AJq3,Soundcheck,Washington,District of Columbia,United States Of America,38.90213500,-77.03281100
KovZpa3Bxe,Théâtre Capitole,Quebec,Quebec,Canada,46.81325400,-71.21421510
KovZpZAJJIIA,Toyota Center,Houston,Texas,United States Of America,29.75203860,-95.36231330
KovZ917AIW3,Rainmaker Expo Center,Mashantucket,Connecticut,United States Of America,41.46317000,-71.96991000
KovZ917Ahr1,Ameristar Casino Hotel Vicksburg,Vicksburg,Mississippi,United States Of America,32.315476,-90.900695
KovZpZAIEdFA,Route 66 Casino,Albuquerque,New Mexico,United States Of America,35.02840100,-106.95271500
Z7r9jZad87,Auditorio Telmex,Zapopan,Jalisco,Mexico,0,0
ZFr9jZedde,Ogden Theatre,Denver,Colorado,United States Of America,39.731201000,-104.970901000
ZFr9jZ7v7v,Toyota Center - TX,Houston,Texas,United States Of America,29.759399000,-95.362999000
ZFr9jZkAkA,Fox Theatre - Tucson AZ,Tucson,Arizona,United States Of America,32.216702000,-110.970901000
ZFr9jZdAk6,Boulder Theater,Boulder,Colorado,United States Of America,40.040199000,-105.362602000
Z7r9jZa7Qf,The Concourse Project,Austin,Texas,United States Of America,30.100300000,-97.672501000
Z7r9jZa7qm,Blackbox Theater - Charlotte,Charlotte,North Carolina,United States Of America,35.289700000,-80.730202000
Z7r9jZaAtc,SILO,Dallas,Texas,United States Of America,32.785301000,-96.822304000
KovZ917ASHB,Arts Factory Garden Bar,Byron Bay,New South Wales,Australia,-28.64498649,153.60421993
KovZpZAEAEtA,The Paramount in concert with Northwell,Huntington,New York,United States Of America,40.86969685,-73.42591099
rZ7HnEZaeyT,Rick's Cafe,Starkville ,Mississippi,United States Of America,33.467108,-88.811518
rZ7HnEZ17ao8f,Feinstein's at The Nikko,San Francisco,California,United States Of America,37.786022,-122.409225
rZ7HnEZ17uIp4,Club LA,Destin,Florida,United States Of America,30.3874288,-86.4317279
KovZ917Ah93,Hard Rock Live at Etess Arena,Atlantic City,New Jersey,United States Of America,39.361334,-74.422049
KovZ917ARdB,Outset,Chicago,Illinois,United States Of America,41.91287000,-87.66340000
KovZ917AI5F,The Salt Shed Indoors (Shed),Chicago,Illinois,United States Of America,41.90630000,-87.65900000
KovZpZAall1A,Los Angeles Convention Center,Los Angeles,California,United States Of America,34.04312980,-118.26988220
KovZpZAFAtlA,Inn of the Mountain Gods Resort and Casino,Mescalero,New Mexico,United States Of America,33.29679900,-105.68472100
KovZpZAJ6knA,Hollywood Casino at Charles Town Races,Charles Town,West Virginia,United States Of America,39.29716807,-77.85236187
Z7r9jZaA4T,Ramova Theatre,Chicago,Illinois,United States Of America,41.812099000,-87.654198000
rZ7HnEZ17qoqf,Red Deer Resort & Casino Event Ctr,Red Deer,Alberta,Canada,52.252731,-113.814827
rZ7HnEZ17kb4f,Impact Fuel Room,Libertyville ,Illinois,United States Of America,42.308292,-87.970133
KovZpZAAknIA,Harrah's Ak-Chin Casino,Maricopa,Arizona,United States Of America,33.02060670,-112.04791960
KovZpZAaIllA,Chrome Showroom at Santa Fe Station Hotel & Casino,Las Vegas,Nevada,United States Of America,36.25066198,-115.24547294
KovZpZAEeeeA,Century Casino,Edmonton,Alberta,Canada,53.59036740,-113.43313860
KovZpZAktvdA,River Cree Resort & Casino,Enoch,Alberta,Canada,53.51017400,-113.69404450
KovZpZAJalEA,PH Live at Planet Hollywood,Las Vegas,Nevada,United States Of America,36.10961689,-115.17247058
Z7r9jZadVI,Mission Ballroom,Denver,Colorado,United States Of America,39.789600000,-104.942200000
ZFr9jZkk1d,Cervantes Masterpiece Ballroom,Denver,Colorado,United States Of America,39.760502000,-104.965698000
ZFr9jZ6k6a,The Show - Agua Caliente Casino,Rancho Mirage,California,United States Of America,33.782501000,-116.413597000
Z6r9jZeaAe,Billy Bob's,Fort Worth,Texas,United States Of America,32.782902000,-97.349701000
ZFr9jZ6e67,Nectar Lounge,Seattle,Washington,United States Of America,47.671600000,-122.341103000
Z7r9jZaeiE,1015 Folsom,San Francisco,California,United States Of America,37.773102000,-122.411003000
rZ7HnEZ17kaA0,Hard Rock Live Las Vegas,Las Vegas,Nevada,United States Of America,36.1616288,-115.1455763
KovZpZAdI16A,Beau Rivage Theatre,Biloxi,Mississippi,United States Of America,30.39302900,-88.89229800
KovZ917ASSR,The Ingersoll,Des Moines,Iowa,United States Of America,41.58652800,-93.67000990
KovZpZAF6vnA,The Venetian Theatre at The Venetian Resort,Las Vegas,Nevada,United States Of America,36.12139406,-115.16923919
KovZ917AESi,Hard Rock Live Sacramento,Wheatland,California,United States Of America,39.05211613,-121.51183320
Z7r9jZa7Ur,The Get Down Music Venue,Portland,Oregon,United States Of America,45.513901000,-122.642799000
Z7r9jZaen_,Revolution Hall - Portland,Portland,Oregon,United States Of America,45.513901000,-122.642799000
rZ7HnEZ17qf4V,The Church Nightclub,Denver,Colorado,United States Of America,39.735040,-104.985740
rZ7HnEZaeWy,Avalon Hollywood,Hollywood,California,United States Of America,34.102718,-118.327156
KovZ917ALUH,Suquamish Clearwater Beach Rock Music & Sports Lounge,Suquamish,Washington,United States Of America,47.71305600,-122.57096600
KovZpZAIeldA,Brooklyn Bowl Las Vegas,Las Vegas,Nevada,United States Of America,36.11777500,-115.17257600
ZFr9jZa1vd,XS Nightclub at Wynn Las Vegas,Las Vegas,Nevada,United States Of America,36.124401000,-115.145103000
Z6r9jZd1ee,Casbah-San Diego,San Diego,California,United States Of America,32.725300000,-117.172096000
KovZ917Atbr,Sphere,Las Vegas,Nevada,United States Of America,36.12072670,-115.16428960
KovZpZAa1dtA,Access at Aliante Casino & Hotel,North Las Vegas,Nevada,United States Of America,36.29188302,-115.18139765
Z7r9jZa7iO,Zouk Nightclub - Las Vegas,Las Vegas,Nevada,United States Of America,36.124401000,-115.145103000
rZ7HnEZ17f6QA,Exchange LA,Los Angeles,California,United States Of America,34.0417391,-118.2512004
rZ7HnEZ17f6Fg,Nova SD,San Diego,California,United States Of America,32.7101458,-117.1616597
rZ7HnEZ17f6_P,Time Nightclub,Costa Mesa,California,United States Of America,33.642450,-117.917640
rZ7HnEZ17f6_g,Academy LA,Los Angeles,California,United States Of America,34.102050,-118.320900
KovZpaFH0e,Suquamish Clearwater Casino Event Center,Suquamish,Washington,United States Of America,47.71305600,-122.57096600
KovZpZAJAJeA,The Cosmopolitan of Las Vegas,Las Vegas,Nevada,United States Of America,36.10907659,-115.17318003
Z7r9jZaeEH,Hakkasan Las Vegas Nightclub,Las Vegas,Nevada,United States Of America,36.124401000,-115.145103000
ZFr9jZ1dA7,TAO Nightclub,Las Vegas,Nevada,United States Of America,36.124401000,-115.145103000
Z7r9jZaAKM,LIV Nightclub Las Vegas,Las Vegas,Nevada,United States Of America,36.124401000,-115.145103000
Z7r9jZaAVT,Yaamava Theater,Highland,California,United States Of America,34.135300000,-117.153198000
Z2ymWIMJlyZziZeFd,Marina Bay Sands,,,Singapore,,
KovZ917AZ1V,Hotel Kilmore,Co.Cavan,Co. Cavan,Ireland,53.98776426,-7.32285976
Z59rmIYnyZ117,Gran Teatro GEOX,Padova,,Italy,0.000000,0.000000
KovZ9177Ttf,Live By The Bay at The Maritime West Cork,Bantry,Co. Cork,Ireland,51.68017300,-9.45875300
KovZpZAJtFaA,Kaseya Center,Miami,Florida,United States Of America,25.78123200,-80.18780500
KovZ917AfcV,X Rocks Theater at Horseshoe Las Vegas,Las Vegas,Nevada,United States Of America,36.11406600,-115.17078600
KovZ917AcIV,Fontainebleau Las Vegas,Las Vegas,Nevada,United States Of America,36.13674000,-115.16126000
KovZ917ARGG,The Pavilion Kiama,Kiama,New South Wales,Australia,-35.31141000,148.23488000
KovZ917ARwI,The Third Day,North Melbourne,Victoria,Australia,-37.61674033,145.01357015
KovZ917ASWC,Dunn Lewis Centre,Ulladulla,New South Wales,Australia,-35.36381386,150.47107097
KovZ917AcQ3,The Prince Consort,Fortitude Valley,Queensland,Australia,-27.45753000,153.03325000
ZCymWIMJlyZziZev,Singapore Indoor Stadium,,,Singapore,,
KovZ9177kaV,229,London,,Great Britain,51.52350000,-0.14444700
KovZ91777H0,M.E.C.A. Swindon,Wiltshire,,Great Britain,51.55872941,-1.78032129
ZaHyzZyMZvh,Muaf Kadıköy,İstanbul,,Turkey,40.99048911749729,29.027059771164357
KovZ917Avp0,Clayton Hotel,Galway,,Ireland,53.29106300,-8.98890200
KovZ9177Wy7,Tullamore Court Hotel,Co. Offaly,Co. Offaly,Ireland,53.27120600,-7.49412400
KovZ9177TjV,Tintean Theatre,Co. Kerry,,Ireland,52.51108000,-9.67097000
KovZ9177Tm0,"TF Royal, Castlebar",Co. Mayo,Co. Mayo,Ireland,53.85285569,-9.30493176
KovZ9177Tl7,Mount Errigal Hotel,Co. Donegal,Co. Donegal,Ireland,54.94963774,-7.71504164
KovZ917A7NV,Europa Hotel,Belfast,,Great Britain,54.59432100,-5.93425000
KovZ917A7T0,Ballygally Castle Hotel,Co Antrim,,Great Britain,54.71953400,-6.20725000
KovZ917AAdf,Stormont Hotel,Belfast,,Great Britain,54.59451600,-5.84177600
KovZ917A7yf,Everglades Hotel,Derry,,Great Britain,54.98314500,-7.33977400
KovZpa4_je,Matakana Country Park,Matakana,New Zealand,New Zealand,-36.34235000,174.73382570
ZFr9jZeAFA,Royal Oak Music Theatre,Royal Oak,Michigan,United States Of America,42.490700000,-83.137901000
KovZpZA1IFeA,Royal Oak Music Theatre,Royal Oak,Michigan,United States Of America,42.48723740,-83.14680370
ZFr9jZde76,Meyerhoff Symphony Hall,Baltimore,Maryland,United States Of America,39.293999000,-76.622597000
KovZ917Axcj,Elevation 27,Virginia Beach,Virginia,United States Of America,36.8493416,-76.0194075
KovZpa3j7e,Cobb Energy Performing Arts Centre,Atlanta,Georgia,United States Of America,33.88442690,-84.45836310
KovZ917ASBs,Ayrburn Winery,Arrowtown,New Zealand,New Zealand,-44.95650262,168.81171191
KovZpZAdtaIA,Choctaw Pocola CenterStage,Pocola,Oklahoma,United States Of America,35.29016302,-94.43651788
KovZpZAF6vlA,Showroom at Casino Arizona,Scottsdale,Arizona,United States Of America,33.45118530,-111.92639530
rZ7HnEZ173v3A,Cantina Rooftop,New York,New York,United States Of America,40.7649566,-73.995973
KovZ917Acs8,NOTO,Houston,Texas,United States Of America,29.74578000,-95.34526000
KovZpa8cje,Arena Joondalup,Joondalup,Western Australia,Australia,-31.73619000,115.76181400
KovZ917ARF3,PICA (Port Melbourne Industrial Centre for the Arts),Port Melbourne,Victoria,Australia,-37.83021390,144.92427160
KovZ917AcT1,Mary's Underground,Circular Quay,New South Wales,Australia,-33.86192126,151.21007134
KovZpZAadIlA,The Roundhouse UNSW,Kensington,New South Wales,Australia,-33.91299600,151.21901800
KovZpZA6F6nA,The Night Cat,Fitzroy,Victoria,Australia,-37.79827100,144.97944600
KovZ917ARtW,ivy Sydney,Sydney,New South Wales,Australia,-33.86653696,151.20752289
Z598xZu3Zee17,Olma Halle,St. Gallen,,Switzerland,47.43343,9.38615
KovZ91775v7,O2 Academy Leicester,Leicester,,Great Britain,52.62192900,-1.12382400
KovZ91773wV,Whitehaven Civic Hall,Cumbria,,Great Britain,54.54665200,-3.58592900
KovZpZAl7alA,DreadnoughtRock, Bathgate,,Great Britain,55.89919000,-3.63886000
KovZ9177fp0,SLAY,Glasgow,,Great Britain,,
Za98xZG2Zek,Le Forum,Liège,,Belgium,50.64077,5.57031
Z598xZG2Zdvae,Trixxo Theater Hasselt,Hasselt,,Belgium,50.93311,5.36207
Z598xZbpZ7v61,Metropool,Hengelo OV,,Netherlands,52.26115,6.79439
KovZ9177Xq0,Clayton Hotel Silver Springs,Cork,,Ireland,51.90350027,-8.42438936
KovZ917Avr7,Carrickdale Hotel,Dundalk,Co. Louth,Ireland,53.99794500,-6.40595700
KovZpZAt1tlA,Metropolis,London,,Great Britain,51.53222200,-0.05666300
ZFr9jZd7av,Metropolitan Opera House,New York,New York,United States Of America,40.776100000,-73.984100000
rZ7HnEZ17Adq0,Mulcahy's,Wantagh,New York,United States Of America,40.6723969,-73.50999100000001
rZ7HnEZ173aaP,Hobart Art Theatre,Hobart,Indiana,United States Of America,41.5322663,-87.2551843
KovZpa4tUe,Lynn Auditorium,Lynn,Massachusetts,United States Of America,42.46480942,-70.95121002
rZ7HnEZ178sug,Joe's Live Rosemont,Rosemont,Illinois,United States Of America,41.979238,-87.867325
Z7r9jZadzf,Phoenix Theatre - Hormel Theatre,Phoenix,Arizona,United States Of America,33.452999000,-112.069702000
KovZpapObe,Showroom at Talking Stick Resort,Scottsdale,Arizona,United States Of America,33.53859590,-111.86568950
KovZpZAdlFaA,Rialto Theatre-Tucson,Tucson,Arizona,United States Of America,32.22193527,-110.96641541
KovZ917AJxJ,The Grand (Boston),Boston,Massachusetts,United States Of America,42.35330048,-71.04747991
KovZ917AYf7,Plaza Theatre,Palm Springs,California,United States Of America,33.82267000,-116.54647000
rZ7HnEZ178O8g,Music Box,San Diego,California,United States Of America,32.71938,-117.16813
KovZpZAE7dFA,"Scherr Forum- B of A Performing Arts Center, Thousand Oaks",Thousand Oaks,California,United States Of America,34.17507100,-118.84949100
KovZpa971e,Alex Theatre,Glendale,California,United States Of America,34.14879227,-118.25456238
KovZpZAa6ElA,Red Hill Auditorium,Red Hill ,Western Australia,Australia,-31.84635000,116.06205600
Za98xZG2Z7k,Kursaal Oostende,Oostende,,Belgium,51.23183,2.91205
ZFr9jZeAad,Ruth Eckerd Hall,Clearwater,Florida,United States Of America,27.981199000,-82.715599000
KovZ9177E2V,Patti Pavilion,Swansea,,Great Britain,51.61299900,-3.96478000
KovZ9177pN0,"Venue, Dumfries",Dumfries,,Great Britain,55.07000500,-3.61150100
KovZpZAEvlAA,Aventura Arts & Cultural Center,Aventura,Florida,United States Of America,25.94960232,-80.13458177
KovZpZAdEIaA,Southern Alberta Jubilee Auditorium,Calgary,Alberta,Canada,51.06309700,-114.09203100
KovZ9177XyV,Hotel Kilkenny,Kilkenny,,Ireland,52.64272100,-7.26201900
KovZ9177T5V,Sligo Park Hotel ,Sligo,Co. Sligo,Ireland,54.25404401,-8.47110272
KovZ9177XP7,Mullingar Park Hotel,Co. Westmeath,Co. Westmeath,Ireland,53.52333191,-7.30241060
Z7r9jZadQr,Sarasota Opera House,Sarasota,Florida,United States Of America,27.339600000,-82.539597000
ZFr9jZev7v,McCallum Theatre,Palm Desert,California,United States Of America,33.674999000,-116.402702000
KovZpZA6AEdA,Viejas Arena at Aztec Bowl San Diego State University,San Diego,California,United States Of America,32.77229000,-117.07192000
ZaHyzZyMZq_,Süreyya Opera House,İstanbul,,Turkey,40.988205,29.028613
Z698xZC2ZaAfA,,Stuttgart,,Germany,48.7937,9.22654
Z598xZG2ZekAF,Capitole Gent,Ghent,,Belgium,51.04811,3.73222
Z598xZG2ZdvA1,Stadsschouwburg Antwerpen,Antwerp,,Belgium,51.21579,4.40989
KovZpZA66dnA,Athenaeum Theatre Two,Melbourne,Victoria,Australia,-37.81521644,144.96744853
KovZpZAaknnA,The Beach Hotel,Byron Bay,New South Wales,Australia,-28.64740800,153.56182500
Z198xZQpZdd1,Hala Stulecia,Wroclaw,Dolnośląskie,Poland,51.10685,17.07736
ZaHyzZyMZCC,AKM Türk Telekom Opera Salonu,İstanbul,,Turkey,41.03663437114968,28.987795667887056
Za98xZu3Z11,Hallenstadion,Zürich,,Switzerland,47.41161,8.55166
ZFr9jZeeFe,Amerant Bank Arena,Sunrise,Florida,United States Of America,26.238701000,-80.370499000
Z7r9jZad41,Rockwell - MA,Somerville,Massachusetts,United States Of America,42.400902000,-71.121803000
KovZ917A5i7,McAllen Performing Arts Center,McAllen,Texas,United States Of America,26.20054500,-98.25914500
KovZpZAEA6kA,San Diego Civic Theatre,San Diego,California,United States Of America,32.71779420,-117.16199990
KovZ917AILJ,Hindley St Music Hall,Adelaide,South Australia,Australia,-34.92326164,138.59392740
KovZpZA6EvJA,Thebarton Theatre,Torrensville,South Australia,Australia,-34.92316800,138.56898900
ZaHyzZyMZrh,Zorlu PSM - Turkcell Sahnesi,İstanbul,,Turkey,41.067385,29.017253
KovZpZAdJnJA,The Avalon Theatre At Niagara Fallsview Casino Resort,Niagara Falls,Ontario,Canada,43.08245530,-79.08130040
KovZpZAEvEEA,Kia Center,Orlando,Florida,United States Of America,28.53929300,-81.38395700
rZ7HnEZ17otZP,Ottobar,Baltimore,Maryland,United States Of America,39.318857,-76.619669
KovZpa3PYe,Linda Ronstadt Music Hall,Tucson,Arizona,United States Of America,32.21759000,-110.97495800
KovZ917AOww,The Magnolia,El Cajon,California,United States Of America,32.795625,-116.95955
KovZpZAEekFA,The Palms at Crown,Southbank ,Victoria,Australia,-37.82405400,144.95730400
KovZ9177_df,The Blues Kitchen Manchester,Manchester,,Great Britain,,
Z698xZC2Za7EE,Olympiahalle,Munich,,Germany,48.17388,11.54549
Z1HyzZmzMZGK,BIT Club,Haifa,,Israel,,
KovZ9177kWf,Lighthouse,Poole,,Great Britain,50.71846300,-1.97709600
KovZpZAEkJAA,Jacksonville Center for the Performing Arts - Terry Theater,Jacksonville,Florida,United States Of America,30.32500000,-81.66244800
ZFr9jZ7v1a,Capitol Center for the Arts - NH,Concord,New Hampshire,United States Of America,43.248001000,-71.511200000
KovZpZA1dtaA,Capitol Center for the Arts,Concord,New Hampshire,United States Of America,43.201429,-71.534542
KovZpZAFFEtA,The Colosseum at Caesars Windsor,Windsor,Ontario,Canada,42.32064950,-83.03545140
ZFr9jZ71Fe,Music Center at Strathmore,North Bethesda,Maryland,United States Of America,39.051899000,-77.124199000
ZFr9jZA6vA,Cafe Eleven,Saint Augustine,Florida,United States Of America,29.847500000,-81.278702000
rZ7HnEZ17oFfA,Hard Rock Cafe - San Antonio,San Antonio,Texas,United States Of America,29.425203,-98.489175
KovZpZAantEA,The Blue Note,Columbia,Missouri,United States Of America,38.95218400,-92.32784200
KovZpZAdIaaA,Northern Alberta Jubilee Auditorium,Edmonton,Alberta,Canada,53.52289020,-113.52620430
KovZpakTme,Honda Center,Anaheim,California,United States Of America,33.80780364,-117.87653112
KovZpZAEFIdA,Historic BAL Theatre,San Leandro,California,United States Of America,37.70859200,-122.13306600
ZFr9jZAvFe,Yaamava Resort & Casino at San Manuel,Highland,California,United States Of America,34.135300000,-117.153198000
rZ7HnEZaeUG,WOW Hall,Eugene,Oregon,United States Of America,44.051160,-123.097103
KovZ917AE07,Brunswick Ballroom,Brunswick,Victoria,Australia,-37.76993470,144.96300204
ZaHyzZyMZa3,Jolly Joker Gaziantep,Gaziantep,,Turkey,37.345733,
ZaHyzZyMZrx,JJ Arena Ataşehir,İstanbul,,Turkey,40.9975637055125,29.100353523809197
Z198xZQpZFFe,DK Słowianin,Szczecin,Zachodniopomorskie,Poland,53.42051,14.5513
ZaHyzZyMZ_u,Babel Terrace75,Diyarbakır,,Turkey,37.9347,40.1554
KovZ917A7I0,"The SSE Arena, Belfast",Belfast,,Great Britain,54.60391677,-5.91356277
KovZ9177anf,O2 Academy Liverpool,Liverpool,,Great Britain,53.40912750,-2.97710580
Z598xZC4Z6Aa7,,København V,,Denmark,55.66799,12.54424
Za98xZG2Z1e,Espace culturel Victor Jara,Soignies,,Belgium,50.57881,4.06848
Z198xZQpZ7FF,Stary Klasztor - Sala Gotycka,Wroclaw,Dolnośląskie,Poland,51.11028,17.03956
Z198xZu3Z1d1,Théâtre de Beaulieu,Lausanne,,Switzerland,46.52951,6.62326
KovZ9177Jm0,Grove Theatre,Dunstable,,Great Britain,51.89011700,-0.52169300
Z198xZ2qZk6k,Bizkaia Arena - BEC!,Barakaldo,Biscay,Spain,43.29087,-2.98869
KovZ9177X-f,Charleville Park Hotel,Cork,Co. Cork,Ireland,52.35553924,-8.68366242
KovZ917Avi0,Killashee Hotel,Naas,,Ireland,53.19126290,6.67701490
KovZ9177XKf,The Arklow Bay Hotel,Wicklow,Co. Wicklow,Ireland,52.80577092,-6.14238739
KovZ917A7D7,Canal Court Hotel,Newry,,Great Britain,54.17322200,-6.34220600
Z198xZ52Zk7e,Saadiyat Island (Open Air Venue),Abu Dhabi,,United Arab Emirates,24.5358,54.41227
Z7r9jZaeVB,Terra Fermata,Stuart,Florida,United States Of America,27.180401000,-80.245399000
rZ7HnEZ17f0AA,District 142,Wyandotte,Michigan,United States Of America,42.2022294,-83.1510348
rZ7HnEZ17fEAP,The Premier,Hickory,North Carolina,United States Of America,35.7334237,-81.3572564
rZ7HnEZ17_SFS,Williams Center - Black Box - Rutherford,Rutherford,New Jersey,United States Of America,40.827110,-74.103330
KovZ917ASnd,Hardin Auditorium,Evans,Georgia,United States Of America,33.54670000,-82.13274000
KovZpZA1kJlA,Byham Theater,Pittsburgh,Pennsylvania,United States Of America,40.44236280,-80.00015430
ZFr9jZe1ad,Byham Theater,Pittsburgh,Pennsylvania,United States Of America,40.448101000,-79.990898000
Z7r9jZaeUx,Gaillard Center,Charleston,South Carolina,United States Of America,32.779499000,-79.936401000
ZFr9jZavd6,Richardson Auditorium - NJ,Princeton,New Jersey,United States Of America,40.352402000,-74.659500000
ZFr9jZ6ae6,Hobart Arena,Troy,Ohio,United States Of America,40.041599000,-84.153099000
rZ7HnEZaeiw,The Bronson,Ottawa,Ontario,Canada,45.413630,-75.706400
KovZ917A_PV,The Funhouse at Mr. Smalls,Millvale,Pennsylvania,United States Of America,40.48085500,-79.97226400
KovZpZAkE7tA,MACEWAN BALLROOM,Calgary,Alberta,Canada,51.07569100,-114.12915200
ZFr9jZed67,Pabst Theater,Milwaukee,Wisconsin,United States Of America,43.045399000,-87.898102000
ZFr9jZe7A1,Pompano Beach Amphitheatre,Pompano Beach,Florida,United States Of America,26.234900000,-80.120102000
Z7r9jZadT6,RCU Theatre,Eau Claire,Wisconsin,United States Of America,44.738098000,-91.503799000
KovZ917AxrY,Churchill Island,Newhaven,Victoria,Australia,-38.50055900,145.33819500
KovZpa6Vxe,New Jersey Performing Arts Center,Newark,New Jersey,United States Of America,40.73950200,-74.16809000
KovZpZAFAJJA,Genesee Theatre,Waukegan,Illinois,United States Of America,42.36276392,-87.83083839
Z7r9jZa7ZW,ImOn Arena,Dubuque,Iowa,United States Of America,42.549000000,-90.698799000
KovZpZAEkF7A,Lake Charles Event Ctr Rosa Hart Theatre,Lake Charles,Louisiana,United States Of America,30.23741670,-93.22946860
ZFr9jZedAk,Orchestra Hall - IL,Chicago,Illinois,United States Of America,41.880501000,-87.624702000
rZ7HnEZ178vJ4,Smith's Olde Bar,Atlanta,Georgia,United States Of America,33.797612,-84.368852
KovZpZAEklJA,Mackay Park,Batemans bay,New South Wales,Australia,-35.70822700,150.17272900
ZFr9jZeFa7,MacEwan Hall,Calgary,Alberta,Canada,0,0
KovZpZA1eAlA,Talking Stick Resort,Scottsdale,Arizona,United States Of America,33.53859590,-111.86568950
ZFr9jZav6k,Harris Center for the Arts,Folsom,California,United States Of America,38.664799000,-121.141403000
ZFr9jZAFe7,Belly Up,Aspen,Colorado,United States Of America,39.125599000,-106.797203000
rZ7HnEZaA3Z,CODA,Toronto,Ontario,Canada,43.665374,-79.411540
rZ7HnEZ17uJbA,Grizzly Rose,Denver,Colorado,United States Of America,39.801679,-104.986439
rZ7HnEZ17oUCA,The Liberty,Roswell,New Mexico,United States Of America,33.396070,-104.521430
KovZ917AEVr,Tannahill's Tavern and Music Hall,Fort Worth,Texas,United States Of America,32.78850000,-97.34775000
KovZpZAJk71A,San Jose Civic,San Jose,California,United States Of America,37.33046417,-121.88966811
KovZpZAFFInA,Rogers Arena,Vancouver,British Columbia,Canada,49.27766120,-123.10810740
KovZ917AtFi,The Venue at Thunder Valley Casino Resort,Lincoln,California,United States Of America,38.84026000,-121.31368000
ZFr9jZ7vav,Walt Disney Concert Hall,Los Angeles,California,United States Of America,34.003101000,-118.287804000
rZ7HnEZ178y4A,Jack London Revue,Portland,Oregon,United States Of America,45.519452,-122.676291
rZ7HnEZ17o0bg,Moe's Alley,Santa Cruz,California,United States Of America,36.9875105,-121.9828327
rZ7HnEZ17fO8A,Miners Foundry Cultural Center,Nevada City,California,United States Of America,39.262240,-121.020100
KovZ917AYrx,Upstairs,Victoria,British Columbia,Canada,48.42596104,-123.36962580
rZ7HnEZ17Fp1f,Brick and Mortar Music Hall,San Francisco,California,United States Of America,37.769739,-122.420282
KovZ917ARS0,Everglades,Woy Woy,New South Wales,Australia,-30.13947460,152.01896293
KovZpZAadEEA,Palais Theatre,St Kilda,Victoria,Australia,-37.86721100,144.97641300
Z8ymWIMJlyZziZev1v,"Marina Bay Sands Expo & Convention Centre, Level B2, Hall F",,,Singapore,,
Z198xZ52ZAFk,"Etihad Arena, Yas Bay",Abu Dhabi,,United Arab Emirates,24.46031,54.60183
ZaHyzZyMZpp,Jolly Joker Mersin,Mersin,,Turkey,36.77116,34.57035
Z198xZQpZe1e,"Klub B90, Stocznia Gdańska",Gdansk,Pomorskie,Poland,54.3646,18.64854
KovZpaF0Oe,Bardavon 1869 Opera House,Poughkeepsie,New York,United States Of America,41.70304000,-73.92867200
KovZpZAnanaA,Colchester Arts Centre,Colchester,,Great Britain,51.88886100,0.89535400
KovZ9177uvV,hmv Empire,Coventry,,Great Britain,52.40716000,-1.49762800
KovZ9177k5f,O2 Academy3 Birmingham,Birmingham,,Great Britain,52.47326800,-1.90020090
KovZpZAn6lJA,O2 Academy Bournemouth,Bournemouth,,Great Britain,50.72671000,-1.83987800
KovZ9177_x0,Vault - Winchester Student Union,Winchester,,Great Britain,51.06004800,-1.32695100
KovZ9177jN7,Audio,Glasgow,,Great Britain,55.85734300,-4.25773000
KovZpZAleIeA,Platform,Morecambe,,Great Britain,54.07131000,-2.87480100
KovZ9177Sb0,Ivory Blacks,Glasgow,,Great Britain,55.85780500,-4.25946600
ZaHyzZyMZdo,Babylon,İstanbul,,Turkey,41.058253337953964,28.979834155240294
KovZ91770_V,Sheffield City Hall Oval Hall,Sheffield,,Great Britain,53.38118000,-1.47107900
KovZ9177aof,"Y Plas, Cardiff Students Union",Cardiff,,Great Britain,51.48842026,-3.17746157
KovZ9177mW7,Fat Sam's Live,Dundee,,Great Britain,56.46075600,-2.97628300
KovZpZAJ76FA,Molson Canadian Centre at Casino New/Nouveau Brunswick,Moncton,New Brunswick,Canada,46.12798500,-64.87978600
KovZpZA7eJkA,Music Farm,Charleston,South Carolina,United States Of America,32.79018800,-79.93833500
KovZpZAEkFlA,Great Cedar Showroom at Foxwoods Resort Casino,Mashantucket,Connecticut,United States Of America,41.44892330,-71.97569900
ZFr9jZk166,Anderson Music Hall - Georgia Mountain Fairgrounds,Hiawassee,Georgia,United States Of America,34.907799000,-83.709396000
Z7r9jZadCv,Basilica Hudson,Hudson,New York,United States Of America,42.227200000,-73.745102000
KovZpZA77eEA,Upstate Medical University Arena at The Oncenter War Memorial,Syracuse,New York,United States Of America,43.04488614,-76.14804737
KovZpZAdnEtA,The Wonder Bar,Asbury Park,New Jersey,United States Of America,40.22328639,-73.99950139
KovZpZAF6knA,MVP Arena,Albany,New York,United States Of America,42.64834000,-73.75395700
rZ7HnEZ17qauf,Theatre Beanfield,Montreal,Quebec,Canada,45.48286700,-73.57497300
rZ7HnEZ17FgfV,The Token Lounge,Westland,Michigan,United States Of America,42.355071,-83.327698
KovZ917AI3H,Mickey's Black Box,Lititz,Pennsylvania,United States Of America,40.17542000,-76.31327000
KovZpZA1JJ7A,Knoxville Civic Auditorium,Knoxville,Tennessee,United States Of America,35.96510100,-83.91151300
ZFr9jZe7vA,The Peabody Daytona Beach,Daytona Beach,Florida,United States Of America,29.215000000,-81.005096000
ZFr9jZdAd7,The Norva,Norfolk,Virginia,United States Of America,36.851700000,-76.287300000
KovZpZAFdldA,Landmark Theatre,Syracuse,New York,United States Of America,43.04745359,-76.15251285
KovZpZAFdE1A,Akron Civic Theatre,Akron,Ohio,United States Of America,41.08054640,-81.51972039
KovZpZAJ6eAA,Howard L. Schrott Center for the Arts,Indianapolis,Indiana,United States Of America,39.83203125,-86.17658997
KovZpZAaevEA,Algonquin Commons Theatre,Nepean,Ontario,Canada,45.34967500,-75.75581700
KovZpZAE7vdA,Radio City Music Hall,New York,New York,United States Of America,40.75991360,-73.98039810
KovZpaF5Ge,Bijou Theatre,Knoxville,Tennessee,United States Of America,35.96233500,-83.91701500
KovZpZAF7AEA,Murat Corinthian Hall,Indianapolis,Indiana,United States Of America,39.77464500,-86.15149800
ZFr9jZAAe6,Knight Concert Hall-Adrienne Arsht PAC,Miami,Florida,United States Of America,25.784901000,-80.189598000
Z6r9jZakAe,Keswick Theatre,Glenside,Pennsylvania,United States Of America,40.101200000,-75.172203000
ZFr9jZak17,Kennedy Center - Concert Hall,Washington,District of Columbia,United States Of America,38.900501000,-77.049004000
KovZpZA1Jv1A,Troy Savings Bank Music Hall,Troy,New York,United States Of America,42.73043800,-73.69137600
KovZpaowXe,Seneca Allegany Resort & Casino Event Center,Salamanca,New York,United States Of America,42.15587220,-78.75297910
rZ7HnEZaAQ7,Madison Theater (730), Covington,Kentucky,United States Of America,39.082695,-84.509561
rZ7HnEZaeHB,Emerald Theatre,Mount Clemens,Michigan,United States Of America,42.597721,-82.879062
KovZpZAE7v6A,Bally's Event Center,Lincoln,Rhode Island,United States Of America,41.89251800,-71.43776200
KovZpZAaatFA,Bridge View Center,Ottumwa,Iowa,United States Of America,41.01698270,-92.41141400
KovZ917Atd7,The Exhibition Hall at French Lick Resort,French Lick,Indiana,United States Of America,38.55210230,-86.61950960
KovZpZAFnlFA,Detroit Opera House,Detroit,Michigan,United States Of America,42.33616500,-83.04870100
KovZpZAdJ7JA,Flagstar Strand Theatre for the Performing Arts,Pontiac,Michigan,United States Of America,42.63712100,-83.29188700
KovZpZAF6FlA,Penn's Peak,Jim Thorpe,Pennsylvania,United States Of America,40.89809780,-75.68696930
KovZpaoMOe,The Wind Creek Event Center ,Bethlehem,Pennsylvania,United States Of America,40.61432110,-75.35692110
KovZ917ASls,Seminole Casino Brighton Outdoor,Okeechobee,Florida,United States Of America,27.24708069,-80.81232000
KovZpZAF77tA,Elliott Hall of Music,West Lafayette,Indiana,United States Of America,40.42964930,-86.91217420
KovZpZAJJEdA,Frost Bank Center,San Antonio,Texas,United States Of America,29.43303860,-98.43379870
Z7r9jZa7pF,Tulips FTW,Fort Worth,Texas,United States Of America,32.728199000,-97.317200000
ZFr9jZ6de1,The Lyric Oxford,Oxford,Mississippi,United States Of America,34.345299000,-89.396004000
KovZpa4lQe,Heartland Events Center,Grand Island,Nebraska,United States Of America,40.90205820,-98.32860270
KovZpZAF7AnA,8 Seconds Saloon,Indianapolis,Indiana,United States Of America,39.76834300,-86.24938100
KovZpZAFFE1A,Scotiabank Arena,Toronto,Ontario,Canada,43.64392540,-79.37832340
KovZpaFq1e,Little Carver Theatre,San Antonio,Texas,United States Of America,29.42180600,-98.47175200
KovZpZA6tdnA,Caesars Superdome ,New Orleans,Louisiana,United States Of America,29.950971,-90.081091
KovZpaK6Ge,IP Casino Resort and Spa,Biloxi,Mississippi,United States Of America,30.41246100,-88.89226900
Z7r9jZaesy,Russell Industrial Center,Detroit,Michigan,United States Of America,42.381500000,-83.045799000
Z6r9jZek7e,Bass Concert Hall,Austin,Texas,United States Of America,30.284300000,-97.744202000
Z7r9jZaArL,Lucas Oil Live at WinStar World Casino,Thackerville,Oklahoma,United States Of America,33.781502000,-97.143700000
KovZpZAEAlvA,The Venue at Horseshoe Casino,Hammond,Indiana,United States Of America,41.69309900,-87.50824460
KovZpZAannAA,recordBar,Kansas City,Missouri,United States Of America,39.09519595,-94.58133880
KovZpZAanFdA,Silver Creek Event Center at Four Winds New Buffalo,New Buffalo,Michigan,United States Of America,41.78138882,-86.70940876
KovZpa3PFe,ASU Kerr,Scottsdale,Arizona,United States Of America,33.52615300,-111.92767300
KovZ917A_07,Broadwater Parklands,Southport,Queensland,Australia,-27.95946500,153.41244400
rZ7HnEZ17jkvN,La Rosa,Tucson,Arizona,United States Of America,32.232886,-110.926376
KovZpZAEvvIA,Auditorio BB,México,Ciudad de México,Mexico,19.40806960,-99.16787720
KovZ917AJpk,The Rebel Lounge,Phoenix,Arizona,United States Of America,33.49474920,-112.03218070
KovZpZAIln6A,Escenario GNP Seguros,Monterrey,Nuevo León,Mexico,25.666135,-100.316726
KovZpZAEe7lA,The Edge Pavilion,Laughlin,Nevada,United States Of America,35.16142600,-114.57137900
ZFr9jZd7kv,Mesa Amphitheatre,Mesa,Arizona,United States Of America,33.433998000,-111.848297000
rZ7HnEZ17a-4f,Strummer's,Fresno,California,United States Of America,36.7589448,-119.8023913
KovZ917AJup,SAFE Credit Union Performing Arts Center,Sacramento,California,United States Of America,38.57741000,-121.48936000
Z6r9jZ6kde,Golden Gate Theater,San Francisco,California,United States Of America,37.779499000,-122.419502000
Z7r9jZaAAg,Joan and Irwin Jacobs Music Center,San Diego,California,United States Of America,32.725300000,-117.172096000
rZ7HnEZ178E_A,Aura KC,Kansas City,Missouri,United States Of America,39.057153,-94.586408
KovZpZAJInkA,Neudorf Vineyards,Nelson,New Zealand,New Zealand,-41.26132580,172.96969600
KovZpZAEe7IA,Bally's Lake Tahoe,Stateline,Nevada,United States Of America,38.96174500,-119.93826000
KovZpZAFktdA,Uptown Theatre Napa,Napa,California,United States Of America,38.29634650,-122.28736980
Z6r9jZdaAe,Carpenter Performing Arts,Long Beach,California,United States Of America,33.794800000,-118.118599000
KovZ917ARhe,Stage Red,Fontana,California,United States Of America,34.09992143,-117.43529670
KovZpa3uCe,Orpheum Theatre,Los Angeles,California,United States Of America,34.04263554,-118.25558624
KovZ917A-DJ,Melbourne Park,Melbourne,Victoria,Australia,-37.82266900,144.98004400
ZkDnngzZDeEE1jScEyAM_nNWobDBJ30,Artist Friendly,,California,United States Of America,,
KovZpZAnaIJA,Plymouth Pavilions,Plymouth,,Great Britain,50.36807300,-4.14921900
KovZpZAn61lA,Alexandra Palace,London,,Great Britain,51.59459500,-0.13027500
Z698xZC2Za7Lq,,Hamburg,,Germany,53.547,9.96135
ZaHyzZyMZ9b,Holly Stone Isparta,Isparta,,Turkey,37.780244,30.546374
ZaHyzZyMZ8q,Hayal Kahvesi Bandırma,Balıkesir,,Turkey,40.352949,27.970525
ZaHyzZyMZ_-,IF Performance Hall,Ankara,,Turkey,39.91869346147305,32.85376867973661
ZaHyzZyMZoQ,IF Performance Hall Tepe Prime,Ankara,,Turkey,39.910390004824926,32.75527501858327
KovZ9177-x7,"Palace Theatre, Southend",Southend-On-Sea,,Great Britain,51.54387400,0.69136300
KovZ9177_2f,Lost Horizon,Bristol,,Great Britain,,
KovZ91771WV,Birmingham Flapper,Birmingham,,Great Britain,52.48018500,-1.91246500
KovZ9177i_V,Sneaky Pete's.,Edinburgh,,Great Britain,55.94817800,-3.19146200
KovZ91771S7,The Globe,Cardiff,,Great Britain,51.49432900,-3.16506400
KovZ9177Lx0,The Shacklewell Arms,London,,Great Britain,51.55313400,-0.07000900
KovZ9177AMV,Cambridge Junction,Cambridge,,Great Britain,52.19076600,0.13650900
Z1HyzZmzMZr5,"Charles Bronfman auditorium, Tel Aviv Culture Center",Tel Aviv - Jaffa,,Israel,32.0733612,34.7800195
ZaHyzZyMZ4C,Hayal Kahvesi İzmir,İzmir,,Turkey,38.447141,27.173694
ZaHyzZyMZCe,Sponge Pub Kaleiçi,Antalya,,Turkey,36.885526,30.704773
ZaHyzZyMZkF,Holly Stone Adana,Adana,,Turkey,37.047985,35.313399
ZaHyzZyMZL6,Holly Stone Performance Hall Denizli,Denizli,,Turkey,37.745887420306325,29.08758226889314
Z698xZC2Za7Vu,,Cologne,,Germany,50.89238,7.06362
Z698xZC2ZaABA,,Cologne,,Germany,50.95178,6.91641
Z698xZC2Zaa2W,Mikropol,Berlin,,Germany,52.49948,13.35416
Z198xZQpZkae,Klub Liverpool,Wroclaw,Dolnośląskie,Poland,51.10395,17.03038
Z598xZQpZde67,Kamienna 12,Krakow,Małopolskie,Poland,50.078,19.94357
Z198xZQpZA1e,Pod Minogą,Poznan,Wielkopolskie,Poland,52.40932,16.92706
Z198xZu0Zea1,Rock Café,Praha 1,,Czech Republic,50.08195,14.41848
Z198xZu3Z7k7,,Zürich,,Switzerland,47.37164,8.53621
ZaHyzZyMZ8_,Holly Stone Performance Hall Aydın,Aydın,,Turkey,37.843307,27.856421
KovZ917ARx7,Estádio Couto Pereira,Curitiba,Paraná,Brazil,-25.42151960,-49.26050250
KovZpZAld1EA,Wardrobe,Leeds,,Great Britain,53.79752600,-1.53290000
KovZ9177TM0,Opium,Dublin,Dublin 2,Ireland,53.33664400,-6.26564100
KovZ917AZq7,The Workmans Club,Dublin,,Ireland,53.34540600,-6.26650100
KovZ9177EJf,Stockport Plaza,Stockport,,Great Britain,53.40922800,-2.16131300
KovZ9177NdV,Sheffield City Hall Memorial Hall,Sheffield,,Great Britain,53.38118000,-1.47107900
KovZ9177AWf,The Social,London,,Great Britain,51.51739040,-0.14083440
KovZ9177h1f,Glad Cafe,Glasgow,,Great Britain,55.83200800,-4.27861700
KovZ9177wG7,McChuills,Glasgow,,Great Britain,55.86034000,-4.23981000
KovZpZAkal7A,Celebrities,Vancouver,British Columbia,Canada,49.27967200,-123.13029300
KovZpZAtJIeA,The Star and Garter,Manchester,,Great Britain,53.47586500,-2.22647000
ZaHyzZyMZ0G,Hayalmest Bostancı,İstanbul,,Turkey,40.952764006901866,29.09630979323984
Z198xZQpZk6F,Jazz Club Hipnoza,Katowice,Śląskie,Poland,50.253,19.021
ZaHyzZyMZ4A,Kadıköy Sahne,İstanbul,,Turkey,40.990482,29.027609
KovZ9177-G7,Exeter Phoenix,Exeter,,Great Britain,50.72481500,-3.53125300
Z7r9jZaduZ,Colonial Oak Music Park,St. Augustine,Florida,United States Of America,29.896299000,-81.315697000
KovZpZA6taeA,PPG Paints Arena,Pittsburgh,Pennsylvania,United States Of America,40.43884010,-79.99085510
KovZ917A_J7,Spirit Hall,Pittsburgh,Pennsylvania,United States Of America,40.47865700,-79.95656500
Z7r9jZadKP,Colony- Woodstock,Woodstock,New York,United States Of America,42.053699000,-74.116600000
Z7r9jZa7Dc,The Tailgate  - TX,Midland,Texas,United States Of America,32.053799000,-102.038902000
ZFr9jZAaF7,Town Ballroom,Buffalo,New York,United States Of America,42.856098000,-78.864403000
ZFr9jZ6Fek,Subterranean,Chicago,Illinois,United States Of America,41.920898000,-87.702003000
rZ7HnEZ17pv4I,New World Music Hall,Tampa,Florida,United States Of America,28.0324123,-82.4524689
rZ7HnEZ17a07V,West End Trading Company,Sanford,Florida,United States Of America,28.810713,-81.265142
KovZpZAJdEeA,The Santander Arena ,Reading,Pennsylvania,United States Of America,40.33514660,-75.92302063
KovZpZA6AEIA,Spectrum Center,Charlotte,North Carolina,United States Of America,35.22522200,-80.83992100
KovZpZAdakJA,Lenovo Center,Raleigh,North Carolina,United States Of America,35.80324200,-78.72293600
KovZ917AIZX,ETSU Martin Center for the Arts,Johnson City,Tennessee,United States Of America,36.30451960,-82.37186034
Z7r9jZaAFg,ETSU Martin Center for the Arts,Johnson City,Tennessee,United States Of America,36.365799000,-82.415100000
ZFr9jZavva,Ruby Diamond Auditorium,Tallahassee,Florida,United States Of America,30.440701000,-84.291397000
ZFr9jZ1kvA,Weill Recital Hall at Carnegie Hall,New York,New York,United States Of America,40.765202000,-73.985298000
ZFr9jZ7kvA,Zankel Hall at Carnegie Hall,New York,New York,United States Of America,40.765202000,-73.985298000
Z7r9jZadji,Matthews Theatre,Princeton,New Jersey,United States Of America,40.367901000,-74.654297000
ZFr9jZeaFF,Kentucky Center - Whitney Hall,Louisville,Kentucky,United States Of America,38.253601000,-85.749802000
rZ7HnEZ17_KPN,Madison Live (734),Covington ,Kentucky,United States Of America,39.082580,-84.509550
KovZpa4Rwe,Peter and Cynthia Zinober Concert Hall,Tampa,Florida,United States Of America,28.05460475,-82.41299495
KovZ917AOpe,UPMC Events Center,Moon Township,Pennsylvania,United States Of America,40.520236,-80.214785
KovZpaFu7e,The Arena at TD Place,Ottawa,Ontario,Canada,45.39892010,-75.68551100
KovZ917AxzU,Stubb's Waller Creek Amphitheater,Austin,Texas,United States Of America,30.26848700,-97.73619200
KovZ917AJ_x,Moody Amphitheater,Austin,Texas,United States Of America,30.27217700,-97.73485800
KovZ917Axan,Garcia's at The Capitol Theatre,Port Chester,New York,United States Of America,41.00134610,-73.66544880
KovZ917ALJx,Fillmore New Orleans,New Orleans,Louisiana,United States Of America,29.94939900,-90.06480600
KovZpa2Tne,Société des Arts Technologiques,Montreal,Quebec,Canada,45.50958700,-73.56266600
ZFr9jZd6v6,Neighborhood Theatre,Charlotte,North Carolina,United States Of America,35.219002000,-80.787598000
ZFr9jZa1Fe,Wagner Noel Performing Arts Center,Midland,Texas,United States Of America,32.034401000,-102.208000000
Z7r9jZaejx,The Kessler,Dallas,Texas,United States Of America,32.753201000,-96.839897000
ZFr9jZ1kdd,Copernicus Center,Chicago,Illinois,United States Of America,41.973801000,-87.749802000
ZFr9jZ1A6k,MilkBoy Philadelphia,Philadelphia,Pennsylvania,United States Of America,39.951599000,-75.158096000
ZkDnngzZDvL-hcatkqA0lrGQDB_34eK,VEEPS,,,,,
KovZpZAEAEaA,Flagstar at Westbury Music Fair,Westbury,New York,United States Of America,40.77517125,-73.56055321
rZ7HnEZaeOT,Lee's Palace,Toronto,Ontario,Canada,43.665249,-79.409447
rZ7HnEZ17_tPS,FIVE,Jacksonville,Florida,United States Of America,30.31493900,-81.68125800
rZ7HnEZ17fkOA,Mills Hardware,Hamilton,Ontario,Canada,43.255860,-79.866030
rZ7HnEZ17qgaV,The Parlour at The Signal,Chattanooga,Tennessee,United States Of America,35.03853426858,-85.30598760247
KovZ917AtLX,Uptown Theater Minneapolis,Minneapolis,Minnesota,United States Of America,44.94922000,-93.29845000
KovZpZA17ItA,Columbus Athenaeum,Columbus,Ohio,United States Of America,39.96374200,-82.99597100
ZFr9jZA76A,Lincoln Theatre-NC,Raleigh,North Carolina,United States Of America,35.775002000,-78.633598000
ZFr9jZAeea,Meyer Theatre,Green Bay,Wisconsin,United States Of America,44.481400000,-88.019600000
rZ7HnEZadeS,Cubby Bear,Chicago,Illinois,United States Of America,41.947012,-87.656821
KovZpZAJvIaA,Victory Theatre,Evansville,Indiana,United States Of America,37.97268218,-87.56892330
KovZpZAJ77kA,Black Sheep,Colorado Springs,Colorado,United States Of America,38.83715600,-104.78927590
KovZpap0Fe,Palace of Fine Arts,San Francisco,California,United States Of America,37.80188400,-122.44824900
KovZpZAJk7IA,The Depot,Salt Lake City,Utah,United States Of America,40.76963375,-111.90302543
Z7r9jZaeiv,Saturn - Birmingham,Birmingham,Alabama,United States Of America,33.522202000,-86.769897000
ZFr9jZ6717,Sam's Burger Joint,San Antonio,Texas,United States Of America,29.438299000,-98.481499000
ZFr9jZ6F7e,Scout Bar - Houston,Houston,Texas,United States Of America,29.582800000,-95.086098000
Z7r9jZa7-c,The Bur Oak,Madison,Wisconsin,United States Of America,43.118900000,-89.311401000
rZ7HnEZa6iQ,Exit/In,Nashville,Tennessee,United States Of America,36.151435,-86.804438
rZ7HnEZ17jpPS,Craft & Growler ,Dallas,Texas,United States Of America,32.78161273377588,-96.7668074
rZ7HnEZ17qkPV,Chickie Wah Wah,New Orleans,Louisiana,United States Of America,29.9667574,-90.0896109
ZFr9jZkve6,Aggie Theater,Fort Collins,Colorado,United States Of America,40.647499000,-105.047600000
ZFr9jZkA76,Orpheum Theater - Flagstaff,Flagstaff,Arizona,United States Of America,35.188801000,-111.660301000
ZFr9jZ6e1d,Colonial Theatre - Idaho,Idaho Falls,Idaho,United States Of America,43.524601000,-112.143600000
rZ7HnEZaAxT,Reggies Rock Club,Chicago,Illinois,United States Of America,41.853951,-87.626790
KovZ917AY7u,Walter Studios,Phoenix,Arizona,United States Of America,33.45795000,-112.08302000
ZFr9jZaedv,The Complex - UT,Salt Lake City,Utah,United States Of America,40.782001000,-111.751900000
Z7r9jZaeRF,The Pub Station,Billings,Montana,United States Of America,45.631100000,-108.351898000
Z7r9jZaetY,Barboza,Seattle,Washington,United States Of America,47.610802000,-122.302803000
Z7r9jZa7ET,Revel Entertainment Center,Albuquerque,New Mexico,United States Of America,35.138302000,-106.644997000
Z7r9jZaA2H,Walter Studios,Phoenix,Arizona,United States Of America,33.449001000,-112.091301000
ZFr9jZaadv,Proud Larry's,Oxford,Mississippi,United States Of America,34.345299000,-89.396004000
KovZ917A2k0,The Peppermint Club,Los Angeles,California,United States Of America,34.07685100,-118.38107200
KovZpZAEA6lA,Fox Performing Arts Center,Riverside,California,United States Of America,33.98376036,-117.37533193
KovZpZAk6JFA,Prospera Place,Kelowna,British Columbia,Canada,49.89355100,-119.49491610
ZFr9jZkFdA,Cal State- Laxson Auditorium,Chico,California,United States Of America,39.753799000,-121.806900000
ZFr9jZ7dkF,Prospera Place,Kelowna,British Columbia,Canada,0,0
Z7r9jZadaD,The Cabot,Beverly,Massachusetts,United States Of America,42.568501000,-70.861900000
KovZ9177nuV,Rebellion Manchester,Manchester,,Great Britain,53.47418340,-2.25049350
KovZ9177PI7,The Broadcaster,London,,Great Britain,51.51098200,-0.22482200
KovZ917AxAJ,novelle at Mohegan Sun,Uncasville,Connecticut,United States Of America,41.49159740,-72.09145630
KovZpZAJdIvA,Ameristar Casino Resort Spa St. Charles,Saint Charles,Missouri,United States Of America,38.76764701,-90.48503161
KovZ917A-Rm,Rose Music Hall,Columbia,Missouri,United States Of America,38.95456600,-92.32608500
KovZpa3Hme,Mohegan Sun Uncas Ballroom,Uncasville,Connecticut,United States Of America,41.49159740,-72.09145630
KovZpZAEFIaA,South Point Convention Center - South Point Hotel Casino and Spa,Las Vegas,Nevada,United States Of America,36.01142100,-115.17520100
rZ7HnEZ17_8ZS,Bloom,San Diego,California,United States Of America,32.714980,-117.160780
KovZ9177fEf,Rosies,Birmingham ,,Great Britain,52.477306,-1.911101
Z598xZ5rZedek,Olma Halle,St. Gallen,,Switzerland,47.4325,9.38267
KovZpZAdJIeA,The Pasadena Civic,Pasadena,California,United States Of America,34.14382890,-118.14421700
ZaHyzZyMZu9,Erzincan Merkez Kapalı Spor Salonu,Erzincan,,Turkey,39.74903520905714,39.51618279999999
ZaHyzZyMZCF,Diyarbakır Sezai Karakoç Kültür ve Kongre Merkezi,Diyarbakır,,Turkey,37.94268875507887,40.12048245244582
rZ7HnEZ17ANuP,The Bug Jar,Rochester,New York,United States Of America,43.150062,-77.600122
KovZ917A88V,Optus Stadium,Burswood,Western Australia,Australia,-31.95120400,115.88913200
Z2ymWIMJlyZziZFkF,Pasir Panjang Power Station,,,Singapore,,
KovZ9177wRV,SWG3,Glasgow,,Great Britain,55.86371100,-4.29821400
KovZ9177an7,ICC Wales,Newport,,Great Britain,51.59998000,-2.93131000
KovZpZAnFF7A,Glee Club,Birmingham,,Great Britain,52.47454100,-1.89662000
KovZpZAn1v6A,The Y Theatre,Leicester,,Great Britain,52.63172500,-1.12686500
ZaHyzZyMZGo,Bostancı Showland,İstanbul,,Turkey,40.956736,29.101819
KovZ9177wxf,Oran Mor Auditorium,Glasgow,,Great Britain,55.87411231,-4.29506019
KovZ917AZ1f,Greville Arms ,Co.Westmeath,,Ireland,53.52155872,-7.30294704
KovZ9177XG0,The Barrel House Ballroom,Totnes,,Great Britain,50.43147500,-3.69102500
KovZ9177i_7,Tron Theatre,Glasgow,,Great Britain,55.85680100,-4.24604800
Z198xZu3Zd71,,Zürich,,Switzerland,47.3881,8.49989
ZFr9jZa6vv,Kravis Center - Dreyfoos Hall,West Palm Beach,Florida,United States Of America,26.717400000,-80.069504000
Z7r9jZadBb,Prudential Hall at New Jersey PAC,Newark,New Jersey,United States Of America,40.733398000,-74.173500000
KovZ9177RS7,Usher Hall,Edinburgh,,Great Britain,55.94745600,-3.20506900
KovZpZAnkn1A,100 Club,London,,Great Britain,51.51622500,-0.13534500
KovZ917AvqV,Abbey Hotel Roscommon,Roscommon,,Ireland,53.41351000,-7.98393000
KovZpZAFkFtA,Lexington Opera House,Lexington,Kentucky,United States Of America,38.04950180,-84.49914890
KovZpZAJ7EJA,Signature Event Center,Brodheadsville,Pennsylvania,United States Of America,49.278719,-123.070765
ZFr9jZe76F,Aronoff Center-Procter & Gamble Hall,Cincinnati,Ohio,United States Of America,39.106400000,-84.501404000
ZFr9jZ7Fvd,Zellerbach Theatre,Philadelphia,Pennsylvania,United States Of America,39.961601000,-75.199501000
ZFr9jZFeA7,Bilheimer Capitol Theatre,Clearwater,Florida,United States Of America,27.979700000,-82.779404000
KovZpZAaaJkA,The Stage At Coco Outdoors,Coconut Creek,Florida,United States Of America,26.27812600,-80.20042800
KovZpaoy7e,Coronado Theatre,Rockford,Illinois,United States Of America,42.27392600,-89.09300100
KovZpZAIE7nA,The Lyric Theatre,Birmingham,Alabama,United States Of America,33.51528100,-86.80960100
Z7r9jZa740,The Lincoln - Cheyenne,Cheyenne,Wyoming,United States Of America,41.130100000,-104.868896000
KovZpZAFFl7A,Scotiabank Saddledome,Calgary,Alberta,Canada,51.03856260,-114.05248790
KovZpZAF6tIA,Soldier Field,Chicago,Illinois,United States Of America,41.86205404,-87.61682143
KovZpZA7vEEA,Arkley Center for the Performing Arts,Eureka,California,United States Of America,40.80257416,-124.16535950
ZaHyzZyMZuL,CSO Ada Ankara - Ana Salon,Ankara,,Turkey,39.93349019097993,32.850749599999936
ZaHyzZyMZx9,Merkez Park Amfi Tiyatro,Adana,,Turkey,36.9959356,35.3322579
KovZ917Air3,Colonial Theater,Idaho Falls,Idaho,United States Of America,43.49318600,-112.04134500
KovZpaKAZe,Pearl Concert Theater at Palms Casino Resort,Las Vegas,Nevada,United States Of America,36.11537800,-115.19534100
KovZpZAJ6nlA,The Masonic,San Francisco,California,United States Of America,37.79141900,-122.41329300
KovZ917AsNJ,The Theater at Bill Graham Civic Auditorium,San Francisco,California,United States Of America,37.77833000,-122.41743000
KovZpZAFkIlA,Paramount Theatre Oakland,Oakland,California,United States Of America,37.80986600,-122.26858600
KovZpapJfe,The Catalyst,Santa Cruz,California,United States Of America,36.97127800,-122.02591500
ZFr9jZek6a,Soma,San Diego,California,United States Of America,32.777599000,-117.195999000
Z7r9jZad23,Airport Tavern,Tacoma,Washington,United States Of America,47.206902000,-122.481499000
rZ7HnEZ178V74,SOMA - Mainstage,San Diego,California,United States Of America,32.754526,-117.208922
rZ7HnEZ178dZ4,The Fox Cabaret,Vancouver,British Columbia,Canada,49.264240,-123.101410
KovZpa4cFe,Petco Park,San Diego,California,United States Of America,32.70709659,-117.15680771
KovZ917A-Ej,Queensland Country Bank Stadium,Townsville,Queensland,Australia,-19.26606859,146.81647310
KovZpZA6t1FA,San Fran,Wellington,New Zealand,New Zealand,-41.29427340,174.77534480
KovZpZAEF7dA,The Opera House Wellington,Wellington,New Zealand,New Zealand,-41.29161700,174.77789500
KovZ917ApQf,Lansdowne Hotel,Sydney,New South Wales,Australia,-33.88479500,151.19502000
Z698xZq2Za7hq,,Kinna,,Sweden,57.5084,12.69823
KovZpZA6FIaA,MOJO'S BAR,North Fremantle,Western Australia,Australia,-32.03527100,115.75305900
Z598xZ8KZda11,MADETOJAN SALI,Oulu,,Finland,65.00325,25.48021
Z698xZq2ZaAP4,Skene bibliotek,Skene,,Sweden,57.48945,12.63792
ZaHyzZyMZh7,Piri Reis Culture Center,Karaman,,Turkey,37.169767,33.233065
Z1HyzZmzMZ9r,Tel Aviv Museum of Art,Tel Aviv - Jaffa,,Israel,32.1030556,34.8197345
Z598xZQpZedAe,Ewangelicki kościół Zbawiciela,Gliwice,Śląskie,Poland,50.2955,18.68078
Z598xZQpZeA61,Klub Palladium,Warsaw,Mazowieckie,Poland,52.23275,21.01165
ZaHyzZyMZ_3,Beylikdüzü Atatürk Kültür ve Sanat Merkezi (BAKSM),İstanbul,,Turkey,41.00248370398958,28.642112067110745
ZaHyzZyMZ54,Gebze Osman Hamdi Bey Culture Center,Kocaeli,,Turkey,40.806722,29.439015
KovZ9177IGf,Brixton Jamm,London,,Great Britain,51.47095000,-0.11195300
KovZpZAnan6A,Cadogan Hall,London,,Great Britain,51.49367300,-0.15758600
KovZpZAnJ6nA,"Chalk, Brighton",Brighton,,Great Britain,50.82016700,-0.13870400
KovZ9177WFf,Jack Solomons Jazz Club,London,,Great Britain,51.51117210,-0.13425340
KovZpZAn1nFA,Blondies,London,,Great Britain,51.55658000,-0.05597000
Z198xZ2qZkeF,Sala Razzmatazz 1,Barcelona,Barcelona,Spain,41.39772,2.19111
Za98xZu0ZA1,MeetFactory,Praha 5,,Czech Republic,50.05325,14.40828
ZFr9jZaka6,O2 Academy Birmingham,Birmingham,West Midlands,United Kingdom,0,0
Z1HyzZmzMZ2q,Assia Auditorium Museum Tel Aviv,Tel Aviv - Jaffa,,Israel,,
ZaHyzZyMZOa,Kahramanmaraş Sütçü İmam Üniversitesi Sezai Karakoç Konferans Salonu,Kahramanmaraş,,Turkey,37.642967,36.816854
Z1HyzZmzMZ45,Kaufmann Gitar Hall Museum Tel Aviv,Tel Aviv - Jaffa,,Israel,,
KovZ91770_0,Utilita Arena Sheffield,Sheffield,,Great Britain,53.39978600,-1.41882500
KovZ9177FDV,Royal Concert Hall Nottingham,Nottingham,,Great Britain,52.95585800,-1.15171600
KovZpZAtFkaA,The Warehouse Leeds,Leeds,,Great Britain,53.79890000,-1.55366000
Z1HyzZmzMZ38,Auditorium Haifa,Haifa,,Israel,,
ZaHyzZyMZQF,Paribu Art - Ana Sahne,İstanbul,,Turkey,40.99145005721765,29.036406371163967
Z598xZ5rZeev1,Theater Akzent,Vienna,,Austria,48.19235,16.37507
Z598xZQpZe7k1,Chmury,Warsaw,Mazowieckie,Poland,52.25932,21.03678
Z598xZQpZdedF,Globus Music Club,Krakow,Małopolskie,Poland,50.04392,19.95088
Z198xZu3ZF1e,,Kriens,,Switzerland,47.03347,8.2966
ZaHyzZyMZuh,Holly Stone Muğla,Muğla,,Turkey,,
Z1HyzZmzMZ4N,Yad Le Maginim Yagur,Yagur,,Israel,,
ZaHyzZyMZ-q,6:45 Pub Bornova,İzmir,,Turkey,38.451312,27.200725
KovZ9177V60,La Belle Angèle,Edinburgh ,,Great Britain,55.95739390,-3.18726160
KovZ9177YV7,Art School Glasgow,Glasgow,,Great Britain,55.86721600,-4.26431200
KovZpZAlkvtA,Future Yard,Birkenhead,,Great Britain,,
KovZ91771N0,XOYO Birmingham,Birmingham,,Great Britain,52.47501827,-1.88087599
KovZ9177GkV,Newcastle University Student Union,Newcastle Upon Tyne,,Great Britain,54.97894300,-1.61505700
KovZ9177Ho0,Downstairs at The Dome,London,,Great Britain,51.55806000,-0.13831000
KovZ9177W9V,Bath Forum,Bath,,Great Britain,51.37864500,-2.36050000
KovZ9177YZf,Glasgow Garage,Glasgow,,Great Britain,55.86629600,-4.26886200
KovZ9177yO7,Colours Hoxton,London,,Great Britain,51.52779000,-0.08183400
KovZ9177Ip0,London The Old Church (Stoke Newington),London,,Great Britain,51.56219000,-0.07871000
KovZ91770R7,Newhampton Arts Centre,Wolverhampton,,Great Britain,52.59160440,-2.13307580
KovZ9177lz7,Connexin Live,Hull,,Great Britain,53.74161600,-0.34321700
KovZ9177IN0,"The Waterside Theatre, Aylesbury",Aylesbury,,Great Britain,51.81494800,-0.81043900
KovZ9177cg7,"Audio, Glasgow",Glasgow,,Great Britain,55.85733570,-4.25771050
KovZpZAnak7A,O2 Academy Birmingham,Birmingham,,Great Britain,52.47327700,-1.90021500
KovZ9177F6V,O2 Academy2 Islington,London,,Great Britain,51.53445948,-0.10661535
KovZ9177Aof,Manchester Academy,Manchester,,Great Britain,53.46438600,-2.23222500
KovZ91775af,Hackney Church ,London,,Great Britain,51.54908240,-0.05324010
KovZ9177RFf,Stylus,Leeds,,Great Britain,53.80795800,-1.55332900
ZaHyzZyMZQ2,Holly Stone Eskişehir,Eskişehir,,Turkey,39.78450287532672,30.49973476421282
Z698xZC2Za7PL,Parkhotel Blauer Salon,Dresden,,Germany,51.06383,13.82164
Z698xZC2Za6p6,,Dresden,,Germany,51.0677,13.7494
Z198xZu3Zkv7,Dynamo Saal,Zürich,,Switzerland,47.38341,8.53939
ZaHyzZyMZA8,Dada Salon Kabarett,İstanbul,,Turkey,41.0663112315779,29.00123458650818
KovZ9177TT0,Old Fire Station,Carlisle,,Great Britain,54.89674376,-2.93607728
KovZ9177MXV,Loughborough Town Hall,Loughborough,,Great Britain,52.77174100,-1.20605200
KovZpZAntvEA,SJQ,London,,Great Britain,51.54867800,-0.07623900
KovZ9177zN0,Rose Theatre,Surrey,,Great Britain,51.40820600,-0.30778800
KovZ9177Mzf,Watford Colosseum,Watford,,Great Britain,51.65897400,-0.40345700
KovZ91775rV,Manchester Gullivers,Manchester,,Great Britain,53.48362600,-2.23462100
KovZpZAlFE1A,Papillon,Southampton,,Great Britain,,
KovZ91777Rf,Key Theatre,Peterborough,,Great Britain,52.56856800,-0.23862600
KovZ9177Ao0,Orchard West,Dartford,,Great Britain,51.44582257,0.21638200
KovZpZAtanvA,The Angel at Topcliffe,York,,Great Britain,54.17767500,-1.38738600
KovZ9177Lwf,Brighton A L P H A B E T,Brighton,,Great Britain,50.82423988,-0.14507571
KovZpZAnEdIA,Princess Pavilion,Falmouth,,Great Britain,50.14768000,-5.06332500
KovZ9177rUV,Low Four Studios,Manchester,,Great Britain,,
KovZ91777WV,Clwb Ifor Bach,Cardiff,,Great Britain,51.48022100,-3.18116500
KovZpZAtt6FA,Hyde Park Book Club,Leeds,,Great Britain,53.81617700,-1.56660800
Z198xZbpZA6F,de Doelen,Rotterdam,,Netherlands,51.92174,4.47318
Z598xZbpZA6vk,Metropool Enschede,Enschede,,Netherlands,52.22255,6.89461
KovZ9177XF0,The Windmill,Brixton,,Great Britain,51.45451900,-0.12249100
KovZ9177XOV,Dolans Warehouse,Limerick City,Co. Limerick,Ireland,52.65891900,-8.63841400
KovZ9177LdV,Ormside Projects,London,,Great Britain,,
Z1HyzZmzMZo2,Alshtein Gallery Museum Tel Aviv,Tel Aviv - Jaffa,,Israel,,
Z598xZ2qZe6d7,Palau Sant Jordi,Barcelona,Barcelona,Spain,41.36337,2.15259
KovZpZAtF7EA,The Flowerpot,Derby,,Great Britain,52.92620900,-1.47957500
KovZpZA6JnFA,Estadio 3 De Marzo U.A.G,Zapopan,Jalisco,Mexico,20.693768,-103.416177
KovZ9177kt7,Sin City,Swansea,,Great Britain,51.61895700,-3.95008000
Z198xZ8KZAke,HELSINKI ICEHALL,Helsinki,,Finland,60.18953,24.92166
ZFr9jZ6ddk,Queen Elizabeth Theatre - Toronto,Toronto,Ontario,Canada,0,0
KovZpZAdIFtA,Queen Elizabeth Theatre,Toronto,Ontario,Canada,43.63259410,-79.42039150
KovZ917A2qV,Greenfield Lake Amphitheater,Wilmington,North Carolina,United States Of America,34.21513800,-77.94336100
Z598xZQpZd7vF,Klub Królestwo,Katowice,Śląskie,Poland,50.26451,19.02123
Z7r9jZaesx,Cafe Da Vinci,Deland,Florida,United States Of America,28.970600000,-81.421402000
ZFr9jZ6661,Charleston Pour House,Charleston,South Carolina,United States Of America,32.724800000,-79.960800000
rZ7HnEZa7CT,Middle East - Downstairs,Cambridge,Massachusetts,United States Of America,42.36422,-71.10133
rZ7HnEZ17_tuS,The Grainery ,Plain City,Ohio,United States Of America,40.1081,83.2676
KovZpZAEkvlA,Revolution Live,Ft Lauderdale,Florida,United States Of America,26.12109400,-80.14616200
KovZpZAFa6lA,Rupp Arena,Lexington,Kentucky,United States Of America,38.04914800,-84.50103770
ZFr9jZa7v6,The Beacham,Orlando,Florida,United States Of America,28.541800000,-81.373596000
KovZ917AqfB,The Baby G,Toronto,Ontario,Canada,43.65001900,-79.43540400
KovZ9177Nmf,Whitby Pavilion Northern Lights Suite,Whitby,,Great Britain,54.49026000,-0.61890000
ZFr9jZk7vA,Honeywell Center,Wabash,Indiana,United States Of America,40.741402000,-85.842598000
ZFr9jZk71v,The Mohawk-Austin,Austin,Texas,United States Of America,30.272100000,-97.742401000
Z6r9jZAeke,Cow Palace,Daly City,California,United States Of America,37.692699000,-122.447098000
ZFr9jZd6Av,Petersen Events Center,Pittsburgh,Pennsylvania,United States Of America,40.444099000,-79.954399000
Z7r9jZaA6s,Grewal Hall,Lansing,Michigan,United States Of America,42.732101000,-84.554497000
Z5IMVHtnMZFev,Cine Joia,,,,-23.5528711,-46.6360441
KovZpZAdt7AA,The Stone Pony,Asbury Park,New Jersey,United States Of America,40.22000100,-74.00071097
rZ7HnEZ17F4OA,Drom,New York,New York,United States Of America,40.7253238,-73.9843144
rZ7HnEZ17qs8V,Northwood Church,Summerville,South Carolina,United States Of America,33.0610603,-80.1018977
rZ7HnEZ17fFrA,Biltmore Theatre,Oshawa,Ontario,Canada,43.897670,-78.861970
KovZpZAdJ16A,Reverb,Reading,Pennsylvania,United States Of America,40.35633270,-75.91961230
KovZpZAEda1A,Amsterdam Bar & Hall,Saint Paul,Minnesota,United States Of America,44.94606000,-93.09539700
KovZpZAJevIA,Old National Events Plaza,Evansville,Indiana,United States Of America,37.97234300,-87.56604400
KovZpZAdFatA,Dow Event Center,Saginaw,Michigan,United States Of America,43.43586000,-83.93617100
KovZpZAJA6FA,Huntington Center,Toledo,Ohio,United States Of America,41.65103800,-83.53757100
KovZ917A2G0,Charles F. Dodge City Center Pembroke Pines,Pembroke Pines,Florida,United States Of America,26.00699800,-80.28113500
KovZpa39be,1st SUMMIT ARENA at Cambria County War Memorial,Johnstown,Pennsylvania,United States Of America,40.32302740,-78.92272140
KovZ917ARvk,The Bell House,Brooklyn,New York,United States Of America,40.67373000,-73.99156000
ZFr9jZdaa1,Knoxville Coliseum,Knoxville,Tennessee,United States Of America,35.971001000,-83.899696000
Z6r9jZk6Fe,Fisher Theatre - Detroit,Detroit,Michigan,United States Of America,42.374802000,-83.077599000
ZFr9jZ6ekk,Weinberg Center For The Arts,Frederick,Maryland,United States Of America,39.439301000,-77.342796000
rZ7HnEZ17FPfV,The Southgate House Revival - Sanctuary,Newport,Kentucky,United States Of America,39.092089,-84.493152
KovZpZA1EEJA,Boch Center Shubert Theatre,Boston,Massachusetts,United States Of America,42.35306800,-71.07651880
KovZpZAFk7tA,Culture Room,Ft Lauderdale,Florida,United States Of America,26.16688800,-80.11705800
KovZpZAJAnIA,MGM Northfield Park - Center Stage,Northfield,Ohio,United States Of America,41.35002986,-81.52661070
KovZ917ASl7,Six String Grill and Stage,Foxboro,Massachusetts,United States Of America,42.09535000,-71.26837000
rZ7HnEZ17_apd,Diamondback Music Hall,Belleville,Michigan,United States Of America,42.2185947623,-83.5218059153
KovZ917ANZV,Dynasty Typewriter at the Hayworth,Los Angeles,California,United States Of America,34.06048000,-118.28083900
ZaHyzZyMZ70,Pentagon Performans Hall,Konya,,Turkey,38.009855,32.526035
KovZ917Ac_V,LIV Nightclub Miami,Miami Beach,Florida,United States Of America,25.81780500,-80.12214300
KovZpZAF67IA,L'Auberge Casino & Hotel Baton Rouge ,Baton Rouge,Louisiana,United States Of America,30.34565775,-91.15096275
KovZpZAJEavA,Aztec Theatre,San Antonio,Texas,United States Of America,29.42471628,-98.49110126
rZ7HnEZ17f0uP,Middle Ages Beer Hall,Syracuse,New York,United States Of America,43.051315720388,-76.16164963558
KovZpZAEkFkA,Texas Club,Baton Rouge,Louisiana,United States Of America,30.45152650,-91.11838980
Z198xZQpZe71,COS Torwar,Warsaw,Mazowieckie,Poland,52.22245,21.04219
KovZ9177cg0,"P&J Live, Aberdeen",Aberdeen,,Great Britain,57.18514700,-2.19039600
Z598xZC2ZkF6F,,Frankfurt am Main,,Germany,50.09914,8.51972
KovZ9177cf0,Alhambra Theatre,Dunfermline,,Great Britain,56.06981200,-3.45799000
KovZpZA6kelA,Nationwide Arena,Columbus,Ohio,United States Of America,39.96939661,-83.00636203
KovZ917AIEk,Revel Entertainment Center,Albuquerque,New Mexico,United States Of America,35.13468000,-106.61610000
KovZpZA6EFEA,Teatro Diana (GDL),Guadalajara,Jalisco,Mexico,20.665434,-103.349341
